Company_Name,Registered_Office_Address,Corporate_Office_Address,Primary_Address
360 ONE WAM LIMITED,"360 ONE Centre, Kamala City, Senapati Bapat Marg, Lower Parel, Mumbai – 400013","360 ONE Centre, Kamala City, Senapati Bapat Marg, Lower Parel, Mumbai – 400013","360 ONE Centre, Kamala City, Senapati Bapat Marg, Lower Parel, Mumbai – 400013"
3M INDIA LIMITED,"Plot Nos. 48-51, Electronics City, Hosur Road, Bengaluru - 560 100","Marksquare, 5th Floor, St. Marks Road, Shanthala Nagar, Ashok Nagar, Bengaluru, Karnataka 560001","Marksquare, 5th Floor, St. Marks Road, Shanthala Nagar, Ashok Nagar, Bengaluru, Karnataka 560001"
Aarti Industries Limited,"Plot Nos. 801, 801/23, G.I.D.C. Estate, Phase-III, Vapi, Dist. Valsad, Gujarat-396195","71, 2nd Floor, Udyog Kshetra, Mulund-Goregaon Link Road, Salpa Devi Pada, Mulund West, Mumbai - 400 080, Maharashtra","71, 2nd Floor, Udyog Kshetra, Mulund-Goregaon Link Road, Salpa Devi Pada, Mulund West, Mumbai - 400 080, Maharashtra"
Aavas Financiers Limited,"201-202,2nd Floor, Southend Square, Mansarovar Industrial Area, Jaipur - 302020","201-202,2nd Floor, Southend Square, Mansarovar Industrial Area, Jaipur - 302020","201-202,2nd Floor, Southend Square, Mansarovar Industrial Area, Jaipur - 302020"
ABB India Limited,"“Disha”, Corporate Office, 3rd Floor. Plot No. 5 &
6, 2nd Stage, Peenya Industrial Area IV, Peenya,
Bengaluru - 560 058, Karnataka.","“Disha”, Corporate Office, 3rd Floor. Plot No. 5 &
6, 2nd Stage, Peenya Industrial Area IV, Peenya,
Bengaluru - 560 058, Karnataka.","“Disha”, Corporate Office, 3rd Floor. Plot No. 5 &
6, 2nd Stage, Peenya Industrial Area IV, Peenya,
Bengaluru - 560 058, Karnataka."
ACC Limited,"Adani Corporate House, Shantigram, Near Vaishno Devi Circle, S.G. Highway,
Ahmedabad – 382421","Adani Corporate House, Shantigram, Near Vaishno Devi Circle, S.G. Highway,
Ahmedabad – 382421","Adani Corporate House, Shantigram, Near Vaishno Devi Circle, S.G. Highway,
Ahmedabad – 382421"
Adani Energy Solutions Limited,"“Adani Corporate House”, Shantigram, Near VaishnoDevi Circle, S. G. Highway, Khodiyar, Ahmedabad – 382421, Gujarat, India","“Adani Corporate House”, Shantigram, Near VaishnoDevi Circle, S. G. Highway, Khodiyar, Ahmedabad – 382421, Gujarat, India.","“Adani Corporate House”, Shantigram, Near VaishnoDevi Circle, S. G. Highway, Khodiyar, Ahmedabad – 382421, Gujarat, India."
Adani Enterprises Limited,"Adani Corporate House, Shantigram, Near Vaishnodevi Circle, S. G. Highway, Khodiyar, Ahmedabad –382421, Gujarat, India.","Adani Corporate House, Shantigram, Near Vaishnodevi Circle, S. G. Highway, Khodiyar, Ahmedabad –382421, Gujarat, India.","Adani Corporate House, Shantigram, Near Vaishnodevi Circle, S. G. Highway, Khodiyar, Ahmedabad –382421, Gujarat, India."
Adani Ports and Special Economic Zone Limited,"Adani Corporate House, Shantigram, Near Vaishno Devi Circle, S. G. Highway, Khodiyar, Ahmedabad-382421 Gujarat","Adani Corporate House, Shantigram, Near Vaishno Devi Circle, S. G. Highway, Khodiyar, Ahmedabad-382421 Gujarat","Adani Corporate House, Shantigram, Near Vaishno Devi Circle, S. G. Highway, Khodiyar, Ahmedabad-382421 Gujarat"
ADANI POWER LIMITED,"Adani Corporate House, Shantigram, Near Vaishno Devi Circle, S. G. Highway, Khodiyar, NA Ahmedabad Ahmedabad GJ 382421 IN","Adani Corporate House, Shantigram, Near Vaishno Devi Circle, S. G. Highway, Khodiyar, NA Ahmedabad Ahmedabad GJ 382421 IN","Adani Corporate House, Shantigram, Near Vaishno Devi Circle, S. G. Highway, Khodiyar, NA Ahmedabad Ahmedabad GJ 382421 IN"
Adani Total Gas Limited,"“Adani Corporate House”, Shantigram, Near VaishnoDevi
Circle, S. G. Highway, Khodiyar, Ahmedabad – 382421,
Gujarat, India.","“Adani Corporate House”, Shantigram, Near VaishnoDevi
Circle, S. G. Highway, Khodiyar, Ahmedabad – 382421,
Gujarat, India.","“Adani Corporate House”, Shantigram, Near VaishnoDevi
Circle, S. G. Highway, Khodiyar, Ahmedabad – 382421,
Gujarat, India."
Aditya Birla Capital Limited,"Indian Rayon Compound, Veraval – 362266, Gujarat","18th floor, One World Centre, Jupiter Mills Compound, 841, Senapati Bapat, Mumbai – 400013, 
Maharashtra","18th floor, One World Centre, Jupiter Mills Compound, 841, Senapati Bapat, Mumbai – 400013, 
Maharashtra"
Aditya Birla Fashion and Retail Limited,"Piramal Agastya Corporate Park, Building ‘A’, 4th and 5th Floor, Unit No. 401, 403, 501, 502, L.B.S. Road, Kurla, Mumbai, Maharashtra - 400 070","KH No 118/110/1 Building2 Divyashree Technopolis, Yemalur Post, HAL Old Airport Rd, Bengaluru, Karnataka - 560 037","KH No 118/110/1 Building2 Divyashree Technopolis, Yemalur Post, HAL Old Airport Rd, Bengaluru, Karnataka - 560 037"
Aditya Birla Sun Life AMC Limited,"One World Center, Tower 1, 17th Floor, Jupiter Mills, Senapati Bapat Marg Elphinstone Road, Mumbai - 400013","One World Center, Tower 1, 17th Floor, Jupiter Mills, Senapati Bapat Marg, Elphinstone Road, Mumbai - 400013","One World Center, Tower 1, 17th Floor, Jupiter Mills, Senapati Bapat Marg, Elphinstone Road, Mumbai - 400013"
Aegis Logistics Limited,"502, 5th Floor, Skylon Co. Op. Housing Society Limited., GIDC, Char Rasta, Vapi- 396195, Dist. Valsad, Gujarat State, India","1202, Tower B, Peninsula Business Park, G K MARG, Lower Parel (WEST) Mumbai-400013 MH","1202, Tower B, Peninsula Business Park, G K MARG, Lower Parel (WEST) Mumbai-400013 MH"
Aether Industries Limited,"Aether Industries Limited, Plot No. 8203, GIDC Sachin, Surat-394230, Gujarat.","Aether Industries Limited, Plot No. 8203, GIDC Sachin, Surat-394230, Gujarat.","Aether Industries Limited, Plot No. 8203, GIDC Sachin, Surat-394230, Gujarat."
AIA ENGINEERING LIMITED,"115, G.V.M.M. ESTATE, ODAV ROAD, ODHAV, 
AHMEDABAD - 382415","11/12, SIGMA COPRORATES, B/H. HOF 
SHOWROOM, OFF. S.G. HIGHWAY, SINDHU BHAVAN 
ROAD, BODAKDEV, AHMEDABAD - 380054","11/12, SIGMA COPRORATES, B/H. HOF 
SHOWROOM, OFF. S.G. HIGHWAY, SINDHU BHAVAN 
ROAD, BODAKDEV, AHMEDABAD - 380054"
Ajanta Pharma Limited,"Ajanta House 98, Govt Industrial Area, Charkop, Kandivli (West), Mumbai- 400067, Maharashtra, India.",Same as above,Same as above
Akzo Nobel India Limited,"801A, South City Business Park, 770, Anandapur, Eastern Metropolitan Bypass, Near Fortis Hospital, E.K.T., Kolkata – 700 107, West Bengal","9th Floor, Magnum Towers 1, Sector 58, Gurugram 122 011, India","9th Floor, Magnum Towers 1, Sector 58, Gurugram 122 011, India"
ALEMBIC PHARMACEUTICALS LIMITED,"ALEMBIC ROAD, VADODARA, Gujarat, India, 390003","ALEMBIC ROAD, VADODARA, Gujarat, India, 390003","ALEMBIC ROAD, VADODARA, Gujarat, India, 390003"
Alkem Laboratories Limited,"Alkem House, Senapati Bapat Marg, Lower Parel, Mumbai - 400 013, Maharashtra, India","Alkem House, Senapati Bapat Marg, Lower Parel, Mumbai - 400 013, Maharashtra, India","Alkem House, Senapati Bapat Marg, Lower Parel, Mumbai - 400 013, Maharashtra, India"
ALKYL AMINES CHEMICALS LIMITED,"401-407 Nirman Vyapar Kendra, Sector 17, Vashi, Navi Mumbai - 400703","207A, Kakad Chambers, 132, Dr. Annie Besant Road, Worli, Mumbai - 400018","207A, Kakad Chambers, 132, Dr. Annie Besant Road, Worli, Mumbai - 400018"
ALOK INDUSTRIES LIMITED,"Survey Nos. 17/5/1 & 521/1, Village Rakholi/ Sayli, Silvassa, Union Territory of Dadra and Nagar Haveli and Daman and Diu – 396230","Dhirubhai Ambani Knowledge City (DAKC), Building No. 24, 5th and 6th floor, MIDC, Plot no. 1 of 2, TTC Industrial area, Kopar Khairane, Navi Mumbai - 400 710.","Dhirubhai Ambani Knowledge City (DAKC), Building No. 24, 5th and 6th floor, MIDC, Plot no. 1 of 2, TTC Industrial area, Kopar Khairane, Navi Mumbai - 400 710."
Amara Raja Energy  Mobility Limited,"Renignuta-Cuddapah Road, Karakambadi, Tirupati, Andhra Pradesh – 517520.","TERMINAL A, 1-18/1/AMR/NR, Nanakramguda, Gachibowli, Hyderabad – 500032.","TERMINAL A, 1-18/1/AMR/NR, Nanakramguda, Gachibowli, Hyderabad – 500032."
Amber Enterprises India Limited,C – 1 Phase – II Focal Point Rajpura Town Punjab – 140401,Universal Trade Tower 1st Floor Sector – 49 Sohna Road Gurgaon – 122018,Universal Trade Tower 1st Floor Sector – 49 Sohna Road Gurgaon – 122018
Ambuja Cements Limited,"Adani Corporate House, Shantigram, Near Vaishno Devi Circle, S.G. Highway,
Ahmedabad – 382421","Adani Corporate House, Shantigram, Near Vaishno Devi Circle, S.G. Highway,
Ahmedabad – 382421","Adani Corporate House, Shantigram, Near Vaishno Devi Circle, S.G. Highway,
Ahmedabad – 382421"
Anand Rathi Wealth Limited,"Express Zone, A Wing, 10th Floor, Western Express Highway, Goregaon (E), Mumbai - 400063","Floor No. 2&3, Block B & C, E Wing, Trade Link, Kamala Mills Compound, Senapati Bapat Marg, Lower Parel, Mumbai - 400013","Floor No. 2&3, Block B & C, E Wing, Trade Link, Kamala Mills Compound, Senapati Bapat Marg, Lower Parel, Mumbai - 400013"
Anant Raj Limited,"Plot No. CP-1, Sector-8 IMT Manesar, Gurugram-122051, Haryana, India","H-65, Connaught Circus, New Delhi-110001","H-65, Connaught Circus, New Delhi-110001"
Angel One Limited,"601, 6th Floor, Ackruti Star, Central Road, MIDC, Andheri East,Mumbai-400093","601, 6th Floor, Ackruti Star, Central Road, MIDC, Andheri East,Mumbai-400093","601, 6th Floor, Ackruti Star, Central Road, MIDC, Andheri East,Mumbai-400093"
Anupam Rasayan India Limited,1101 to 1107 11th Floor Icon Rio Behind Icon Business Centre Dumas Road Surat 395007 Gujarat India,10th Floor Icon Rio Behind Icon Business Centre Dumas Road Surat 395007 Gujarat India,10th Floor Icon Rio Behind Icon Business Centre Dumas Road Surat 395007 Gujarat India
APAR Industries Limited,"301 Panorama Complex, RC Dutt Road, Vadodara, Gujarat - 390007, India","APAR House', Bldg. No. 5, Corporate Park, Sion - Trombay Road, Chembur, Mumbai – 400071, Maharashtra, India","APAR House', Bldg. No. 5, Corporate Park, Sion - Trombay Road, Chembur, Mumbai – 400071, Maharashtra, India"
APL Apollo Tubes Limited,"37, Hargobind Enclave, Vikas Marg, Delhi 110092","SG Centre, 37C, Block B, Sector 132, Noida, Uttar Pradesh - 201304","SG Centre, 37C, Block B, Sector 132, Noida, Uttar Pradesh - 201304"
Apollo Tyres Limited,"3rd Floor, Areekal Mansion, Pampilly Nagar, Kochi-682036 (Kerala), India","7, Apollo House, Institutional Area, Sector-32, Gurugram-122001, Haryana","7, Apollo House, Institutional Area, Sector-32, Gurugram-122001, Haryana"
Aptus Value Housing Finance India Limited,"NO. 8B, DOSHI TOWERS, 8TH FLOOR, NO:205, POONAMALLEE HIGH ROAD, KILPAUK, CHENNAI, Tamil Nadu, India, 600010","NO. 8B, DOSHI TOWERS, 8TH FLOOR, NO:205, POONAMALLEE HIGH ROAD, KILPAUK, CHENNAI, Tamil Nadu, India, 600010","NO. 8B, DOSHI TOWERS, 8TH FLOOR, NO:205, POONAMALLEE HIGH ROAD, KILPAUK, CHENNAI, Tamil Nadu, India, 600010"
Archean Chemical Industries Limited,"No.2, North Crescent Road, T Nagar Chennai, Tamil Nadu-600017","No.2, North Crescent Road, T Nagar Chennai, Tamil Nadu-600017","No.2, North Crescent Road, T Nagar Chennai, Tamil Nadu-600017"
ARVIND LIMITED,"NARODA ROAD, AHMEDABAD","NARODA ROAD, AHMEDABAD","NARODA ROAD, AHMEDABAD"
Asahi India Glass Limited,"A-2/10, 1st Floor, WHS DDA Marble Market, Kirti Nagar,
New Delhi-110 015","3rd Floor, Tower – D, Global Business Park, Mehrauli-Gurgaon Road, Gurgaon – 122002, Haryana","3rd Floor, Tower – D, Global Business Park, Mehrauli-Gurgaon Road, Gurgaon – 122002, Haryana"
Ashok Leyland Limited,"No. 1, Sardar Patel Road, Guindy,
Chennai – 600 032","No. 1, Sardar Patel Road, Guindy,
Chennai – 600 032","No. 1, Sardar Patel Road, Guindy,
Chennai – 600 032"
Asian Paints Limited,"6A & 6B, Shantinagar, Santacruz (East), Mumbai – 400 055, Maharashtra, India","6A & 6B, Shantinagar, Santacruz (East), 
Mumbai – 400 055, Maharashtra, India","6A & 6B, Shantinagar, Santacruz (East), 
Mumbai – 400 055, Maharashtra, India"
Aster DM Healthcare Limited,"Awfis, 2nd Floor, Renaissance Centra, 27 & 27/1, Mission Road Sampangi Rama Nagar, Bengaluru, Karnataka 560027","Awfis, 2nd Floor, Renaissance Centra, 27 & 27/1, Mission Road, Sampangi Rama Nagar, Bengaluru, Karnataka 560027","Awfis, 2nd Floor, Renaissance Centra, 27 & 27/1, Mission Road, Sampangi Rama Nagar, Bengaluru, Karnataka 560027"
Astral Limited,"“Astral House’’, 207/1, Behind Rajpath Club, Off. S. G. Highway, Ahmedabad-380059, Gujarat, India.","“Astral House’’, 207/1, Behind Rajpath Club, Off. S. G. Highway, Ahmedabad-380059, Gujarat, India.","“Astral House’’, 207/1, Behind Rajpath Club, Off. S. G. Highway, Ahmedabad-380059, Gujarat, India."
AstraZeneca Pharma India Limited,"Block N1, 12th Floor, Manyata Embassy Business Park, Rachenahalli, Outer Ring Road, Bengaluru – 560 045, Karnataka, India","Block N1, 12th Floor, Manyata Embassy Business Park, Rachenahalli, Outer Ring Road, Bengaluru – 560 045, Karnataka, India","Block N1, 12th Floor, Manyata Embassy Business Park, Rachenahalli, Outer Ring Road, Bengaluru – 560 045, Karnataka, India"
Atul Limited,"Atul House, G I Patel Marg, Ahmedabad 380 014, Gujarat, India","Atul 396 020, Gujarat, India","Atul 396 020, Gujarat, India"
AUROBINDO PHARMA LIMITED,"Plot no.2, Maithrivihar, Behind Maithrivanam, Ameerpet, Hyderabad - 500038, Telangana, India","Galaxy, Floor 22-24; Plot No 1, Sy No 83/1, Hyderabad Knowledge City, Raidurg Panmaktha, Hyderabad - 500032, Telangana, India","Galaxy, Floor 22-24; Plot No 1, Sy No 83/1, Hyderabad Knowledge City, Raidurg Panmaktha, Hyderabad - 500032, Telangana, India"
Authum Investment  Infrastructure Limited,"707, Raheja Centre, Free Press Journal Marg, Nariman Point, Mumbai 400021","The Ruby, 11th Floor, North-West Wing, Plot No. 29, Senapati Bapat Marg, Dadar (West), Mumbai 400 028","The Ruby, 11th Floor, North-West Wing, Plot No. 29, Senapati Bapat Marg, Dadar (West), Mumbai 400 028"
AU Small Finance Bank Limited,"19-A, Dhuleshwar Garden, Ajmer Road, Jaipur – 302001,
Rajasthan","5th Floor, E-Wing, Kanakia Zillion, Junction of CST Road & LBS Road, Kurla (West), Mumbai – 400070, Maharashtra","5th Floor, E-Wing, Kanakia Zillion, Junction of CST Road & LBS Road, Kurla (West), Mumbai – 400070, Maharashtra"
Avenue Supermarts Limited,"Anjaneya CHS Ltd, Orchard Avenue, Opp. Hiranandani Foundation School, Powai, Mumbai- 400076","B-72/72A, Wagle Industrial Estate, Road No. 33, Kamgar Hospital Road, Thane- 400604","B-72/72A, Wagle Industrial Estate, Road No. 33, Kamgar Hospital Road, Thane- 400604"
Axis Bank Limited,"“TRISHUL”, Third Floor, Opp. Samartheshwar Temple, Law Garden, Ellisbridge, 
Ahmedabad - 380 006, Gujarat","‘Axis House’, C-2, Pandurang Budhkar Marg, Worli, Mumbai – 400 025, Maharashtra","‘Axis House’, C-2, Pandurang Budhkar Marg, Worli, Mumbai – 400 025, Maharashtra"
Bajaj Auto Limited,"Mumbai-Pune Road, Akurdi, Pune – 411035, India","Mumbai-Pune Road, Akurdi, Pune – 411035, India","Mumbai-Pune Road, Akurdi, Pune – 411035, India"
BAJAJ ELECTRICALS LIMITED,"45/47, Veer Nariman Road, Mumbai 400001","Bajaj Electricals Limited, 26th and 27th Floors, One Unity Center, Senapati Bapat Marg, Prabhadevi 
(West), Mumbai – 400013","Bajaj Electricals Limited, 26th and 27th Floors, One Unity Center, Senapati Bapat Marg, Prabhadevi 
(West), Mumbai – 400013"
Bajaj Finance Limited,"Akurdi, Pune - 411035","4th Floor, Bajaj Finserv Corporate office, Off Pune - Ahmednagar Road, Viman Nagar, Pune - 411014","4th Floor, Bajaj Finserv Corporate office, Off Pune - Ahmednagar Road, Viman Nagar, Pune - 411014"
Bajaj Finserv Limited,"Bajaj Auto Limited Complex Mumbai - Pune Road, Pune","6th Floor, Bajaj Finserv Corporate office, Off Pune Ahmednagar Road, Viman Nagar, Pune - 411014","6th Floor, Bajaj Finserv Corporate office, Off Pune Ahmednagar Road, Viman Nagar, Pune - 411014"
Bajaj Holdings  Investment Limited,"C/o. Bajaj Auto Ltd., Mumbai-Pune Road, Akurdi,","3rd Floor, Panchshil Tech Park, Viman Nagar, Pune – 411014","3rd Floor, Panchshil Tech Park, Viman Nagar, Pune – 411014"
Balkrishna Industries Limited,"B-66, Waluj MIDC, Waluj Industrial Area, Chhatrapati Sambhaji Nagar, 431136 – Maharashtra","BKT House, C/15, Trade World, Kamala Mills Compound, Senapati Bapat Marg, Lower Parel, Mumbai – 400 013, India","BKT House, C/15, Trade World, Kamala Mills Compound, Senapati Bapat Marg, Lower Parel, Mumbai – 400 013, India"
Balrampur Chini Mills Limited,"234/3A, A J C Bose Road, FMC Fortuna, 2nd Floor, Kolkata 700020","234/3A, A J C Bose Road, FMC Fortuna, 2nd Floor, Kolkata 700020","234/3A, A J C Bose Road, FMC Fortuna, 2nd Floor, Kolkata 700020"
Bandhan Bank Limited,"DN-32, Sector – V, Salt Lake, Kolkata – 700 091, West Bengal","Floors 12-14, Adventz Infinity@5, BN-5, Sector V, Salt Lake City, Kolkata - 700 091, West Bengal","Floors 12-14, Adventz Infinity@5, BN-5, Sector V, Salt Lake City, Kolkata - 700 091, West Bengal"
Bank of Baroda,"Baroda House Mandvi Vadodara 390001
Gujarat India","Baroda Corporate Centre, Plot No. C-26, Block G, Bandra Kurla Complex, Bandra (East), Mumbai – 400051, Maharashtra, India","Baroda Corporate Centre, Plot No. C-26, Block G, Bandra Kurla Complex, Bandra (East), Mumbai – 400051, Maharashtra, India"
BANK OF INDIA,"Star House, C-5, G-Block, 8th Floor, Bandra Kurla Complex, Bandra (East), Mumbai – 400 051","Star House, C-5, G-Block, 8th Floor, Bandra Kurla Complex, Bandra (East), Mumbai – 400 051","Star House, C-5, G-Block, 8th Floor, Bandra Kurla Complex, Bandra (East), Mumbai – 400 051"
BANK OF MAHARASHTRA,"Lokmangal, 1501, Shivajinagar, Pune","Lokmangal, 1501, Shivajinagar, Pune","Lokmangal, 1501, Shivajinagar, Pune"
BASF India Limited,"Unit Nos. 10A, 10B, 10C (Part), 10th Floor, Godrej One, Pirojshanagar, Eastern Express Highway, Vikhroli (East), Mumbai 400 079","Unit Nos. 10A, 10B, 10C (Part), 10th Floor, Godrej One, Pirojshanagar, Eastern Express Highway, Vikhroli (East), Mumbai 400 079","Unit Nos. 10A, 10B, 10C (Part), 10th Floor, Godrej One, Pirojshanagar, Eastern Express Highway, Vikhroli (East), Mumbai 400 079"
BATA INDIA LIMITED,"27B, Camac Street, 1st Floor, Kolkata - 700016, West Bengal","Milestone Experion Centre, 2nd Floor, Sector-15, Part – II, Gurugram – 122001, Haryana","Milestone Experion Centre, 2nd Floor, Sector-15, Part – II, Gurugram – 122001, Haryana"
BEML Limited,"BEML Soudha, 23/1, 4th Main, S R Nagar, Bengaluru – 560027","BEML Soudha, 23/1, 4th Main, S R Nagar, Bengaluru – 560027","BEML Soudha, 23/1, 4th Main, S R Nagar, Bengaluru – 560027"
Bharat Dynamics Limited,"KANCHANBAGH, HYDERABAD TG 500058 IN","Plot No.38-39, TSFC Building, Near ICICI Towers, Financial District, Nanakramguda HYDERABAD TG 500032 IN","Plot No.38-39, TSFC Building, Near ICICI Towers, Financial District, Nanakramguda HYDERABAD TG 500032 IN"
BHARAT ELECTRONICS LIMITED,"Outer Ring Raod, Nagavara, Bengaluru - 560045","Outer Ring Raod, Nagavara, Bengaluru - 560045","Outer Ring Raod, Nagavara, Bengaluru - 560045"
Bharat Forge Limited,"Mundhwa, Pune Cantonment, Pune - 411 036, Maharashtra, India","Mundhwa, Pune Cantonment, Pune - 411 036, Maharashtra, India","Mundhwa, Pune Cantonment, Pune - 411 036, Maharashtra, India"
BHARAT HEAVY ELECTRICALS LIMITED,"BHEL House, Siri Fort, New Delhi – 110049","BHEL House, Siri Fort, New Delhi – 110049","BHEL House, Siri Fort, New Delhi – 110049"
Bharti Airtel Limited,"Airtel Centre, Plot No. 16, Udyog Vihar, Phase-IV, Gurugram, Haryana- 122 015, India","Bharti Crescent, 1 Nelson Mandela Road, Vasant Kunj, Phase II, New Delhi- 110 070, India","Bharti Crescent, 1 Nelson Mandela Road, Vasant Kunj, Phase II, New Delhi- 110 070, India"
Bharti Hexacom Limited,"Airtel Center, Plot No. 16, Udyog Vihar, Phase-IV,
Gurugram - 122015, India","Bharti Crescent, 1, Nelson Mandela Road,
Vasant Kunj, Phase II, New Delhi - 110070, India","Bharti Crescent, 1, Nelson Mandela Road,
Vasant Kunj, Phase II, New Delhi - 110070, India"
Bikaji Foods International Limited,"F 196-199, F 178 & E 188 Bichhwal Industrial Area, Bikaner – 334 006 Rajasthan, India","Plot No. E-558-561, C-569-572, E- 573-577, F-585-592 Karni Extension, RIICO Industrial Area, Bikaner – 334 004 Rajasthan, India","Plot No. E-558-561, C-569-572, E- 573-577, F-585-592 Karni Extension, RIICO Industrial Area, Bikaner – 334 004 Rajasthan, India"
Biocon Limited,"20th KM, Hosur Road, Electronic City, Bangalore 560 100, Karnataka, India","20th KM, Hosur Road, Electronic City, Bangalore 560 100, Karnataka, India","20th KM, Hosur Road, Electronic City, Bangalore 560 100, Karnataka, India"
Birlasoft Limited,"35 & 36, Rajiv Gandhi Infotech Park, Phase-I, MIDC, Hinjawadi, Pune-411057, Maharashtra, India.","Assotech Business Cresterra, Tower 3, Plot No. 22, Sector 135,
Expressway Noida - 201301, India.","Assotech Business Cresterra, Tower 3, Plot No. 22, Sector 135,
Expressway Noida - 201301, India."
Birla Corporation Limited,"9/1, R N Mukherjee Road, Birla Building, Kolkata 700 001","1, Shakespeare Sarani (2nd Floor), Kolkata 700 071","1, Shakespeare Sarani (2nd Floor), Kolkata 700 071"
BLS International Services Limited,"G-4B-1 Extension, Mohan Co-Operative Indl. Estate, Mathura Road, New Delhi 110044","912, Indraprakash Building, 21, Barakhamba Road, New Delhi 110001","912, Indraprakash Building, 21, Barakhamba Road, New Delhi 110001"
Blue Dart Express Limited,"Blue Dart Centre, Sahar Airport Road, Andheri (East), Mumbai – 400099","Blue Dart Centre, Sahar Airport Road, Andheri (East), Mumbai – 400099","Blue Dart Centre, Sahar Airport Road, Andheri (East), Mumbai – 400099"
Blue Star Limited,"Kasturi Buildings, Mohan T Advani Chowk, Jamshedji Tata Road, Mumbai 400020","Band Box House, Dr Annie Besant Road, Worli, Mumbai 400030","Band Box House, Dr Annie Besant Road, Worli, Mumbai 400030"
Bosch limited,"Hosur Road, Adugodi, bangalore, Karnataka, 560030, India","Hosur Road, Adugodi, bangalore, Karnataka, 560030, India","Hosur Road, Adugodi, bangalore, Karnataka, 560030, India"
Brigade Enterprises Limited,"29th & 30th Floor, World Trade Center, 26/1, Brigade Gateway Dr. Rajkumar Road, Malleswaram-Rajajinagar Bangalore - 560055","29th & 30th Floor, World Trade Center, 26/1, Brigade Gateway Dr. Rajkumar Road, Malleswaram-Rajajinagar Bangalore - 560055","29th & 30th Floor, World Trade Center, 26/1, Brigade Gateway Dr. Rajkumar Road, Malleswaram-Rajajinagar Bangalore - 560055"
Britannia Industries Limited,"5/1A, Hungerford Street, Kolkata-700017, West Bengal, India","Prestige Shantiniketan, The Business Precinct, Tower C, 15th, 16th & 17th Floor, Whitefield Main Road,Mahadevapura Post, Bengaluru - 560048, Karnataka, India","Prestige Shantiniketan, The Business Precinct, Tower C, 15th, 16th & 17th Floor, Whitefield Main Road,Mahadevapura Post, Bengaluru - 560048, Karnataka, India"
Campus Activewear Limited,"D1- Udyog Nagar, Main Rohtak Road, New Delhi- 110041","DLF Cyber park, Block B, First Floor, Sector-20, Udyog Vihar, Phase III, Gurugram- 122016","DLF Cyber park, Block B, First Floor, Sector-20, Udyog Vihar, Phase III, Gurugram- 122016"
Canara Bank,"Canara Bank, Head Office,
112 J C Road, Bengaluru- 560002","Canara Bank, Head Office,
112 J C Road, Bengaluru- 560002","Canara Bank, Head Office,
112 J C Road, Bengaluru- 560002"
Can Fin Homes Limited,"No.29/1, 1st Floor, Sir M N Krishna Rao Road, Basavanagudi, Bengaluru 560004","No.29/1, 1st Floor, Sir M N Krishna Rao Road, Basavanagudi, Bengaluru 560004","No.29/1, 1st Floor, Sir M N Krishna Rao Road, Basavanagudi, Bengaluru 560004"
Caplin Point Laboratories Limited,"Ashvich Towers, 3rd Floor, No.3, Developed Plots Industrial Estate, Perungudi, Chennai, Tamil Nadu 600096","Ashvich Towers, 3rd Floor, No.3, Developed Plots Industrial Estate, Perungudi, Chennai, Tamil Nadu 600096","Ashvich Towers, 3rd Floor, No.3, Developed Plots Industrial Estate, Perungudi, Chennai, Tamil Nadu 600096"
Capri Global Capital Limited,"502, Tower A, Peninsula Business Park, Senapati Bapat Marg, Lower Parel Mumbai - 400013","502, Tower A, Peninsula Business Park, Senapati Bapat Marg, Lower Parel Mumbai - 400013","502, Tower A, Peninsula Business Park, Senapati Bapat Marg, Lower Parel Mumbai - 400013"
Carborundum Universal Limited,"Dare House’, No.234, N.S.C.Bose Road, Parrys, Chennai ‐ 600001","Dare House’, No.234, N.S.C.Bose Road, Parrys, Chennai ‐ 600001","Dare House’, No.234, N.S.C.Bose Road, Parrys, Chennai ‐ 600001"
Castrol India Limited,"Technopolis Knowledge Park, Mahakali Caves Road, Andheri (East), Mumbai – 400 093","Technopolis Knowledge Park, Mahakali Caves Road, Andheri (East), Mumbai – 400 093","Technopolis Knowledge Park, Mahakali Caves Road, Andheri (East), Mumbai – 400 093"
CCL Products India Limited,"Duggirala, Guntur, Andhra Pradesh -522330, India","8-2-269/4A, Road No. 2, Banjara Hills, Hyderabad - 500034, Telangana, India","8-2-269/4A, Road No. 2, Banjara Hills, Hyderabad - 500034, Telangana, India"
CEAT Limited,"463, Dr. Annie Besant Road, Worli, Mumbai - 400 030","463, Dr. Annie Besant Road, Worli, Mumbai - 400 030","463, Dr. Annie Besant Road, Worli, Mumbai - 400 030"
Cello World Limited,"597/2A, Somnath Road, Dabhel, Nani Daman 396 210, Daman and Diu, India","Cello House, Corporate Avenue, B Wing, 8th Floor, Sonawala Road, Goregaon (East), Mumbai – 400 063, Maharashtra, India","Cello House, Corporate Avenue, B Wing, 8th Floor, Sonawala Road, Goregaon (East), Mumbai – 400 063, Maharashtra, India"
Central Bank of India,"Chandermukhi Building, Nariman Point, Mumbai - 400 021","Chandermukhi Building, Nariman Point, Mumbai - 400 021","Chandermukhi Building, Nariman Point, Mumbai - 400 021"
Century Plyboards India Limited,"P-15/1, Taratala Road, Kolkata- 700 088","CENTURY HOUSE, P-15/1, Taratala Road, Kolkata - 700 088","CENTURY HOUSE, P-15/1, Taratala Road, Kolkata - 700 088"
CERA Sanitaryware Limited,"9, GIDC Industrial Estate, Kadi-382715, Dist. Mehsana, Gujarat, India.","7th & 8th Floor, B Wing, Privilon, Ambli BRTS Road, ISKCON Crossroads, Ahmedabad - 380059","7th & 8th Floor, B Wing, Privilon, Ambli BRTS Road, ISKCON Crossroads, Ahmedabad - 380059"
CESC Limited,"CESC House, Chowringhee Square, Kolkata 700001, West Bengal, India","CESC House, Chowringhee Square, Kolkata 700001, West Bengal, India","CESC House, Chowringhee Square, Kolkata 700001, West Bengal, India"
CE INFO SYSTEMS LIMITED,"FIRST, SECOND, THIRD FLOOR, PLOT NO. 237, OKHLA INDUSTRIAL AREA, PHASE-III, NEW DELHI-110020","FIRST, SECOND & THRID FLOOR, PLOT NO. 237 OKHLA INDUSTRIAL ESTATE, PHASE –III, NEW DELHI NEW DELHI South Delhi DL 110020 IN","FIRST, SECOND & THRID FLOOR, PLOT NO. 237 OKHLA INDUSTRIAL ESTATE, PHASE –III, NEW DELHI NEW DELHI South Delhi DL 110020 IN"
CG Power and Industrial Solutions Limited,"CG House, 6th Floor, Dr. Annie Besant Road, Worli, Mumbai - 400030,  Maharashtra, India","CG House, 6th Floor, Dr. Annie Besant Road, Worli, Mumbai - 400030,  Maharashtra, India","CG House, 6th Floor, Dr. Annie Besant Road, Worli, Mumbai - 400030,  Maharashtra, India"
Chalet Hotels Limited,"Raheja Tower, Plot No. C-30, Block ‘G’, Next to Bank of Baroda, Bandra Kurla Complex, Bandra (East), Mumbai 400051","Raheja Tower, Plot No. C-30, Block ‘G’, Next to Bank of Baroda, Bandra Kurla Complex, Bandra (East), Mumbai 400051","Raheja Tower, Plot No. C-30, Block ‘G’, Next to Bank of Baroda, Bandra Kurla Complex, Bandra (East), Mumbai 400051"
Chemplast Sanmar Limited,"No. 9 Cathedral Road, Chennai 600086","No. 9 Cathedral Road, Chennai 600086","No. 9 Cathedral Road, Chennai 600086"
CHENNAI PETROLEUM CORPORATION LIMITED,"CHENNAI PETROLEUM CORPORATION LIMITED, 536, ANNA SALAI, TEYNAMPET, CHENNAI-6000018","CHENNAI PETROLEUM CORPORATION LIMITED, 536, ANNA SALAI, TEYNAMPET, CHENNAI-6000018","CHENNAI PETROLEUM CORPORATION LIMITED, 536, ANNA SALAI, TEYNAMPET, CHENNAI-6000018"
Cholamandalam Financial Holdings Limited,"‘Dare House’, No. 234, NSC Bose Road, Chennai - 600 001, Tamil Nadu","‘Dare House’, No. 234, NSC Bose Road, Chennai - 600 001, Tamil Nadu","‘Dare House’, No. 234, NSC Bose Road, Chennai - 600 001, Tamil Nadu"
Cholamandalam Investment and Finance Company Limited,"Chola Crest, C54-55 & Super B-4, Thiru-Vi-Ka Industrial Estate, Guindy, Chennai - 600032.","Chola Crest, C54-55 & Super B-4, Thiru-Vi-Ka Industrial Estate, Guindy, Chennai - 600032.","Chola Crest, C54-55 & Super B-4, Thiru-Vi-Ka Industrial Estate, Guindy, Chennai - 600032."
CIE AUTOMOTIVE INDIA LIMITED,"Suite F9D, Grand Hyatt Plaza (Lobby Level) Off Western Express Highway, Santacruz  (E) Mumbai-400055","602-603, Amar Business Park, Baner Road, opp. Sadanand Resort, Pune, Maharashtra 411045","602-603, Amar Business Park, Baner Road, opp. Sadanand Resort, Pune, Maharashtra 411045"
Cipla Limited,"Cipla House, Peninsula Business Park, Ganpatrao Kadam Marg, Lower Parel, Mumbai - 400013","Cipla House, Peninsula Business Park, Ganpatrao Kadam Marg, Lower Parel, Mumbai - 400013","Cipla House, Peninsula Business Park, Ganpatrao Kadam Marg, Lower Parel, Mumbai - 400013"
CITY UNION BANK LIMITED,"149, TSR (Big) street, Thanjavur Dist. Kumbakonam, Tamil Nadu, India - 612 001","""Narayana"" No.24B, Gandhi Nagar Kumbakonam, Tamilnadu, India - 612 001","""Narayana"" No.24B, Gandhi Nagar Kumbakonam, Tamilnadu, India - 612 001"
Clean Science and Technology Limited,"Office No. 603 & 604, 6th floor, Tower No. 15, Cybercity,Magarpatta City, Hadapsar, Pune 411013","Office No. 603 & 604, 6th floor, Tower No. 15, Cybercity,Magarpatta City, Hadapsar, Pune 411013","Office No. 603 & 604, 6th floor, Tower No. 15, Cybercity,Magarpatta City, Hadapsar, Pune 411013"
COAL INDIA LIMITED,"Coal Bhawan, Premises 04-MAR, Action Area 1A, Newtown Rajarhat Kolkata-700156","Coal Bhawan, Premises 04-MAR, Action Area 1A, Newtown Rajarhat Kolkata-700156","Coal Bhawan, Premises 04-MAR, Action Area 1A, Newtown Rajarhat Kolkata-700156"
Cochin Shipyard Limited,"Cochin Shipyard Limited, Administrative Building, Cochin Shipyard Premises, Perumanoor, Kochi – 682015, Kerala, India","Cochin Shipyard Limited, Administrative Building, Cochin Shipyard Premises, Perumanoor, Kochi – 682015, Kerala, India","Cochin Shipyard Limited, Administrative Building, Cochin Shipyard Premises, Perumanoor, Kochi – 682015, Kerala, India"
Coforge Limited,"Plot No. 13, Udyog Vihar, Phase-IV, Sector-18, Palam Road, Gurugram - 122015, Haryana, India","Special Economic Zone, Plot No. TZ-2& 2A, Sector - Tech Zone, Greater Noida (UP)- 201308, India","Special Economic Zone, Plot No. TZ-2& 2A, Sector - Tech Zone, Greater Noida (UP)- 201308, India"
Computer Age Management Services Limited,"New No.10, Old No 178, M.G.R. Salai, Nungambakkam, Chennai (Madras), Tamil Nadu, 600034","Rayala Towers, Tower - 1, Anna Salai, No.158, Rayala Towers, Tower - I, 3rd Floor, Anna Salai 
Chennai 600002","Rayala Towers, Tower - 1, Anna Salai, No.158, Rayala Towers, Tower - I, 3rd Floor, Anna Salai 
Chennai 600002"
Concord Biotech Limited,"1482-1486, Trasad Road, Dholka, Dist. Ahmedabad - 382225, Gujarat","B-1601-1602, B-Wing, Mondeal Heights, Iskcon CrossRoad, S. G. Highway, Ahmedabad - 380015, Gujarat","B-1601-1602, B-Wing, Mondeal Heights, Iskcon CrossRoad, S. G. Highway, Ahmedabad - 380015, Gujarat"
Container Corporation of India Limited,"CONCOR Bhawan, C-3, Mathura Road, Opposite Apollo Hospital, New Delhi-110076","CONCOR Bhawan, C-3, Mathura Road, Opposite Apollo Hospital, New Delhi-110076","CONCOR Bhawan, C-3, Mathura Road, Opposite Apollo Hospital, New Delhi-110076"
COROMANDEL INTERNATIONAL LIMITED,"Coromandel House’, 1-2-10, Sardar Patel Road, Secunderabad - 500 003","Olympia Terraces, #15B(SP), SIDCO Industrial Estate, Guindy, Chennai – 600 032","Olympia Terraces, #15B(SP), SIDCO Industrial Estate, Guindy, Chennai – 600 032"
Craftsman Automation Limited,"123/4, Sangothipalayam Road, Arasur Post, Coimbatore –641407 Tamil Nadu, India.","Krishna Towers, 4th & 5th Floor, 1087, Avinashi Road,Coimbatore – 641037 Tamil Nadu, India.","Krishna Towers, 4th & 5th Floor, 1087, Avinashi Road,Coimbatore – 641037 Tamil Nadu, India."
CreditAccess Grameen Limited,"New No. 49 (Old No725), 46th Cross, 8th Block, Jayanagar, 
(Next to Rajalakshmi Kalyana Mantap) Bengaluru KA-560070","New No. 49 (Old No725), 46th Cross, 8th Block, Jayanagar, 
(Next to Rajalakshmi Kalyana Mantap) Bengaluru KA-560070","New No. 49 (Old No725), 46th Cross, 8th Block, Jayanagar, 
(Next to Rajalakshmi Kalyana Mantap) Bengaluru KA-560070"
Crisil Limited,"Crisil House, Central Avenue, Hiranandani Business Park, Powai, Mumbai 400 076*

*Registered Office shifted to Lightbridge IT Park, Saki Vihar Road, Andheri East, Mumbai 400 072 w.e.f. March 19, 2025.","Lightbridge IT Park, Saki Vihar Road, Andheri East, Mumbai 400 072","Lightbridge IT Park, Saki Vihar Road, Andheri East, Mumbai 400 072"
Crompton Greaves Consumer Electricals Limited,"05GBD, Godrej Business District, Pirojshanagar, Vikhroli (West), Mumbai 400079","05GBD, Godrej Business District, Pirojshanagar, Vikhroli (West), Mumbai 400079","05GBD, Godrej Business District, Pirojshanagar, Vikhroli (West), Mumbai 400079"
Cummins India Limited,"Cummins India Office Campus, Tower A, 5th Floor, Survey No. 21, Balewadi Pune, 411045, Maharashtra, India","Cummins India Office Campus, Tower A, 5th Floor, Survey No. 21, Balewadi Pune, 411045, Maharashtra, India","Cummins India Office Campus, Tower A, 5th Floor, Survey No. 21, Balewadi Pune, 411045, Maharashtra, India"
Cyient Limited,"4th Floor, ‘A’ Wing, Plot .11, Software, Units Layout,
Infocity, Madhapur Hyderabad, Telangana - 500 0815G, Survey No.99/1, Mamidipalli Village, GMR Aerospace & Industrial Park Limited, Rajiv Gandhi International Airport, Shamshabad, Hyderabad, Telangana, India - 500108","4th Floor, ‘A’ Wing, Plot .11, Software, Units Layout,
Infocity, Madhapur Hyderabad, Telangana - 500 081","4th Floor, ‘A’ Wing, Plot .11, Software, Units Layout,
Infocity, Madhapur Hyderabad, Telangana - 500 081"
Dabur India Limited,"8/3, Asaf Ali Road, New Delhi – 110002","Dabur India Limited, Kaushambi, Ghaziabad – 201010, Uttar Pradesh, India","Dabur India Limited, Kaushambi, Ghaziabad – 201010, Uttar Pradesh, India"
Dalmia Bharat Limited,"Dalmiapuram, Dist. Tiruchirapalli, Tamil Nadu- 621651","11th & 12th Floors, Hansalaya Building, 15, Barakhamba Road, New Delhi-110001","11th & 12th Floors, Hansalaya Building, 15, Barakhamba Road, New Delhi-110001"
Data Patterns India Limited,"Plot No. H-9, Fourth Main Road, SIPCOT IT Park, Siruseri, Chenai - 603103","Plot No. H-9, Fourth Main Road, SIPCOT IT Park, Siruseri, Chenai - 603103","Plot No. H-9, Fourth Main Road, SIPCOT IT Park, Siruseri, Chenai - 603103"
DCM Shriram Limited,"2nd Floor (West wing), Worldmark-1, Aerocity, New Delhi-110037","2nd Floor (West wing), Worldmark-1, Aerocity, New Delhi-110037","2nd Floor (West wing), Worldmark-1, Aerocity, New Delhi-110037"
Deepak Nitrite Limited,"2nd Floor, Fermenter House, Alembic City, Alembic Avenue Road,
Vadodara - 390003","2nd Floor, Fermenter House, Alembic City, Alembic Avenue Road,
Vadodara - 390003","2nd Floor, Fermenter House, Alembic City, Alembic Avenue Road,
Vadodara - 390003"
Delhivery Limited,"N24-N34, S24-S34, Air Cargo Logistics Centre-II, Opposite Gate 6 Cargo Terminal, IGI Airport, New Delhi 110037","Plot No. 5, Sector 44, Gurugram 122001","Plot No. 5, Sector 44, Gurugram 122001"
Devyani International Limited,"F-2/7, Okhla Industrial Area, Phase-I, New Delhi-110020","Plot No.-18, Sector-35, Gurugram-122004, Haryana","Plot No.-18, Sector-35, Gurugram-122004, Haryana"
DIVIS LABORATORIES LIMITED,"Divi Towers,1-72/23(P)/DIVIS/303, Cyber Hills, Gachibowli, Hyderabad - 500 032, Telangana, India","Divi Towers,1-72/23(P)/DIVIS/303, Cyber Hills, Gachibowli, Hyderabad - 500 032, Telangana, India","Divi Towers,1-72/23(P)/DIVIS/303, Cyber Hills, Gachibowli, Hyderabad - 500 032, Telangana, India"
Dixon Technologies India Limited,"B-14 & 15, Phase-II, District Gautam Buddha Nagar,
Noida, Uttar Pradesh-201305","B-14 & 15, Phase-II, District Gautam Buddha Nagar,
Noida, Uttar Pradesh-201305","B-14 & 15, Phase-II, District Gautam Buddha Nagar,
Noida, Uttar Pradesh-201305"
DLF Limited,"Shopping Mall, 3rd Floor, Arjun Marg, Phase - I, DLF City, Gurugram - 122 002 (Haryana)","DLF Gateway Tower, R Block, DLF City, Phase – III, Gurugram - 122 002 (Haryana)","DLF Gateway Tower, R Block, DLF City, Phase – III, Gurugram - 122 002 (Haryana)"
DOMS Industries Limited,"J-19, G.I.D.C, Opp. Telephone Exchange, Umbergaon, Dist. Valsad, Gujarat, India – 396171","Plot No. 117, 52 Hector Expansion Area, G.I.D.C, Umbergaon, Dist. Valsad, Gujarat, India – 396171","Plot No. 117, 52 Hector Expansion Area, G.I.D.C, Umbergaon, Dist. Valsad, Gujarat, India – 396171"
Dr Reddys Laboratories Limited,"8-2-337, Road No. 3, Banjara Hills, Hyderabad – 500 034,  Telangana, India","8-2-337, Road No. 3, Banjara Hills, Hyderabad – 500 034,  Telangana, India","8-2-337, Road No. 3, Banjara Hills, Hyderabad – 500 034,  Telangana, India"
Easy Trip Planners Limited,"223 FIE Patparganj Industrial Area, East Delhi,
Delhi-110092","223 FIE Patparganj Industrial Area, East Delhi,
Delhi-110092","223 FIE Patparganj Industrial Area, East Delhi,
Delhi-110092"
eClerx Services Limited,"Sonawala Building, 1st Floor, 29 Bank Street, Fort, Mumbai – 400 023, Maharashtra, India","4th Floor, Express Towers, Nariman Point, Mumbai – 400021","4th Floor, Express Towers, Nariman Point, Mumbai – 400021"
EICHER MOTORS LIMITED,"Office Number 1111, 11th Floor, Ashoka Estate, Plot no. 24, Barakhamba Road, New Delhi - 110001, India","#96, Sector 32, Gurugram- 122 001, Haryana, India","#96, Sector 32, Gurugram- 122 001, Haryana, India"
EIH Limited,"N-806-A, 8th Floor, Diamond Heritage Building, 16, Strand Road, Fairley Place, Kolkata – 700 001 West Bengal","7 Shamnath Marg, Delhi – 110054","7 Shamnath Marg, Delhi – 110054"
Electronics Mart India Limited,"6-1-91, Shop No. 10, Ground Floor, Next to Telephone Bhawan, Secretariat Road, Saifabad, Hyderabad,Telangana - 500004","6-3-666/A1 to 7, Opp. NIMS Hospital, Panjagutta Main Road, Hyderabad,Telangana - 500082","6-3-666/A1 to 7, Opp. NIMS Hospital, Panjagutta Main Road, Hyderabad,Telangana - 500082"
Electrosteel Castings Limited,"Rathod Colony, Rajgangpur, Sundergarh, Odisha 770 017","G. K. Tower, 19, Camac Street, Kolkata – 700017","G. K. Tower, 19, Camac Street, Kolkata – 700017"
Elgi Equipments Limited,"Elgi Industrial Complex III, Trichy Road, Singanallur Coimbatore -641 005","Elgi Industrial Complex III, Trichy Road, Singanallur Coimbatore -641 005","Elgi Industrial Complex III, Trichy Road, Singanallur Coimbatore -641 005"
Emami Limited,"Emami Tower, 687, Anandapur, E.M. Bypass, Kolkata 700107","Emami Tower, 687, Anandapur, E.M. Bypass, Kolkata 700107","Emami Tower, 687, Anandapur, E.M. Bypass, Kolkata 700107"
Endurance Technologies Limited,"E-92, MIDC Industrial Area, Waluj, Chh. Sambhajinagar - 431 136, Maharashtra","E-92, MIDC Industrial Area, Waluj, Chh. Sambhajinagar - 431 136, Maharashtra","E-92, MIDC Industrial Area, Waluj, Chh. Sambhajinagar - 431 136, Maharashtra"
Engineers India Limited,"Engineers India Bhavan, 1, Bhikaji Cama Place, New Delhi -110066","Engineers India Bhavan, 1, Bhikaji Cama Place, New Delhi -110066","Engineers India Bhavan, 1, Bhikaji Cama Place, New Delhi -110066"
Equitas Small Finance Bank Limited,"4th Floor, Phase II, Spencer Plaza No.769,
Mount Road, Anna Salai,
Chennai – 600 002, Tamil Nadu","4th Floor, Phase II, Spencer Plaza No.769,
Mount Road, Anna Salai,
Chennai – 600 002, Tamil Nadu","4th Floor, Phase II, Spencer Plaza No.769,
Mount Road, Anna Salai,
Chennai – 600 002, Tamil Nadu"
Eris Lifesciences Limited,"Shivarth Ambit, Plot No 142/2, Ramdas Road, Off SBR, Near Swati Bungalows, Bodakdev, Ahmedabad, Gujarat-380054","Shivarth Ambit, Plot No 142/2, Ramdas Road, Off SBR, Near Swati Bungalows, Bodakdev, Ahmedabad, Gujarat-380054","Shivarth Ambit, Plot No 142/2, Ramdas Road, Off SBR, Near Swati Bungalows, Bodakdev, Ahmedabad, Gujarat-380054"
ESAB India Limited,"No.13, 3rd Main Road, Industrial Estate, Ambattur,Chennai 600 058.","No.13, 3rd Main Road, Industrial Estate, Ambattur,Chennai 600 058.","No.13, 3rd Main Road, Industrial Estate, Ambattur,Chennai 600 058."
Escorts Kubota Limited,"15/5, Mathura Road, Faridabad, Haryana – 121003, India","15/5, Mathura Road, Faridabad, Haryana – 121003, India","15/5, Mathura Road, Faridabad, Haryana – 121003, India"
Eureka Forbes Limited,"B1/B2, 7th Floor, 701, Marathon Innova, Ganpatrao Kadam Marg, Lower Parel, Mumbai – 400013","B1/B2, 7th Floor, 701, Marathon Innova, Ganpatrao Kadam Marg, Lower Parel, Mumbai – 400013","B1/B2, 7th Floor, 701, Marathon Innova, Ganpatrao Kadam Marg, Lower Parel, Mumbai – 400013"
Exide Industries Limited,"Exide House, 59E Chowringhee Road, Kolkata - 700020","Exide House, 59E Chowringhee Road, Kolkata - 700020","Exide House, 59E Chowringhee Road, Kolkata - 700020"
FERTILIZERS AND CHEMICALS TRAVANCORE LIMITED,"Eloor Udyogamandal, Ernakulam District, Kerala - 683501","Eloor Udyogamandal, Ernakulam District, Kerala - 683501","Eloor Udyogamandal, Ernakulam District, Kerala - 683501"
FINE ORGANIC INDUSTRIES LIMITED,"Fine House, Anandji Street, Off M. G. Road, Ghatkopar East, Mumbai- 400077, Maharashtra, India","Fine House, Anandji Street, Off M. G. Road, Ghatkopar East, Mumbai- 400077, Maharashtra, India","Fine House, Anandji Street, Off M. G. Road, Ghatkopar East, Mumbai- 400077, Maharashtra, India"
Finolex Cables Limited,"26-27 Mumbai-Pune Road, Pimpri, Pune - 411 018,
Maharashtra, India","26-27 Mumbai-Pune Road, Pimpri, Pune - 411 018,
Maharashtra, India","26-27 Mumbai-Pune Road, Pimpri, Pune - 411 018,
Maharashtra, India"
Finolex Industries Limited,"Gat No.399, Village Urse, Taluka Maval, District Pune, Maharashtra, India - 410506","IndiQube - The Kode, 11th Floor, Baner-Pashan Link Road Baner Gaon, Pune, Maharashtra, India - 411045","IndiQube - The Kode, 11th Floor, Baner-Pashan Link Road Baner Gaon, Pune, Maharashtra, India - 411045"
Firstsource Solutions Limited,"5th Floor, Paradigm ‘B’ Wing, Mindspace, Link Road, Malad - West, Mumbai - 400064, India","5th Floor, Paradigm ‘B’ Wing, Mindspace, Link Road, Malad - West, Mumbai - 400064, India","5th Floor, Paradigm ‘B’ Wing, Mindspace, Link Road, Malad - West, Mumbai - 400064, India"
Five-Star Business Finance Limited,"New No.27, Old No.4, Taylor's Road, Kilpauk, Chennai - 600010","New No.27, Old No.4, Taylor's Road, Kilpauk, Chennai - 600010","New No.27, Old No.4, Taylor's Road, Kilpauk, Chennai - 600010"
Force Motors Ltd,"Mumbai-Pune Road, Akurdi, Pune – 411 035","Mumbai-Pune Road, Akurdi, Pune – 411 035","Mumbai-Pune Road, Akurdi, Pune – 411 035"
Fortis Healthcare Limited,"Fortis Hospital, Sector 62, Phase VIII, Mohali-160062, Punjab","Tower A, 3rd Floor, Unitech Business Park, South City-1, Gurugram, Haryana- 120001","Tower A, 3rd Floor, Unitech Business Park, South City-1, Gurugram, Haryana- 120001"
GAIL India Limited,"16, Bhikaji Cama Place, R.K Puram, New Delhi-110066","16, Bhikaji Cama Place, R.K Puram, New Delhi-110066","16, Bhikaji Cama Place, R.K Puram, New Delhi-110066"
GALAXY SURFACTANTS LIMITED,"C-49/2, TTC Industrial Area, Pawne, Navi Mumbai, Maharashtra – 400703","C-49/2, TTC Industrial Area, Pawne, Navi Mumbai, Maharashtra – 400703","C-49/2, TTC Industrial Area, Pawne, Navi Mumbai, Maharashtra – 400703"
Garden Reach Shipbuilders  Engineers Limited,"GRSE Bhavan, 61, Garden Reach Road, Kolkata, West Bengal – 700 024","GRSE Bhavan, 61, Garden Reach Road, Kolkata, West Bengal – 700 024","GRSE Bhavan, 61, Garden Reach Road, Kolkata, West Bengal – 700 024"
General Insurance Corporation of India,"‘Suraksha’, 170, J. T. Road, Churchgate, Mumbai – 400020","‘Suraksha’, 170, J. T. Road, Churchgate, Mumbai – 400020","‘Suraksha’, 170, J. T. Road, Churchgate, Mumbai – 400020"
Genus Power Infrastructures Limited,"G-123, Sector-63, Noida, Uttar Pradesh – 201307","SPL-3, RIICO Industrial Area, Sitapura, Tonk Road, Jaipur, Rajasthan – 302022","SPL-3, RIICO Industrial Area, Sitapura, Tonk Road, Jaipur, Rajasthan – 302022"
Gillette India Limited,"P&G Plaza, Cardinal Gracias Road, Chakala, Andheri (East), Mumbai – 400099","P&G Plaza, Cardinal Gracias Road, Chakala, Andheri (East), Mumbai – 400099","P&G Plaza, Cardinal Gracias Road, Chakala, Andheri (East), Mumbai – 400099"
GLAND PHARMA LIMITED,"SY.NO.143-148,150 &151, NEAR GANDI MAISAMMA X ROADS D.P.PALLY, DUNDIGAL ,DUNDIGAL - GANDIMAISAMMA(M), Rangareddi, MEDCHAL MALKAJGIRIDISTRICT HYDERABAD, Telangana, India, 500043","Plot No.11& 84,TSIIC, Phase-IV, Pashamylaram (V), Patancheru (M), Sangareddy District, Hyderabad, Telangana, India, 502307","Plot No.11& 84,TSIIC, Phase-IV, Pashamylaram (V), Patancheru (M), Sangareddy District, Hyderabad, Telangana, India, 502307"
GlaxoSmithKline Pharmaceuticals Limited,"GlaxoSmithKline Pharmaceuticals Limited, GSK House, Worli, Dr Annie
Besant Road, Mumbai- 400030","GlaxoSmithKline Pharmaceuticals Limited, GSK House, Worli, Dr Annie
Besant Road, Mumbai- 400030","GlaxoSmithKline Pharmaceuticals Limited, GSK House, Worli, Dr Annie
Besant Road, Mumbai- 400030"
Glenmark Pharmaceuticals Limited,"B/2, Mahalaxmi Chambers, 22, Bhulabhai Desai Road,
Mumbai - 400026, Maharashtra, India","Glenmark House, B. D. Sawant Marg, Chakala,
Off Western Express Highway, Andheri (E),
Mumbai - 400 099, Maharashtra, India","Glenmark House, B. D. Sawant Marg, Chakala,
Off Western Express Highway, Andheri (E),
Mumbai - 400 099, Maharashtra, India"
GLOBAL HEALTH LIMITED,"MEDANTA-MEDICLINIC, E-18, DEFENCE COLONY, 
NEW DELHI 110024","“Medanta The Medicity”, Sector 38, Gurugram, Haryana 122001","“Medanta The Medicity”, Sector 38, Gurugram, Haryana 122001"
GODAWARI POWER AND ISPAT LIMITED,"PLOT NO.428/2, PHASE- 1 INDUSTRIAL AREA, SILTARA, RAIPUR, Chattisgarh, India, 492001","Hira Arcade, Near New Bus Stand, Pandri, Raipur Chhattisgarh 492001","Hira Arcade, Near New Bus Stand, Pandri, Raipur Chhattisgarh 492001"
GODFREY PHILLIPS INDIA LIMITED,"Macropolo Building, Ground Floor, Rd. Babasaheb Ambedkar Road, Lalbaug, Mumbai– 400033, Maharashtra","14, Omaxe Square, Jasola District Centre, New Delhi, Delhi 110025","14, Omaxe Square, Jasola District Centre, New Delhi, Delhi 110025"
GODREJ AGROVET LIMITED,"“Godrej One”, 3rd Floor,  Pirojshanagar, Eastern Express Highway, Vikhroli (East), Mumbai – 400 079,  Maharashtra, India","“Godrej One”, 3rd Floor,  Pirojshanagar, Eastern Express Highway, Vikhroli (East), Mumbai – 400 079,  Maharashtra, India","“Godrej One”, 3rd Floor,  Pirojshanagar, Eastern Express Highway, Vikhroli (East), Mumbai – 400 079,  Maharashtra, India"
Godrej Consumer Products Limited,"Godrej One, Pirojshanagar, Eastern Express Highway, Vikhroli
(E), Mumbai 400 079","Godrej One, Pirojshanagar, Eastern Express Highway, Vikhroli
(E), Mumbai 400 079","Godrej One, Pirojshanagar, Eastern Express Highway, Vikhroli
(E), Mumbai 400 079"
Godrej Industries Limited,"Godrej One, Pirojshanagar, Eastern Express Highway, Vikhroli (East), Mumbai – 400 079, Maharashtra.","Godrej One, Pirojshanagar, Eastern Express Highway, Vikhroli (East), Mumbai – 400 079, Maharashtra.","Godrej One, Pirojshanagar, Eastern Express Highway, Vikhroli (East), Mumbai – 400 079, Maharashtra."
Godrej Properties Limited,"Godrej One, 5th Floor, Pirojshanagar, Eastern Express Highway, Vikhroli (East), Mumbai – 400079","Godrej One, 5th Floor, Pirojshanagar, Eastern Express Highway, Vikhroli (East), Mumbai – 400079","Godrej One, 5th Floor, Pirojshanagar, Eastern Express Highway, Vikhroli (East), Mumbai – 400079"
Go Digit General Insurance Limited,"1st to 6th Floor, Ananta One, Pride Hotel Lane, Narveer Tanaji Wadi, City Survey No.1579, Shivajinagar, Pune, Pune, Maharashtra, India, 411005","Atlantis, 95, 4th B Cross Road, Koramangala Industrial Layout, 5th Block, Bengaluru 560095","Atlantis, 95, 4th B Cross Road, Koramangala Industrial Layout, 5th Block, Bengaluru 560095"
GRANULES INDIA LIMITED,"15th Floor, Granules Tower,Botanical Garden Road, Kondapur, Hyderabad – 500084, Telangana, India.","15th Floor, Granules Tower, Botanical Garden Road, Kondapur, Hyderabad – 500084, Telangana, India.","15th Floor, Granules Tower, Botanical Garden Road, Kondapur, Hyderabad – 500084, Telangana, India."
GRAPHITE INDIA LIMITED,"31, Chowringhee Road, Kolkata - 700 016","31, Chowringhee Road, Kolkata - 700 016","31, Chowringhee Road, Kolkata - 700 016"
Grasim Industries Limited,"Birlagram, Nagda – 456 331, Madhya Pradesh, India","Aditya Birla Centre, ‘A’ Wing, 2nd Floor,S. K. Ahire Marg, Worli, Mumbai – 400 030, Maharashtra, India","Aditya Birla Centre, ‘A’ Wing, 2nd Floor,S. K. Ahire Marg, Worli, Mumbai – 400 030, Maharashtra, India"
Grindwell Norton Limited,"5th Level, Leela Business Park, Andheri-Kurla Road Marol, Andheri (East), Mumbai 400 059","5th Level, Leela Business Park, Andheri-Kurla Road Marol, Andheri (East), Mumbai 400 059","5th Level, Leela Business Park, Andheri-Kurla Road Marol, Andheri (East), Mumbai 400 059"
Gujarat Ambuja Exports Limited,"""Ambuja Tower"", Opp. Sindhu Bhavan, Sindhu Bhavan Road, PO - Thaltej, Bodakdev, Ahmedabad - 380054","""Ambuja Tower"", Opp. Sindhu Bhavan, Sindhu Bhavan Road, PO - Thaltej, Bodakdev, Ahmedabad - 380054","""Ambuja Tower"", Opp. Sindhu Bhavan, Sindhu Bhavan Road, PO - Thaltej, Bodakdev, Ahmedabad - 380054"
Gujarat Fluorochemicals Limited,"Plot No. 1, Khasra Nos. 264 to 267, Industrial Area, Village Basal, Una, Himachal Pradesh - 174303","Inox Towers, 17 Sector 16 A, Noida - 201301, Uttar Pradesh","Inox Towers, 17 Sector 16 A, Noida - 201301, Uttar Pradesh"
GUJARAT GAS LIMITED,"Gujarat Gas Limited, Gujarat Gas CNG Station Sector 5/C, Gandhinagar, Gandhinagar, Gujarat, India, 382006","Office No. 4 & 5, Gr. Floor IT Tower-2, Infocity, Gandhinagar,Gujarat - 382009","Office No. 4 & 5, Gr. Floor IT Tower-2, Infocity, Gandhinagar,Gujarat - 382009"
Gujarat Pipavav Port Limited,"Pipavav Port, At Post Rampara-2 via Rajula Dist Amreli - 365560","5th Floor, Godrej Two, Pirojshanagar, Vikhroli East, Mumbai - 400079","5th Floor, Godrej Two, Pirojshanagar, Vikhroli East, Mumbai - 400079"
Gujarat State Petronet Limited,"GSPC Bhavan, Behind Udyog Bhavan, Sector-11, Gandhinagar-382 010, Gujarat, India.","GSPL Bhavan, E-18, GIDC Electronics Estate, Nr. K-7 Circle, Sector – 26, Gandhinagar","GSPL Bhavan, E-18, GIDC Electronics Estate, Nr. K-7 Circle, Sector – 26, Gandhinagar"
G R Infraprojects Limited,"Revenue Block No. 223, Old Survey No. 384/1, 384/2, Paiki and 384/3, Khata No. 464, Kochariya, Ahmedabad, Gujarat - 382220, India","G R Infraprojects Limited, 2nd Floor, Novus Tower, Plot No. 18, Sector 18, Gurugram, Haryana - 122015, India","G R Infraprojects Limited, 2nd Floor, Novus Tower, Plot No. 18, Sector 18, Gurugram, Haryana - 122015, India"
Happiest Minds Technologies Limited,"53/1-4, Hosur, Main Road, Madivala, Bengaluru-560068, Karnataka","53/1-4, Hosur, Main Road, Madivala, Bengaluru-560068, Karnataka","53/1-4, Hosur, Main Road, Madivala, Bengaluru-560068, Karnataka"
Happy Forgings Limited,"BXXIX-2254/1, Kanganwal Road, P.O. Jugiana, Ludhiana-141120","Happy Forgings Ltd., H.B. No. 220, P.O. Rajgarh, Village Dugri, Ludhiana-141421","Happy Forgings Ltd., H.B. No. 220, P.O. Rajgarh, Village Dugri, Ludhiana-141421"
Havells India Limited,"904, 9th Floor, Surya Kiran Building, KG Marg, Connaught Place, New Delhi – 110001","QRG Towers, 2D, Sector – 126, Expressway, Noida – 201304","QRG Towers, 2D, Sector – 126, Expressway, Noida – 201304"
HCL Technologies Limited,"806, Siddharth, 96, Nehru Place, New Delhi - 110019, India","Technology Hub, Special Economic Zone, Plot No. 3A, Sector 126, Noida - 201304, U.P., India","Technology Hub, Special Economic Zone, Plot No. 3A, Sector 126, Noida - 201304, U.P., India"
HDFC Asset Management Company Limited,"HDFC House, 2nd Floor, H.T. Parekh Marg, 165-166, Backbay Reclamation, Churchgate, Mumbai – 400 020","HDFC House, 2nd Floor, H.T. Parekh Marg, 165-166, Backbay Reclamation, Churchgate, Mumbai – 400 020","HDFC House, 2nd Floor, H.T. Parekh Marg, 165-166, Backbay Reclamation, Churchgate, Mumbai – 400 020"
HDFC Bank Limited,"HDFC Bank House, Senapati Bapat Marg, Lower Parel, Mumbai - 400 013","HDFC Bank House, Shiv Sagar Estate, Dr Annie Besant Road, Worli, Mumbai - 400 018","HDFC Bank House, Shiv Sagar Estate, Dr Annie Besant Road, Worli, Mumbai - 400 018"
HDFC Life Insurance Company Limited,"13th Floor, Lodha Excelus, Apollo Mills Compound, N.M Joshi Marg, Mahalaxmi, Mumbai- 400 011","12th, 13th and 14th Floor, Lodha Excelus, Apollo Mills Compound, N.M Joshi Marg, Mahalaxmi, Mumbai- 400 011","12th, 13th and 14th Floor, Lodha Excelus, Apollo Mills Compound, N.M Joshi Marg, Mahalaxmi, Mumbai- 400 011"
HEG Limited,"Mandideep, Near Bhopal Dist. Raisen MP- 462046","Bhilwara Towers, A-12, Sector-1, Noida - 201301","Bhilwara Towers, A-12, Sector-1, Noida - 201301"
HERO MOTOCORP LIMITED,"THE GRAND PLAZA, PLOT NO. 2 NELSON MANDELA ROAD, VASANT KUNJ - PHASE - II, NEW DELHI - 110070","THE GRAND PLAZA, PLOT NO. 2 NELSON MANDELA ROAD, VASANT KUNJ - PHASE - II, NEW DELHI - 110070","THE GRAND PLAZA, PLOT NO. 2 NELSON MANDELA ROAD, VASANT KUNJ - PHASE - II, NEW DELHI - 110070"
HFCL Limited,"8, Electronics Complex, Chambaghat, Solan - 173213, Himachal Pradesh","8, Commercial Complex, Masjid Moth, Greater Kailash- II, New Delhi-110 048","8, Commercial Complex, Masjid Moth, Greater Kailash- II, New Delhi-110 048"
Himadri Speciality Chemical Limited,"23-A, Netaji Subhas Road, 8th Floor, Suite No. 15, Kolkata – 700001","8, India Exchange Place, 2nd Floor, Kolkata -700001","8, India Exchange Place, 2nd Floor, Kolkata -700001"
HINDALCO INDUSTRIES LIMITED,"21st Floor, One International Center, Tower 4, Near Prabhadevi Railway Station, Senapati Bapat Marg, Prabhadevi, Mumbai, Maharashtra- 400013. India w.e.f. Dec 1, 2023","7th Floor, Birla Centurion, Pandurang Budhkar Marg, Worli, Mumbai – 400030, India","7th Floor, Birla Centurion, Pandurang Budhkar Marg, Worli, Mumbai – 400030, India"
HINDUSTAN AERONAUTICS LIMITED,"15/1, CUBBON ROAD, BANGALURU - 560001","15/1, CUBBON ROAD, BANGALURU - 560001","15/1, CUBBON ROAD, BANGALURU - 560001"
HINDUSTAN COPPER LIMITED,"‘Tamra Bhavan’ 1, Ashutosh Chowdhury Avenue, Kolkata – 700019, West Bengal, India","‘Tamra Bhavan’ 1, Ashutosh Chowdhury Avenue, Kolkata – 700019, West Bengal, India","‘Tamra Bhavan’ 1, Ashutosh Chowdhury Avenue, Kolkata – 700019, West Bengal, India"
Hindustan Petroleum Corporation Limited,"Petroleum House, 17, Jamshedji Tata Road, Churchgate, Mumbai
400020",Same as above,Same as above
Hindustan Unilever Limited,"Unilever House, B. D. Sawant Marg, Chakala, Andheri (East),Mumbai-400099","Unilever House, B. D. Sawant Marg, Chakala, Andheri (East),Mumbai-400099","Unilever House, B. D. Sawant Marg, Chakala, Andheri (East),Mumbai-400099"
Hindustan Zinc Limited,"Yashad Bhavan, Udaipur, Rajasthan 313004 - India","Yashad Bhavan, Udaipur, Rajasthan 313004 - India","Yashad Bhavan, Udaipur, Rajasthan 313004 - India"
Hitachi Energy India Limited,"8th Floor, Brigade Opus, 70/401, Kodigehalli Main Road, Bengaluru - 560092","8th Floor, Brigade Opus, 70/401, Kodigehalli Main Road, Bengaluru - 560092","8th Floor, Brigade Opus, 70/401, Kodigehalli Main Road, Bengaluru - 560092"
Home First Finance Company India Limited,"511, Acme Plaza, Andheri Kurla Road,
Mumbai – 400059",same as above,same as above
Honasa Consumer Limited,"Unit No. 404, 4th Floor, City Centre,
Plot No. 05, Sector – 12, Dwarka, New Delhi – 110075","10th and 11th Floor, Capital Cyberscape
Ullahwas, Bhondsi, Gurgaon, Haryana – 122102","10th and 11th Floor, Capital Cyberscape
Ullahwas, Bhondsi, Gurgaon, Haryana – 122102"
HONEYWELL AUTOMATION INDIA LIMITED,"56 & 57, HADAPSAR INDUSTRIALESTATE PUNE - 411 013., PUNE, Maharashtra, India, 411013","56 & 57, HADAPSAR INDUSTRIALESTATE PUNE - 411 013., PUNE, Maharashtra, India, 411013","56 & 57, HADAPSAR INDUSTRIALESTATE PUNE - 411 013., PUNE, Maharashtra, India, 411013"
ICICI Bank Limited,"ICICI Bank Tower, Near Chakli Circle, Old Padra Road, Vadodara, Gujarat 390007","ICICI Bank Towers, Bandra-Kurla Complex, Mumbai 400051","ICICI Bank Towers, Bandra-Kurla Complex, Mumbai 400051"
ICICI Lombard General Insurance Company Limited,"ICICI Lombard General Insurance Company Limited, ICICI Lombard House, 414, Veer Savarkar Marg, Near Siddhi Vinayak Temple, Prabhadevi, Mumbai - 400 025","ICICI Lombard General Insurance Company Limited, ICICI Lombard House, 414, Veer Savarkar Marg, Near Siddhi Vinayak Temple, Prabhadevi, Mumbai - 400 025","ICICI Lombard General Insurance Company Limited, ICICI Lombard House, 414, Veer Savarkar Marg, Near Siddhi Vinayak Temple, Prabhadevi, Mumbai - 400 025"
ICICI Prudential Life Insurance Company Limited,"ICICI Prulife Towers, 1089, Appasaheb Marathe Marg, Prabhadevi, Mumbai - 400 025","ICICI Prulife Towers, 1089, Appasaheb Marathe Marg, Prabhadevi, Mumbai - 400 025","ICICI Prulife Towers, 1089, Appasaheb Marathe Marg, Prabhadevi, Mumbai - 400 025"
IDBI Bank Limited,"IDBI Tower, WTC Complex, Cuffe Parade, Mumbai - 400005","IDBI Tower, WTC Complex, Cuffe Parade, Mumbai - 400005","IDBI Tower, WTC Complex, Cuffe Parade, Mumbai - 400005"
IDFC FIRST Bank Limited,"KRM Tower, 7th Floor, No. 1, Harrington Road, Chetpet, Chennai – 600 031, Tamil Nadu, India.","IDFC FIRST Bank Tower, The Square, C-61, G-Block, Bandra-Kurla Complex, Bandra (East), Mumbai – 400 051, Maharashtra, India.","IDFC FIRST Bank Tower, The Square, C-61, G-Block, Bandra-Kurla Complex, Bandra (East), Mumbai – 400 051, Maharashtra, India."
IFCI Limited,"IFCI Limited, IFCI Tower, 61 Nehru Place, New Delhi-110019","IFCI Limited, IFCI Tower, 61 Nehru Place, New Delhi-110019","IFCI Limited, IFCI Tower, 61 Nehru Place, New Delhi-110019"
IIFL Finance Limited,"IIFL House, Sun Infotech Park, Road No. 16V, Plot No. B-23, Thane Industrial Area, Wagle Estate, Thane – 400604","802, 8th Floor, Hubtown Solaris, N.S. Phadke Marg, Vijay Nagar, Andheri East, Mumbai - 400069","802, 8th Floor, Hubtown Solaris, N.S. Phadke Marg, Vijay Nagar, Andheri East, Mumbai - 400069"
Indegene Limited,"Aspen G4, 3rd Floor, Manyata Embassy Business Park Outer Ring Road, Nagavara, Bangalore, Karnataka, India – 560 045","Aspen G4, 3rd Floor, Manyata Embassy Business Park Outer Ring Road, Nagavara, Bangalore, Karnataka, India – 560 045","Aspen G4, 3rd Floor, Manyata Embassy Business Park Outer Ring Road, Nagavara, Bangalore, Karnataka, India – 560 045"
INDIAMART INTERMESH LIMITED,"1st Floor, 29-Daryaganj, Netaji Subash Marg, New Delhi- 110002","6th floor, Tower 2, Assotech Business Cresterra, Plot No.22, Sec 135, Noida - 201305, Uttar Pradesh","6th floor, Tower 2, Assotech Business Cresterra, Plot No.22, Sec 135, Noida - 201305, Uttar Pradesh"
Indian Bank,"66, Rajaji Salai, Chennai 600 001","254-260, Avvai Shanmugam Salai, Royapettah, Chennai – 600 014","254-260, Avvai Shanmugam Salai, Royapettah, Chennai – 600 014"
Indian Energy Exchange Limited,"1st Floor, Unit No.1.14(a), Avanta Business Centre Southern Park, D-2, District Centre, Saket New Delhi 110017, India","Plot No. C-001/A/1, 9th Floor, Max Towers Sector 16B, Noida, Gautam Buddha Nagar, Uttar Pradesh-201301,India","Plot No. C-001/A/1, 9th Floor, Max Towers Sector 16B, Noida, Gautam Buddha Nagar, Uttar Pradesh-201301,India"
Indian Oil Corporation Limited,"IndianOil Bhavan, G-9, Ali Yavar Jung Marg. Bandra (East), Mumbai-400051.","3079/3, Sadiq Nagar, J. B. Tito Marg, New Delhi-110049","3079/3, Sadiq Nagar, J. B. Tito Marg, New Delhi-110049"
INDIAN OVERSEAS BANK,"763, Anna Salai, Chennai-600002","763, Anna Salai, Chennai-600002","763, Anna Salai, Chennai-600002"
INDIAN RAILWAY FINANCE CORPORATION LIMITED,"UG Floor, East Tower, NBCC Place, Bhisham Pitamah Marg,
Pragati Vihar, Lodhi Road, New Delhi-110003","UG Floor, East Tower, NBCC Place, Bhisham Pitamah Marg,
Pragati Vihar, Lodhi Road, New Delhi-110003","UG Floor, East Tower, NBCC Place, Bhisham Pitamah Marg,
Pragati Vihar, Lodhi Road, New Delhi-110003"
Indian Renewable Energy Development Agency Limited,"Core 4A, 1st Floor India Habitat Centre, Lodhi Road, New Delhi, 110003","3rd Floor, August Kranti Bhawan, Bhikaji Cama Place, New Delhi – 110066","3rd Floor, August Kranti Bhawan, Bhikaji Cama Place, New Delhi – 110066"
IndusInd Bank Limited,"IndusInd Bank Limited, 2401, Gen Thimmayya Road, (Contonment), Pune, Maharashtra - 411001, India.","IndusInd Bank Limited, 8th floor, Tower 1, One World Centre, 841, Senapati Bapat Marg, Prabhadevi (W), Mumbai - 400013","IndusInd Bank Limited, 8th floor, Tower 1, One World Centre, 841, Senapati Bapat Marg, Prabhadevi (W), Mumbai - 400013"
Indus Towers Limited,"Building No. 10, Tower-A, 4th Floor, DLF Cyber City, Gurugram - 122002","Building No. 10, Tower-A, 4th Floor, DLF Cyber City, Gurugram - 122002","Building No. 10, Tower-A, 4th Floor, DLF Cyber City, Gurugram - 122002"
Infibeam Avenues Limited,"28th Floor, GIFT Two Building, Block No. 56, Road – 5C, Zone -5, GIFT CITY, Gandhinagar - 382050 Gujarat, India","28th Floor, GIFT Two Building, Block No. 56, Road – 5C, Zone -5, GIFT CITY, Gandhinagar - 382050 Gujarat, India","28th Floor, GIFT Two Building, Block No. 56, Road – 5C, Zone -5, GIFT CITY, Gandhinagar - 382050 Gujarat, India"
Infosys Limited,"Electronics City, Hosur Road, Bengaluru, Karnataka 560 100, India","Electronics City, Hosur Road, Bengaluru, Karnataka 560 100, India","Electronics City, Hosur Road, Bengaluru, Karnataka 560 100, India"
INOX India Limited,"9th Floor, KP Platina, Race Course, Vadodara - 390007","9th Floor, KP Platina, Race Course, Vadodara - 390007","9th Floor, KP Platina, Race Course, Vadodara - 390007"
Inox Wind Limited,"Plot No. 1, Khasra Nos. 264 to 267 Industrial Area, Village Basal, Una- 174303, Himachal Pradesh, India","INOXGFL Towers, Plot No.17 Sector 16A, Noida - 201301, Uttar Pradesh, India","INOXGFL Towers, Plot No.17 Sector 16A, Noida - 201301, Uttar Pradesh, India"
INTELLECT DESIGN ARENA LIMITED,"244, Anna Salai, Chennai – 600 006","Plot No. 3/G3, SIPCOT IT Park, Siruseri, Chennai – 600 130, India.","Plot No. 3/G3, SIPCOT IT Park, Siruseri, Chennai – 600 130, India."
InterGlobe Aviation Limited,"Upper Ground Floor, Thapar House, Gate No. 2, Western Wing, 124, Janpath, New Delhi - 110 001","Emaar Capital Tower-II, Sector-26, Sikander Ghosi, MG Road, Gurugram-122002, Haryana, India.","Emaar Capital Tower-II, Sector-26, Sikander Ghosi, MG Road, Gurugram-122002, Haryana, India."
Ion Exchange India Limited,"Ion House, Dr. E. Moses Road, Mahalaxmi, Mumbai-400011","Ion House, Dr. E. Moses Road, Mahalaxmi, Mumbai-400011","Ion House, Dr. E. Moses Road, Mahalaxmi, Mumbai-400011"
Ipca Laboratories Limited,"48, Kandivli Industrial Estate, Kandivli (West), Mumbai – 400 067, Maharashtra, India","125, Kandivli Industrial Estate, Kandivli (West), Mumbai – 400 067, Maharashtra, India","125, Kandivli Industrial Estate, Kandivli (West), Mumbai – 400 067, Maharashtra, India"
IRB Infrastructure Developers Limited,"1101, Hiranandani Knowledge Park, 11th Floor,
Technology Street, Hill Side Avenue,
Opp. Hiranandani Hospital,
Powai, Mumbai – 400 076","3rd Floor, IRB Complex,
Chandivali Farm, Chandivali Village,
Andheri (East), Mumbai – 400 072","3rd Floor, IRB Complex,
Chandivali Farm, Chandivali Village,
Andheri (East), Mumbai – 400 072"
Ircon International Limited,"C-4, District Centre, Saket, New Delhi - 110017","C-4, District Centre, Saket, New Delhi - 110017","C-4, District Centre, Saket, New Delhi - 110017"
ISGEC Heavy Engineering Limited,"Radaur Road, Yamuna Nagar-135001, Haryana","A-4, Sector-24, Noida, Uttar Pradesh 201301","A-4, Sector-24, Noida, Uttar Pradesh 201301"
ITC Limited,"Virginia House, 37 Jawaharlal Nehru Road, Kolkata 700 071","Virginia House, 37 Jawaharlal Nehru Road, Kolkata 700 071","Virginia House, 37 Jawaharlal Nehru Road, Kolkata 700 071"
JAIPRAKASH POWER VENTURES LIMITED,"Complex of Jaypee Nigrie Super Thermal Power Plant  Tehsil Sarai, Nigrie, Singrauli, Madhya Pradesh 486669","JA House -63, Basant Lok, Vasant Vihar, New Delhi-110057","JA House -63, Basant Lok, Vasant Vihar, New Delhi-110057"
JAI BALAJI INDUSTRIES LIMITED,"5, BENTINCK STREET, KOLKATA- 700001","5, BENTINCK STREET, KOLKATA- 700001","5, BENTINCK STREET, KOLKATA- 700001"
JBM Auto Limited,"Plot no. 133, Sector 24, Faridabad - 121005","Plot No. 9, Institutional Area, Sector-44, Gurugram- 122003, Haryana","Plot No. 9, Institutional Area, Sector-44, Gurugram- 122003, Haryana"
Jindal Saw Limited,"A-1, UPSIDC Industrial Area, Nandgaon Road, Kosi Kalan, Mathura, Uttar Pradesh-281403","Jindal Centre, 12, Bhikaiji Cama Place, New Delhi-110066","Jindal Centre, 12, Bhikaiji Cama Place, New Delhi-110066"
Jindal Stainless Limited,"O.P. Jindal Marg, Hisar, Haryana- 125005","Jindal Centre, 12, Bhikaiji Cama Place, New Delhi-110066","Jindal Centre, 12, Bhikaiji Cama Place, New Delhi-110066"
JINDAL STEEL  POWER LIMITED,"O.P. Jindal Marg Hisar-125005, Haryana","Jindal Centre, 12, Bhikaji Cama Place, New Delhi – 110 066","Jindal Centre, 12, Bhikaji Cama Place, New Delhi – 110 066"
Jio Financial Services Limited,"1st Floor, Building 4NA, Maker Maxity, Bandra Kurla Complex, Bandra (East), Mumbai, Maharashtra, India 400 051","1st Floor, Building 4NA, Maker Maxity, Bandra Kurla Complex, Bandra (East), Mumbai, Maharashtra, India 400 051","1st Floor, Building 4NA, Maker Maxity, Bandra Kurla Complex, Bandra (East), Mumbai, Maharashtra, India 400 051"
JK CEMENT LIMITED,"Kamla Tower, Kanpur – 208001, Uttar Pradesh, India","Prism Tower, Ninaniya Estate, Gwal Pahari, Gurugram - 122102, Haryana","Prism Tower, Ninaniya Estate, Gwal Pahari, Gurugram - 122102, Haryana"
JK LAKSHMI CEMENT LIMITED,"JAYAKAYPURAM BASANTGARH DISTT SIROHI, NA, Rajasthan, India, 307019","Nehru House,4, Bahadur Shah Zafar Marg, New Delhi, Delhi, India, 110002","Nehru House,4, Bahadur Shah Zafar Marg, New Delhi, Delhi, India, 110002"
JK Tyre  Industries Limited,"Jaykaygram, PO - Tyre Factory, Kankroli - 313 342 (Rajasthan)","3, Bahadur Shah Zafar Marg, New Delhi- 110 002","3, Bahadur Shah Zafar Marg, New Delhi- 110 002"
JM Financial Limited,"7th Floor, Cnergy, Appasaheb Marathe Marg, Prabhadevi, Mumbai 400 025","7th Floor, Cnergy, Appasaheb Marathe Marg, Prabhadevi, Mumbai 400 025","7th Floor, Cnergy, Appasaheb Marathe Marg, Prabhadevi, Mumbai 400 025"
JSW Energy Limited,"JSW Centre, Bandra Kurla Complex, Bandra (East), Mumbai - 400 051","JSW Centre, Bandra Kurla Complex, Bandra (East), Mumbai - 400 051","JSW Centre, Bandra Kurla Complex, Bandra (East), Mumbai - 400 051"
JSW Infrastructure Limited,"JSW Centre, Bandra Kurla Complex, Bandra East, Mumbai 400051","JSW Centre, Bandra Kurla Complex, Bandra East, Mumbai 400051","JSW Centre, Bandra Kurla Complex, Bandra East, Mumbai 400051"
JSW Steel Limited,"JSW Centre, Bandra Kurla Complex, Bandra East, Mumbai- 400051, Maharashtra, India","JSW Centre, Bandra Kurla Complex, Bandra East, Mumbai- 400051, Maharashtra, India","JSW Centre, Bandra Kurla Complex, Bandra East, Mumbai- 400051, Maharashtra, India"
Jubilant FoodWorks Limited,"Plot No. 1A, Sector 16-A, Gautam Buddha Nagar, 
Noida – 201301, U.P., India","15th Floor, Tower E, Skymark One, Plot No. H – 
10/A, Sector 98, Noida- 201301, U.P., India","15th Floor, Tower E, Skymark One, Plot No. H – 
10/A, Sector 98, Noida- 201301, U.P., India"
JUBILANT INGREVIA LIMITED,"Bhartiagram, Gajraula, District Amroha-244 223, Uttar Pradesh, India","Jubilant Ingrevia Limited, 1A, Sector 16A, Noida - 201 301, Uttar Pradesh, India","Jubilant Ingrevia Limited, 1A, Sector 16A, Noida - 201 301, Uttar Pradesh, India"
Jubilant Pharmova Limited,"Bhartiagram, Gajraula, District Amroha-244 223, Uttar Pradesh, India","1A, Sector 16A, Filmcity, Noida-201301, Uttar Pradesh","1A, Sector 16A, Filmcity, Noida-201301, Uttar Pradesh"
Juniper Hotels Limited,"Off Western Express Highway, Santacruz East, Mumbai 400 055, Maharashtra, India","Off Western Express Highway, Santacruz East, Mumbai 400 055, Maharashtra, India","Off Western Express Highway, Santacruz East, Mumbai 400 055, Maharashtra, India"
Jupiter Life Line Hospitals Limited,"1004, 360 Degree Business Park, 10th Floor, Maharana Pratap Chowk, LBS Marg Mulund (West), Mumbai - 400 080, Maharashtra, India","Jupiter Hospital, Eastern Express Highway, Thane (West), Mumbai - 400 601, Maharashtra, India","Jupiter Hospital, Eastern Express Highway, Thane (West), Mumbai - 400 601, Maharashtra, India"
Jupiter Wagons Limited,"48, Vandana Vihar, Narmada Road, Gorakhpur, Jabalpur, Madhya Pradesh 482001","4/2. Middleton Street, Kolkata – 700071","4/2. Middleton Street, Kolkata – 700071"
Just Dial Limited,"Palm Court, Building-M, 501/B, 5th Floor, New Link Road,
Beside Goregaon Sports Complex, Malad (West),
Mumbai – 400 064.","Palm Court, Building-M, 501/B, 5th Floor, New Link
Road, Beside Goregaon Sports Complex, Malad (West),
Mumbai – 400 064.","Palm Court, Building-M, 501/B, 5th Floor, New Link
Road, Beside Goregaon Sports Complex, Malad (West),
Mumbai – 400 064."
JYOTHY LABS LIMITED,"Ujala House', Ram Krishna Mandir Road, Kondivita, Andheri (East), Mumbai - 400 059","Ujala House', Ram Krishna Mandir Road, Kondivita, Andheri (East), Mumbai - 400 059","Ujala House', Ram Krishna Mandir Road, Kondivita, Andheri (East), Mumbai - 400 059"
JYOTI CNC AUTOMATION LIMITED,"G – 506, Lodhika GIDC, Vill: Metoda, Rajkot – 360 021","G – 506, Lodhika GIDC, Vill: Metoda, Rajkot – 360 021","G – 506, Lodhika GIDC, Vill: Metoda, Rajkot – 360 021"
Kajaria Ceramics Limited,"SF-11, Second Floor, JMD Regent Plaza, Mehrauli Gurgaon Road, Village Sikanderpur Ghosi, Gurgaon, Haryana- 122001","J-1/B-1 (Extn.), Mohan Co-operative Industrial Estate, Mathura Road, New Delhi – 110044","J-1/B-1 (Extn.), Mohan Co-operative Industrial Estate, Mathura Road, New Delhi – 110044"
Kalpataru Projects International Limited,"Plot No. 101, Part III, GIDC Estate, Sector 28, Gandhinagar – 382028, Gujarat, India","7th Floor, Kalpataru Synergy, Opp. Grand Hyatt, Vakola, Santacruz (E), Mumbai – 400055,India","7th Floor, Kalpataru Synergy, Opp. Grand Hyatt, Vakola, Santacruz (E), Mumbai – 400055,India"
Kalyan Jewellers India Limited,"Corporate Office, Tc-32/204/2 Sitaram Mill Road/ Premji Road, Punkunnam Thrissur Kl 680 002, India","Corporate Office, Tc-32/204/2 Sitaram Mill Road/ Premji Road, Punkunnam Thrissur Kl 680 002, India","Corporate Office, Tc-32/204/2 Sitaram Mill Road/ Premji Road, Punkunnam Thrissur Kl 680 002, India"
Kansai Nerolac Paints Limited,"28th Floor, A-Wing, Marathon Futurex, N. M. Joshi 
Marg, Lower Parel, Mumbai - 400 013, Maharashtra","28th Floor, A-Wing, Marathon Futurex, N. M. Joshi 
Marg, Lower Parel, Mumbai - 400 013, Maharashtra","28th Floor, A-Wing, Marathon Futurex, N. M. Joshi 
Marg, Lower Parel, Mumbai - 400 013, Maharashtra"
KARUR VYSYA BANK LIMITED,"No.20, Erode Road, Vadivel Nagar, 
L.N.S., Karur - 639002, Tamilnadu","No.20, Erode Road, Vadivel Nagar, 
L.N.S., Karur - 639002, Tamilnadu","No.20, Erode Road, Vadivel Nagar, 
L.N.S., Karur - 639002, Tamilnadu"
Kaynes Technology India Limited,"23-25, Belagola Food Industrial Estate, Metagalli P.O., Mysuru - 570016 Karnataka, INDIA","23-25, Belagola Food Industrial Estate, Metagalli P.O., Mysuru - 570016 Karnataka, INDIA","23-25, Belagola Food Industrial Estate, Metagalli P.O., Mysuru - 570016 Karnataka, INDIA"
KEC International Limited,"RPG House, 463, Dr. Annie Besant Road, Worli, Mumbai - 400030, India","RPG House, 463, Dr. Annie Besant Road, Worli, Mumbai - 400030, India","RPG House, 463, Dr. Annie Besant Road, Worli, Mumbai - 400030, India"
KEI INDUSTRIES LIMITED,"D-90, Okhla Industrial Area, Phase 1, New Delhi – 110020","D-90, Okhla Industrial Area, Phase 1, New Delhi – 110020","D-90, Okhla Industrial Area, Phase 1, New Delhi – 110020"
Keystone Realtors Limited,"702 Natraj, M. V. Road Junction, Western Express Highway, Andheri East, Mumbai 400069","702 Natraj, M. V. Road Junction, Western Express Highway, Andheri East, Mumbai 400069","702 Natraj, M. V. Road Junction, Western Express Highway, Andheri East, Mumbai 400069"
KFin Technologies Limited,"301, The Centrium, 3rd Floor, 57, Lal Bahadur Shastri Road, Nav Pada, Kurla (West), Mumbai – 400070, Maharashtra","Selenium, Tower B, Plot No- 31 & 32, Financial District, Nanakramguda, Serilingampally, Hyderabad, Rangareddi - 500032, Telangana, India","Selenium, Tower B, Plot No- 31 & 32, Financial District, Nanakramguda, Serilingampally, Hyderabad, Rangareddi - 500032, Telangana, India"
KIOCL Limited,"II Block, Koramangala, Bengaluru - 560034","II Block, Koramangala, Bengaluru - 560034","II Block, Koramangala, Bengaluru - 560034"
Kirloskar Brothers Limited,"“Yamuna”, Survey No. 98 / (3 to 7), Plot No. 3, Baner, Pune – 411045, Maharashtra, India","“Yamuna”, Survey No. 98 / (3 to 7), Plot No. 3, Baner, Pune – 411045, Maharashtra, India","“Yamuna”, Survey No. 98 / (3 to 7), Plot No. 3, Baner, Pune – 411045, Maharashtra, India"
Kirloskar Oil Engines Limited,"Laxmanrao Kirloskar Road, Khadki, Pune – 411003","One Avante, Karve Road, Kothrud, Pune - 411038","One Avante, Karve Road, Kothrud, Pune - 411038"
KNR Constructions Limited,"Plot No. 113 & 114, KNR House, 3rd and 4th Floor, Kavuri Hills, Phase I, Hyderabad, Telangana-500033","Plot No. 113 & 114, KNR House, 3rd and 4th Floor, Kavuri Hills, Phase I,Hyderabad, Telangana-500033","Plot No. 113 & 114, KNR House, 3rd and 4th Floor, Kavuri Hills, Phase I,Hyderabad, Telangana-500033"
KOTAK MAHINDRA BANK LIMITED,"27BKC, C-27, G-Block, Bandra Kurla Complex, Bandra East, Mumbai 400051","27BKC, C-27, G-Block, Bandra Kurla Complex, Bandra East, Mumbai 400051","27BKC, C-27, G-Block, Bandra Kurla Complex, Bandra East, Mumbai 400051"
KPIT Technologies Limited,"Plot No. 17, Rajiv Gandhi Infotech Park, MIDC-SEZ, Phase-III, Maan, Taluka - Mulshi, Hinjawadi, Pune-411057.","Plot No. 17, Rajiv Gandhi Infotech Park, MIDC-SEZ, Phase-III, Maan, Taluka - Mulshi, Hinjawadi, Pune-411057.","Plot No. 17, Rajiv Gandhi Infotech Park, MIDC-SEZ, Phase-III, Maan, Taluka - Mulshi, Hinjawadi, Pune-411057."
KPI GREEN ENERGY LIMITED,"KP House', Near KP Circle, Opp. Ishwar Farm Junction BRTS, Canal Road, Bhatar, Surat-395017. Gujarat, India","KP House', Near KP Circle, Opp. Ishwar Farm Junction BRTS, Canal Road, Bhatar, Surat-395017. Gujarat, India","KP House', Near KP Circle, Opp. Ishwar Farm Junction BRTS, Canal Road, Bhatar, Surat-395017. Gujarat, India"
KPR MILL LIMITED,"No.9, Gokul Buildings, 1st Floor, A.K.S. Nagar, Thadagam Road, Coimbatore - 641001. Tamil Nadu","1st Floor, Srivari Shrimat, 1045, Avinashi Road, Coimbatore - 641018, Tamil Nadu.","1st Floor, Srivari Shrimat, 1045, Avinashi Road, Coimbatore - 641018, Tamil Nadu."
Krishna Institute of Medical Sciences Limited,"D.NO.1-8-31/1, Minister Road, Secunderabad.
Telangana, India - 500003","D.NO.1-8-31/1, Minister Road, Secunderabad.
Telangana, India - 500003","D.NO.1-8-31/1, Minister Road, Secunderabad.
Telangana, India - 500003"
KSB Limited,"Office No. 601, Runwal R-Square, L.B.S. Marg, Mulund (West), Mumbai Mumbai City -
400080, Maharashtra, India.","KSB Limited, Mumbai -Pune Road, Pimpri Pune- 411018, Maharashtra, India.","KSB Limited, Mumbai -Pune Road, Pimpri Pune- 411018, Maharashtra, India."
Larsen  Toubro Limited,"L&T House, Ballard Estate, Mumbai - 400001, Maharashtra","L&T House, Ballard Estate, Mumbai - 400001, Maharashtra","L&T House, Ballard Estate, Mumbai - 400001, Maharashtra"
Latent View Analytics Limited,"5th Floor, Neville Tower, Unit 6,7 and 8, Ramanujan IT City, Rajiv Gandhi Salai, Taramani Chennai, Chennai, India 600113","5th Floor, Neville Tower, Unit 6,7 and 8, Ramanujan IT City, Rajiv Gandhi Salai, Taramani Chennai, Chennai, India 600113","5th Floor, Neville Tower, Unit 6,7 and 8, Ramanujan IT City, Rajiv Gandhi Salai, Taramani Chennai, Chennai, India 600113"
LAURUS LABS LIMITED,"Laurus Enclave, Plot Office 01, E. Bonangi Village, Parawada Mandal, Anakapalli District – 531 021, Andhra Pradesh, India.","2nd Floor, Serene Chambers, Road No. 7, Banjara Hills, Hyderabad – 500 034, Telangana, India.","2nd Floor, Serene Chambers, Road No. 7, Banjara Hills, Hyderabad – 500 034, Telangana, India."
Lemon Tree Hotels Limited,"Asset No. 6, Aerocity Hospitality District, New Delhi-110037","Asset No. 6, Aerocity Hospitality District, New Delhi-110037","Asset No. 6, Aerocity Hospitality District, New Delhi-110037"
LIC Housing Finance Limited,"131, Maker Tower “F” Premises, 13th Floor, Cuffe Parade, Mumbai 400005","131, Maker Tower “F” Premises, 13th Floor, Cuffe Parade, Mumbai 400005","131, Maker Tower “F” Premises, 13th Floor, Cuffe Parade, Mumbai 400005"
Life Insurance Corporation of India,"Central Office- Yogakshema, J.B. Marg, Nariman Point, Mumbai- 400021","Central Office- Yogakshema, J.B. Marg, Nariman Point, Mumbai- 400021","Central Office- Yogakshema, J.B. Marg, Nariman Point, Mumbai- 400021"
Linde India Limited,"Oxygen House, P-43 Taratala Road, Kolkata – 700088","Oxygen House, P-43 Taratala Road, Kolkata – 700088","Oxygen House, P-43 Taratala Road, Kolkata – 700088"
Lloyds Metals and Energy Limited,"Plot No A 1-2, MIDC Area, Ghugus, Chandrapur - 442505","A-2, 2nd Floor, Madhu Estate, Pandurang Budhkar Marg, Lower Parel, Mumbai - 400013","A-2, 2nd Floor, Madhu Estate, Pandurang Budhkar Marg, Lower Parel, Mumbai - 400013"
LTIMindtree Limited,"L&T House, Ballard Estate, Mumbai - 400001, Maharashtra, India","Technology Tower 1, Gate No. 5, Saki Vihar Road, Powai, Mumbai 400 072","Technology Tower 1, Gate No. 5, Saki Vihar Road, Powai, Mumbai 400 072"
LT Finance Limited,"Brindavan, Plot No. 177, C.S.T. Road, Kalina, Santacruz (East), Mumbai- 400098, Maharashtra, India","Brindavan, Plot No. 177, C.S.T. Road, Kalina, Santacruz (East), Mumbai- 400098, Maharashtra, India","Brindavan, Plot No. 177, C.S.T. Road, Kalina, Santacruz (East), Mumbai- 400098, Maharashtra, India"
LT Technology Services Limited,"L&T House, N.M. Marg, Ballard Estate, Mumbai 400 001","West Block-II, L&T Knowledge City (IT/ITES) SEZ, N.H. No. 8, Ajwa Waghodia Crossing, Vadodara - 390 019","West Block-II, L&T Knowledge City (IT/ITES) SEZ, N.H. No. 8, Ajwa Waghodia Crossing, Vadodara - 390 019"
Lupin Limited,"Kalpataru Inspire, 3rd Floor, Off Western Express Highway, Santacruz (East), Mumbai - 400 055. India","Kalpataru Inspire, 3rd Floor, Off Western Express Highway, Santacruz (East), Mumbai - 400 055. India","Kalpataru Inspire, 3rd Floor, Off Western Express Highway, Santacruz (East), Mumbai - 400 055. India"
MACROTECH DEVELOPERS LIMITED,"412, Floor- 4, 17G Vardhaman Chamber Cawasji Patel Road, Horniman Circle, Fort Mumbai 400 001","One Lodha Place, Senapati Bapat Marg, Lower Parel, Mumbai 400 013","One Lodha Place, Senapati Bapat Marg, Lower Parel, Mumbai 400 013"
Mahanagar Gas Limited,"MGL House, Block No. G-33, Bandra-Kurla Complex, Bandra (E), Mumbai – 400 051","MGL House, Block No. G-33, Bandra-Kurla Complex, Bandra (E), Mumbai – 400 051","MGL House, Block No. G-33, Bandra-Kurla Complex, Bandra (E), Mumbai – 400 051"
MAHARASHTRA SCOOTERS LIMITED,"C/o Bajaj Auto Ltd. Mumbai - Pune Road, Akurdi, Pune 411 035.","3rd Floor, Panchshil Tech Park, Viman Nagar, Pune – 411 014","3rd Floor, Panchshil Tech Park, Viman Nagar, Pune – 411 014"
Maharashtra Seamless Limited,"PIPE NAGAR VILLAGE SUKELINH17 BKG ROAD ROHA, RAIGAD, Maharashtra, India, 402126","Plot No. 30, Institutional Sector 44, Gurugram-122 003, Haryana","Plot No. 30, Institutional Sector 44, Gurugram-122 003, Haryana"
Mahindra Holidays  Resorts India Limited,"Mahindra Towers, A-Wing, 1st Floor, Dr. G.M. Bhosale Marg, P. K. Kurne Chowk, Worli, Mumbai - 400018","Mahindra Towers, A-Wing, 1st Floor, Dr. G.M. Bhosale Marg, P. K. Kurne Chowk, Worli, Mumbai - 400018","Mahindra Towers, A-Wing, 1st Floor, Dr. G.M. Bhosale Marg, P. K. Kurne Chowk, Worli, Mumbai - 400018"
Mahindra Lifespace Developers Limited,"Mahindra Towers, 4th floor, Worli, Mumbai – 400018","Mahindra Towers, 4th floor, Worli, Mumbai – 400018","Mahindra Towers, 4th floor, Worli, Mumbai – 400018"
Mahindra  Mahindra Financial Services Limited,"Gateway Building, Apollo Bunder, Mumbai, 400001 India","Mahindra Towers, 3rd Floor, Dr G.M.Bhosale Marg, Worli, Mumbai, 400018 India","Mahindra Towers, 3rd Floor, Dr G.M.Bhosale Marg, Worli, Mumbai, 400018 India"
Mahindra  Mahindra Limited,"Gateway Building, Apollo Bunder, Mumbai - 400001","Mahindra Towers, Dr. G. M. Bhosale Marg, Worli, Mumbai - 400018","Mahindra Towers, Dr. G. M. Bhosale Marg, Worli, Mumbai - 400018"
Manappuram Finance Limited,"W-4/638A, Manappuram House, Valapad - 680567, Thrissur, Kerala","Corporate Office: W-4/638A, Manappuram House Valapad, Thrissur, Kerala - 680567  
Landline: 0487 3050000, 3050108, 3050100  

Corporate office Annexe: A-Wing, 3rd Floor, Unit No 301 To 315 Kanakia Wall Street, Andheri Kurla Road, Andheri East, Mumbai, Maharashtra -400093  
Landline: 022 68194000","Corporate Office: W-4/638A, Manappuram House Valapad, Thrissur, Kerala - 680567  
Landline: 0487 3050000, 3050108, 3050100  

Corporate office Annexe: A-Wing, 3rd Floor, Unit No 301 To 315 Kanakia Wall Street, Andheri Kurla Road, Andheri East, Mumbai, Maharashtra -400093  
Landline: 022 68194000"
MANKIND PHARMA LIMITED,"208, Okhla Industrial Estate, Phase-III, New Delhi, 110020, India","262, Okhla Industrial Estate, Phase-III, New Delhi, 110020, India","262, Okhla Industrial Estate, Phase-III, New Delhi, 110020, India"
Man Infraconstruction Limited,"12th Floor, Krushal Commercial Complex, G. M. Road, Chembur (West), Mumbai - 400089","12th Floor, Krushal Commercial Complex, G. M. Road, Chembur (West), Mumbai - 400089","12th Floor, Krushal Commercial Complex, G. M. Road, Chembur (West), Mumbai - 400089"
Marico Limited,"7th Floor, Grande Palladium, 175 CST Road, Kalina, Santacruz (East), Mumbai 400098","7th Floor, Grande Palladium, 175 CST Road, Kalina, Santacruz (East), Mumbai 400098","7th Floor, Grande Palladium, 175 CST Road, Kalina, Santacruz (East), Mumbai 400098"
Maruti Suzuki India Limited,"1, Nelson Mandela Road, Vasant Kunj, New Delhi-110070","1, Nelson Mandela Road, Vasant Kunj, New Delhi-110070","1, Nelson Mandela Road, Vasant Kunj, New Delhi-110070"
Mastek Limited,"804 / 805 President House, Opposite C. N. Vidyalaya, Near Ambawadi Circle, Ahmedabad – 380006, Gujarat.","#106, SDF IV, Seepz, Andheri (East), Mumbai ‑ 400 096, India.","#106, SDF IV, Seepz, Andheri (East), Mumbai ‑ 400 096, India."
Max Financial Services Limited,"Bhai Mohan Singh Nagar, Railmajra, Tehsil Balachaur, District Nawanshahr Punjab 144533","Max Financial Services Limited, L21, Max Towers, Plot No. C-001/A/1 Sector – 16B, Noida-201301, Uttar Pradesh","Max Financial Services Limited, L21, Max Towers, Plot No. C-001/A/1 Sector – 16B, Noida-201301, Uttar Pradesh"
MAX HEALTHCARE INSTITUTE LIMITED,"401, 4th Floor, Man Excellenza, S. V. Road, Vile Parle (West), Mumbai, Maharashtra – 400056","2nd Floor, Capital Cyberscape, Sector-59, Gurugram, Haryana – 122102","2nd Floor, Capital Cyberscape, Sector-59, Gurugram, Haryana – 122102"
Mazagon Dock Shipbuilders Limited,"Dockyard Road, Mumbai - 400 010","Dockyard Road, Mumbai - 400 010","Dockyard Road, Mumbai - 400 010"
MedPlus Health Services Limited,"H. No: 11-6-56, Survey No: 257 & 258/1 Opp: IDPL 
Railway Siding Road, Moosapet, Kukatpally Hyderabad 
TG 500037 IN","H. No: 11-6-56, Survey No: 257 & 258/1 Opp: IDPL 
Railway Siding Road, Moosapet, Kukatpally Hyderabad 
TG 500037 IN","H. No: 11-6-56, Survey No: 257 & 258/1 Opp: IDPL 
Railway Siding Road, Moosapet, Kukatpally Hyderabad 
TG 500037 IN"
Metropolis Healthcare Limited,"Metropolis Healthcare Limited, 4th Floor, East Wing, Plot-254 B, Nirlon House, Dr. Annie Besant Road, Worli, Mumbai - 400030, Maharashtra, India.","Metropolis Healthcare Limited, 4th Floor, Commercial Building 1A, Kohinoor Mall, Vidyavihar (West), Mumbai - 400070, Maharashtra, India.","Metropolis Healthcare Limited, 4th Floor, Commercial Building 1A, Kohinoor Mall, Vidyavihar (West), Mumbai - 400070, Maharashtra, India."
Metro Brands Limited,"401, Zillion, 4th Floor, LBS Marg & CST Road Junction, Kurla (West), Mumbai – 400070","401, Zillion, 4th Floor, LBS Marg & CST Road Junction, Kurla (West), Mumbai – 400070","401, Zillion, 4th Floor, LBS Marg & CST Road Junction, Kurla (West), Mumbai – 400070"
Minda Corporation Limited,"A-15, Ashok Vihar, Phase-I, Delhi - 110052","D6-11, Sector 59, Noida 201301, Uttar Pradesh, India","D6-11, Sector 59, Noida 201301, Uttar Pradesh, India"
Mishra Dhatu Nigam Limited,"PO Kanchanbagh, Hyderabad - 500058","PO Kanchanbagh, Hyderabad - 500058","PO Kanchanbagh, Hyderabad - 500058"
MMTC LIMITED,"Core-1, SCOPE Complex, 7 Institutional Area, Lodhi Road, New Delhi - 110003","Core-1, SCOPE Complex, 7 Institutional Area, Lodhi Road, New Delhi - 110003","Core-1, SCOPE Complex, 7 Institutional Area, Lodhi Road, New Delhi - 110003"
MOIL Limited,"1-A, Katol Road, Nagpur, Maharashtra, 440013, India","1-A, Katol Road, Nagpur, Maharashtra, 440013, India","1-A, Katol Road, Nagpur, Maharashtra, 440013, India"
Motherson Sumi Wiring India Limited,"Unit 705, C Wing, ONE BKC, G Block, Bandra Kurla Complex,
Bandra East, Mumbai , 400051, Maharashtra, India","Motherson Corporate Tower, Plot No. 1, 5th Floor, Sector 127,
Noida - 201301, Uttar Pradesh, India","Motherson Corporate Tower, Plot No. 1, 5th Floor, Sector 127,
Noida - 201301, Uttar Pradesh, India"
Motilal Oswal Financial Services Limited,"Motilal Oswal Tower, Rahimtullah Sayani Opposite Parel ST Depot, Prabhadevi, Mumbai-400025, Mumbai, Maharashtra, India, 400025","Motilal Oswal Tower, Rahimtullah Sayani Opposite Parel ST Depot, Prabhadevi, Mumbai-400025, Mumbai, Maharashtra, India, 400025","Motilal Oswal Tower, Rahimtullah Sayani Opposite Parel ST Depot, Prabhadevi, Mumbai-400025, Mumbai, Maharashtra, India, 400025"
Mphasis Limited,"Bagmane World Technology Center, Marathahalli Outer Ring Road, Doddanakundi Village, Mahadevapura, Bengaluru- 560 048, India","Bagmane World Technology Center, Marathahalli Outer Ring Road, Doddanakundi Village, Mahadevapura, Bengaluru- 560 048, India","Bagmane World Technology Center, Marathahalli Outer Ring Road, Doddanakundi Village, Mahadevapura, Bengaluru- 560 048, India"
MRF Limited,"114, Greams Road, Chennai, 600006","114, Greams Road, Chennai, 600006","114, Greams Road, Chennai, 600006"
MUTHOOT FINANCE LIMITED,"NH BYPASS, PALARIVATTOM, KOCHI - 682028","NH BYPASS, PALARIVATTOM, KOCHI - 682028","NH BYPASS, PALARIVATTOM, KOCHI - 682028"
Narayana Hrudayalaya Ltd,"No.258/A, Bommasandra Industrial Area, Anekal Taluk Bangalore – 560099","No.261/A, 2nd floor, Bommasandra Industrial Area, Anekal Taluk Bangalore – 560099","No.261/A, 2nd floor, Bommasandra Industrial Area, Anekal Taluk Bangalore – 560099"
NATCO Pharma Limited,"NATCO House, Road No.2, Banjara hills, Hyderabad - 500034, Telangana, India.","NATCO House, Road No.2, Banjara hills, Hyderabad - 500034, Telangana, India.","NATCO House, Road No.2, Banjara hills, Hyderabad - 500034, Telangana, India."
NAVA LIMITED,"Nava Bharat Chambers, 6-3-1109/1 Raj Bhavan Road, Hyderabad - 500082, Telangana. India.","Silicon House, 8-2-318/1, Road No.14, Banjara Hills, Hyderabad 500034, Telangana","Silicon House, 8-2-318/1, Road No.14, Banjara Hills, Hyderabad 500034, Telangana"
Navin Fluorine International Limited,"Office No. 602, 6th Floor, Natraj by Rustomjee, Near Western Express Highway, 194, Sir Mathuradas Vasanji Road, Andheri (East), Mumbai 400069","Office No. 602, 6th Floor, Natraj by Rustomjee, Near Western Express Highway, 194, Sir Mathuradas Vasanji Road, Andheri (East), Mumbai 400069","Office No. 602, 6th Floor, Natraj by Rustomjee, Near Western Express Highway, 194, Sir Mathuradas Vasanji Road, Andheri (East), Mumbai 400069"
NBCC India Limited,"NBCC Bhawan, Lodhi Road, New Delhi- 110003","NBCC Bhawan, Lodhi Road, New Delhi- 110003","NBCC Bhawan, Lodhi Road, New Delhi- 110003"
NCC LIMITED,"NCC House, Madhapur, Hyderabad – 500081, Telangana","NCC House, Madhapur, Hyderabad – 500081, Telangana","NCC House, Madhapur, Hyderabad – 500081, Telangana"
Nestle India Limited,"100 / 101, World Trade Centre, Barakhamba Lane, New Delhi – 110001, India","“Nestle House”, Jacaranda Marg, 'M' Block, DLF City, Phase - II, Gurugram - 122 002, Haryana, India","“Nestle House”, Jacaranda Marg, 'M' Block, DLF City, Phase - II, Gurugram - 122 002, Haryana, India"
NETWEB TECHNOLOGIES INDIA LIMITED,"Plot No. H-1, Block-H, Pocket No. 9, Faridabad Industrial Town, Sector-57, Faridabad, Haryana 121004","Plot No. H-1, Block-H, Pocket No. 9, Faridabad Industrial Town, Sector-57, Faridabad, Haryana 121004","Plot No. H-1, Block-H, Pocket No. 9, Faridabad Industrial Town, Sector-57, Faridabad, Haryana 121004"
Neuland Laboratories Limited,"11th Floor (5th Level), Phoenix IVY Building, Plot No. 573A-III, Road No. 82, Jubilee Hills, Hyderabad, 500033, Telangana","11th Floor (5th Level), Phoenix IVY Building, Plot No. 573A-III, Road No. 82, Jubilee Hills, Hyderabad, 500033, Telangana","11th Floor (5th Level), Phoenix IVY Building, Plot No. 573A-III, Road No. 82, Jubilee Hills, Hyderabad, 500033, Telangana"
Newgen Software Technologies Limited,"E-44/13 Okhla Phase II, New Delhi South Delhi DL 110020","E-44/13 Okhla Phase II, New Delhi South Delhi DL 110020","E-44/13 Okhla Phase II, New Delhi South Delhi DL 110020"
NHPC Limited,"NHPC Office Complex, Sector-33, Faridabad, Haryana-121003 (India)","NHPC Office Complex, Sector-33, Faridabad, Haryana-121003 (India)","NHPC Office Complex, Sector-33, Faridabad, Haryana-121003 (India)"
Nippon Life India Asset Management Limited,"4th Floor, Tower A, Peninsula Business Park, Ganapatrao Kadam Marg, Lower Parel (W), Mumbai – 400 013","4th Floor, Tower A, Peninsula Business Park, Ganapatrao Kadam Marg, Lower Parel (W), Mumbai – 400 013","4th Floor, Tower A, Peninsula Business Park, Ganapatrao Kadam Marg, Lower Parel (W), Mumbai – 400 013"
NLC India Limited,"No. 135, EVR Periyar High Road, Kilpauk, Chennai- 600010, Tamil Nadu","Block - 1, Neyveli - 607 801, Cuddalore District, Tamil Nadu","Block - 1, Neyveli - 607 801, Cuddalore District, Tamil Nadu"
NMDC Limited,"Khanij Bhavan, 10-3-311/A, Castle Hills, Masab Tank, Hyderabad - 500 028","Khanij Bhavan, 10-3-311/A, Castle Hills, Masab Tank, Hyderabad - 500 028","Khanij Bhavan, 10-3-311/A, Castle Hills, Masab Tank, Hyderabad - 500 028"
NMDC Steel Limited,"C/o NMDC Iron & Steel Plant, Nagarnar, Chhattisgarh, 
India – 494 001","NMDC Ltd, 'Khanij Bhavan', 10-3-311/A, Castle Hills, 
Masab Tank, Hyderabad - 500 028","NMDC Ltd, 'Khanij Bhavan', 10-3-311/A, Castle Hills, 
Masab Tank, Hyderabad - 500 028"
NTPC LIMITED,"NTPC Bhawan, SCOPE Complex, 7, Institutional Area, Lodi Road, New Delhi-110 003","NTPC Bhawan, SCOPE Complex, 7, Institutional Area, Lodi Road, New Delhi-110 003","NTPC Bhawan, SCOPE Complex, 7, Institutional Area, Lodi Road, New Delhi-110 003"
NUVAMA WEALTH MANAGEMENT LIMITED,"801- 804, Wing A, Building No. 3, Inspire BKC, G Block,
Bandra Kurla Complex, Bandra East, Mumbai – 400 051","801- 804, Wing A, Building No. 3, Inspire BKC, G Block,
Bandra Kurla Complex, Bandra East, Mumbai – 400 051","801- 804, Wing A, Building No. 3, Inspire BKC, G Block,
Bandra Kurla Complex, Bandra East, Mumbai – 400 051"
Nuvoco Vistas Corporation Limited,"Equinox Business Park, Tower 3, East Wing, 4th floor, LBS Marg, Kurla (West), Mumbai - 400 070","Equinox Business Park, Tower 3, East Wing, 4th floor, LBS Marg, Kurla (West), Mumbai - 400 070","Equinox Business Park, Tower 3, East Wing, 4th floor, LBS Marg, Kurla (West), Mumbai - 400 070"
Oberoi Realty Limited,"Commerz, 3rd Floor, International Business Park, Oberoi Garden City, Off Western Express Highway, Goregaon (East), Mumbai 400063, India","Commerz, 3rd Floor, International Business Park, Oberoi Garden City, Off Western Express Highway, Goregaon (East), Mumbai 400063, India","Commerz, 3rd Floor, International Business Park, Oberoi Garden City, Off Western Express Highway, Goregaon (East), Mumbai 400063, India"
Oil India Limited,"Duliajan, Assam","Plot No. 19, Sector- 16A, Noida- 201301","Plot No. 19, Sector- 16A, Noida- 201301"
Olectra Greentech Limited,"S-22, 3rd Floor, Technocrat Industrial Estate, Balanagar,Hyderabad-500 037, Telangana, India","S-22, 3rd Floor, Technocrat Industrial Estate, Balanagar,Hyderabad-500 037, Telangana, India","S-22, 3rd Floor, Technocrat Industrial Estate, Balanagar,Hyderabad-500 037, Telangana, India"
One 97 Communications Limited,"136, First Floor, Devika Tower, Nehru Place, New Delhi, India - 110019","One Skymark, Tower D, Plot No. H-10B, Sector-98, Noida, Uttar Pradesh, India - 201304","One Skymark, Tower D, Plot No. H-10B, Sector-98, Noida, Uttar Pradesh, India - 201304"
Oracle Financial Services Software Limited,"Oracle Park, off Western Express Highway, Goregaon (East), Mumbai 400063, Maharashtra, India","Oracle Park, off Western Express Highway, Goregaon (East), Mumbai 400063, Maharashtra, India","Oracle Park, off Western Express Highway, Goregaon (East), Mumbai 400063, Maharashtra, India"
Page Industries Limited,"Cessna Business Park, Tower-1, 7th Floor, Umiya Business Bay, Varthur Hobli,
Bengaluru, Karnataka - 560103","Cessna Business Park, Tower-1, 3rd Floor, Umiya Business Bay, Varthur Hobli,
Bengaluru - 560103","Cessna Business Park, Tower-1, 3rd Floor, Umiya Business Bay, Varthur Hobli,
Bengaluru - 560103"
PATANJALI FOODS LIMITED,"616, Tulsiani Chambers Nariman Point, Mumbai City, Mumbai, Maharashtra, India, 400021","Office No. 601, Part B-2, Metro Tower, 6th Floor, Vijay Nagar, AB Road, Indore, Madhya Pradesh, India, 452010","Office No. 601, Part B-2, Metro Tower, 6th Floor, Vijay Nagar, AB Road, Indore, Madhya Pradesh, India, 452010"
PB FINTECH LIMITED,"Plot 119, Sector 44, Gurugram‐ 122001, Haryana","Plot 119, Sector 44, Gurugram‐ 122001, Haryana","Plot 119, Sector 44, Gurugram‐ 122001, Haryana"
Persistent Systems Limited,"Bhageerath, 402 Senapati Bapat Road, Pune, Maharashtra 411016","Bhageerath, 402 Senapati Bapat Road, Pune, Maharashtra 411016","Bhageerath, 402 Senapati Bapat Road, Pune, Maharashtra 411016"
Petronet LNG Limited,"1st Floor, World Trade Centre, Babar Road, Barakhamba Lane, New Delhi - 110001","1st Floor, World Trade Centre, Babar Road, Barakhamba Lane, New Delhi - 110001","1st Floor, World Trade Centre, Babar Road, Barakhamba Lane, New Delhi - 110001"
Pfizer Limited,"The Capital, 1802/1901, Plot No. C - 70,
G Block, Bandra Kurla Complex,
Bandra (East), Mumbai, 400051","The Capital, 1802/1901, Plot No. C - 70,
G Block, Bandra Kurla Complex,
Bandra (East), Mumbai, 400051","The Capital, 1802/1901, Plot No. C - 70,
G Block, Bandra Kurla Complex,
Bandra (East), Mumbai, 400051"
Pidilite Industries Limited,"Regent Chambers 7th Floor 208 Nariman Point, Mumbai, Maharashtra, 400 021","Ramkrishna Mandir Road, Off Mathuradas Vasanji Road, Andheri (E), Mumbai – 400 059","Ramkrishna Mandir Road, Off Mathuradas Vasanji Road, Andheri (E), Mumbai – 400 059"
Piramal Enterprises Limited,"Piramal Ananta, Agastya Corporate Park, Opposite Fire Brigade, Kamani Junction, LBS Marg, Kurla (West), Mumbai - 400 070","10th Floor, Piramal Tower Annexe, Peninsula Corporate Park, Ganpatrao Kadam Marg, Lower Parel - 400013","10th Floor, Piramal Tower Annexe, Peninsula Corporate Park, Ganpatrao Kadam Marg, Lower Parel - 400013"
Piramal Pharma Limited,"Gr. Flr., Piramal Ananta, Agastya Corp. Park, Kamani Junction, LBS Marg, Kurla (West), Mumbai - 400070","Gr. Flr., Piramal Ananta, Agastya Corp. Park, Kamani Junction, LBS Marg, Kurla (West), Mumbai - 400070","Gr. Flr., Piramal Ananta, Agastya Corp. Park, Kamani Junction, LBS Marg, Kurla (West), Mumbai - 400070"
PI INDUSTRIES LIMITED,"PI Industries Ltd. Udaisagar Road, Udaipur 313001 Rajasthan, India","5th Floor, Vipul Square, B-Block, Sushant Lok, Phase -1, Gurugram- 122009, Haryana (India)
Unit no. 3A, 1st Floor, Wing A, CTS no. 1483 D, IA Project Road, Next to JW Marriott Hotel, Sahar, Village Marol, Taluka Andheri (East), Mumbai 400099, Maharashtra, (India)","5th Floor, Vipul Square, B-Block, Sushant Lok, Phase -1, Gurugram- 122009, Haryana (India)
Unit no. 3A, 1st Floor, Wing A, CTS no. 1483 D, IA Project Road, Next to JW Marriott Hotel, Sahar, Village Marol, Taluka Andheri (East), Mumbai 400099, Maharashtra, (India)"
PNB Housing Finance Limited,"9th Floor, Antriksh Bhawan, 22 Kasturba Gandhi Marg, New Delhi-110001","RMZ Infinity Park, 1st Floor and 6th Floor, Plot No. 15, Udyog Vihar, Gurugram, Haryana 122008","RMZ Infinity Park, 1st Floor and 6th Floor, Plot No. 15, Udyog Vihar, Gurugram, Haryana 122008"
PNC Infratech Limited,"NBCC Plaza, Tower II, 4th Floor, Pushp Vihar,
Sector 5, New Delhi - 110017","PNC Tower, 3/22-D, Civil Lines,
Agra-Delhi Bypass Road, NH-2 Agra UP 282002 IN","PNC Tower, 3/22-D, Civil Lines,
Agra-Delhi Bypass Road, NH-2 Agra UP 282002 IN"
Polycab India Limited,"Unit No.4, Plot No.105, Halol Vadodara Road,Village Nurpura, Taluka Halol, Panchmahal,Gujarat – 389350","#29, “The Ruby”, 21st Floor,Senapati Bapat Marg, Tulsi Pipe Road,Dadar West, Mumbai – 400 028","#29, “The Ruby”, 21st Floor,Senapati Bapat Marg, Tulsi Pipe Road,Dadar West, Mumbai – 400 028"
POLY MEDICURE LIMITED,"232-B, 3rd Floor, Okhla Industrial Estate, Phase-III, New Delhi-110020, INDIA","232-B, 3rd Floor, Okhla Industrial Estate, Phase-III, New Delhi-110020, INDIA","232-B, 3rd Floor, Okhla Industrial Estate, Phase-III, New Delhi-110020, INDIA"
Poonawalla Fincorp Limited,"201 and 202, 2nd floor, AP81, Koregaon Park Annex, Mundhwa, Pune - 411036
Maharashtra, India","2401, 24th Floor, Altimus, Dr G.M. Bhosale Marg, Worli, Mumbai- 400018 Maharashtra, India","2401, 24th Floor, Altimus, Dr G.M. Bhosale Marg, Worli, Mumbai- 400018 Maharashtra, India"
Power Finance Corporation Limited,"Urjanidhi, 1, Barakhamba Lane, Connaught Place, New Delhi - 110 001","Urjanidhi'], 1, Barakhamba Lane, Connaught Place, New Delhi - 110 001","Urjanidhi'], 1, Barakhamba Lane, Connaught Place, New Delhi - 110 001"
Power Grid Corporation of India Limited,"B-9, Qutab Institutional Area, Katwaria Sarai, New Delhi-110016","Saudamini, Plot No.2, Sector 29, Gurugram, Haryana-122001","Saudamini, Plot No.2, Sector 29, Gurugram, Haryana-122001"
Power Mech Projects Limited,"Plot No.77, Jubilee Enclave, Opposite: Hitex,Madhapur, Hyderabad, Telangana-500081.","Plot No.77, Jubilee Enclave, Opposite: Hitex,Madhapur, Hyderabad, Telangana-500081.","Plot No.77, Jubilee Enclave, Opposite: Hitex,Madhapur, Hyderabad, Telangana-500081."
Praj Industries Limited,"“Praj Tower”, S. No. 274 & 275/2, Bhumkar Chowk- Hinjewadi Road, Hinjewadi, Pune – 411 057.","“Praj Tower”, S. No. 274 & 275/2, Bhumkar Chowk- Hinjewadi Road, Hinjewadi, Pune – 411 057.","“Praj Tower”, S. No. 274 & 275/2, Bhumkar Chowk- Hinjewadi Road, Hinjewadi, Pune – 411 057."
Prestige Estates Projects Limited,"Prestige Falcon Tower, No.19, Brunton Road, Bangalore - 560025","Prestige Falcon Tower, No.19, Brunton Road, Bangalore - 560025","Prestige Falcon Tower, No.19, Brunton Road, Bangalore - 560025"
Prism Johnson Limited,"305, Laxmi Niwas Apartment, Ameerpet, Hyderabad-500016","Rahejas, Main Avenue, 2nd. Floor, V. P. Road,
Santacruz (West), Mumbai - 400 054","Rahejas, Main Avenue, 2nd. Floor, V. P. Road,
Santacruz (West), Mumbai - 400 054"
Procter  Gamble Health Limited,"P&G Plaza, Cardinal Gracias Road, Chakala, Andheri (East), Mumbai – 400099","P&G Plaza, Cardinal Gracias Road, Chakala, Andheri (East), Mumbai – 400099","P&G Plaza, Cardinal Gracias Road, Chakala, Andheri (East), Mumbai – 400099"
PTC Industries Limited,"NH 25A, Sarai Shahjadi, Lucknow 227 101 Uttar Address Pradesh, India","NH 25A, Sarai Shahjadi, Lucknow 227 101 Uttar Address Pradesh, India","NH 25A, Sarai Shahjadi, Lucknow 227 101 Uttar Address Pradesh, India"
PUNJAB NATIONAL BANK,"PUNJAB NATIONAL BANK, CORPORATE OFFICE, PLOT NO 4, SECTOR 10, DWARKA NEW DELHI 110075","PUNJAB NATIONAL BANK, CORPORATE OFFICE, PLOT NO 4, SECTOR 10, DWARKA NEW DELHI 110075","PUNJAB NATIONAL BANK, CORPORATE OFFICE, PLOT NO 4, SECTOR 10, DWARKA NEW DELHI 110075"
Punjab  Sind Bank,"Bank House, 21 Rajendra Place, New Delhi – 110008","NBCC Office Complex, Block – 3, East Kidwai Nagar, New Delhi - 110023","NBCC Office Complex, Block – 3, East Kidwai Nagar, New Delhi - 110023"
PVR INOX LIMITED,"7th Floor, Lotus Grandeur Building, Veera Desai Road, Opposite Gundecha Symphony, Andheri (West), Mumbai – 400053","Block-A, 4th Floor, Building No. 9A, DLF Cyber City, Phase III, Gurgaon – 122002","Block-A, 4th Floor, Building No. 9A, DLF Cyber City, Phase III, Gurgaon – 122002"
Quess Corp Limited,"Quess Tower, Sky Walk Avenue, 32/4, Hosur Road, Roopena Agrahara, Bommanahalli, Bengaluru - 560068","Quess Tower, Sky Walk Avenue, 32/4, Hosur Road, Roopena Agrahara, Bommanahalli, Bengaluru - 560068, Karnataka, India","Quess Tower, Sky Walk Avenue, 32/4, Hosur Road, Roopena Agrahara, Bommanahalli, Bengaluru - 560068, Karnataka, India"
Radico Khaitan Limited,"Rampur Distillery, Bareilly Road, Rampur, Uttar
Pradesh - 244901","Plot No. J-I, Block B-I, Mohan Co-operative Industrial
Area, Mathura Road, New Delhi-110044","Plot No. J-I, Block B-I, Mohan Co-operative Industrial
Area, Mathura Road, New Delhi-110044"
Railtel Corporation of India Limited,"Plate-A, 6th Floor, Office Block, Tower-2, East Kidwai Nagar, New Delhi-110023 Tel.: +91 11 22900600 Fax: +91 11 22900699","Plate-A, 6th Floor, Office Block, Tower-2, East Kidwai Nagar, New Delhi-110023 Tel.: +91 11 22900600 Fax: +91 11 22900699","Plate-A, 6th Floor, Office Block, Tower-2, East Kidwai Nagar, New Delhi-110023 Tel.: +91 11 22900600 Fax: +91 11 22900699"
Rail Vikas Nigam Limited,"1st Floor, August Kranti Bhawan, Bhikaji Cama Place, R.K. Puram, New Delhi-110066","1st Floor, August Kranti Bhawan, Bhikaji Cama Place, R.K. Puram, New Delhi-110066","1st Floor, August Kranti Bhawan, Bhikaji Cama Place, R.K. Puram, New Delhi-110066"
RAJESH EXPORTS LIMITED,"4, Batavia Chambers, Kumara Krupa Road, Kumara Park East, Bangalore - 560001","1, Brunton Road, Off M. G. Road, Bangalore - 560025","1, Brunton Road, Off M. G. Road, Bangalore - 560025"
Ramkrishna Forgings Limited,"23, Circus Avenue, 9th Floor, Kolkata – 700017","23, Circus Avenue, 9th Floor, Kolkata – 700017","23, Circus Avenue, 9th Floor, Kolkata – 700017"
RateGain Travel Technologies Limited,"M-140, Greater Kailash, Part-II, New Delhi - 110048","4th Floor, Tower A, Club 125, Plot No. 3,4,5, Sector – 125, Noida – 201301","4th Floor, Tower A, Club 125, Plot No. 3,4,5, Sector – 125, Noida – 201301"
Ratnamani Metals  Tubes Limited,"17, Rajmugat Society, Naranpura Cross Roads, Ahmedabad - 380013, Gujarat, India","""The First"", A&B Wing, 9th Floor, Behind Keshav Baug Party Plot, The First Avenue Road, Off 132 Feet Ring Road, Vastrapur, Ahmedabad - 380015, Gujarat, India","""The First"", A&B Wing, 9th Floor, Behind Keshav Baug Party Plot, The First Avenue Road, Off 132 Feet Ring Road, Vastrapur, Ahmedabad - 380015, Gujarat, India"
RATTANINDIA ENTERPRISES LIMITED,"H No. 51, Village Hauz Kahs, New Delhi-110017","5th Floor, Tower- B, Worldmark 1, Aerocity, New Delhi-110037","5th Floor, Tower- B, Worldmark 1, Aerocity, New Delhi-110037"
Raymond Limited,"Plot No. 156/H No. 2, Village Zadgaon, Ratnagiri, Maharashtra - 415612 India","New Hind House, Narottam Morarjee Marg, Ballard Estate, Mumbai – 400 001, Maharashtra, India","New Hind House, Narottam Morarjee Marg, Ballard Estate, Mumbai – 400 001, Maharashtra, India"
RBL Bank Limited,"1st Lane, Shahupuri, Kolhapur 416 001, Maharashtra, India","One World Center, Tower 2B, 6th Floor, 841 Senapati Bapat Marg, Lower Parel (W), Mumbai - 400 013,  Maharashtra, India","One World Center, Tower 2B, 6th Floor, 841 Senapati Bapat Marg, Lower Parel (W), Mumbai - 400 013,  Maharashtra, India"
REC Limited,"Core 4, SCOPE Complex, 7, Lodhi Road, New Delhi-110003","REC World Headquarters, Plot no. I-4, Sector 29, Gurugram-122001","REC World Headquarters, Plot no. I-4, Sector 29, Gurugram-122001"
Redington Limited,"Block 3, Plathin,Redington Tower, Inner Ring Road, Saraswathy Nagar West, 4TH Street, Puzhuthivakkam,Chennai,Tamilnadu, India,600091","Block 3, Plathin,Redington Tower, Inner Ring Road, Saraswathy Nagar West, 4TH Street, Puzhuthivakkam,Chennai,Tamilnadu, India,600091","Block 3, Plathin,Redington Tower, Inner Ring Road, Saraswathy Nagar West, 4TH Street, Puzhuthivakkam,Chennai,Tamilnadu, India,600091"
Redtape Limited,"Plot No. 08, Sector -90, Gautam Buddha Nagar- 201301, Noida, Uttar Pradesh","Plot No. 08, Sector -90, Gautam Buddha Nagar- 201301, Noida, Uttar Pradesh","Plot No. 08, Sector -90, Gautam Buddha Nagar- 201301, Noida, Uttar Pradesh"
Relaxo Footwears Limited,"Aggarwal City Square, Plot No.-10, Manglam Place, District Centre, Sector-3, Rohini, Delhi- 110085","Aggarwal City Square, Plot No.-10, Manglam Place, District Centre, Sector-3, Rohini, Delhi- 110085","Aggarwal City Square, Plot No.-10, Manglam Place, District Centre, Sector-3, Rohini, Delhi- 110085"
Reliance Industries Limited,"3rd Floor, Maker Chambers IV, 222, Nariman Point, Mumbai - 400 021.","3rd Floor, Maker Chambers IV, 222, Nariman Point, Mumbai - 400 021.","3rd Floor, Maker Chambers IV, 222, Nariman Point, Mumbai - 400 021."
Reliance Infrastructure Limited,"Reliance Centre, Ground Floor, 19, Walchand Hirachand Marg, Ballard Estate, Mumbai 400001.","Reliance Centre, Ground Floor, 19, Walchand Hirachand Marg, Ballard Estate, Mumbai 400001.","Reliance Centre, Ground Floor, 19, Walchand Hirachand Marg, Ballard Estate, Mumbai 400001."
RELIANCE POWER LIMITED,"Reliance Centre, Ground Floor, 19, Walchand Hirachand Marg, Ballard Estate, Mumbai, 400001","Reliance Centre, Ground Floor, 19, Walchand Hirachand Marg, Ballard Estate, Mumbai, 400001","Reliance Centre, Ground Floor, 19, Walchand Hirachand Marg, Ballard Estate, Mumbai, 400001"
Responsive Industries Limited,"Betegaon, Mahagaon Road, Boisar East Taluka Palghar, Dist.","Betegaon, Mahagaon Road, Boisar East Taluka Palghar, Dist.","Betegaon, Mahagaon Road, Boisar East Taluka Palghar, Dist."
RHI Magnesita India Ltd,"Unit No. 705, 7th Floor, Lodha Supremus, Kanjurmarg Village Road, Kanjurmarg (East), Mumbai - 400042, Maharashtra, India","19th & 20th Floor, DLF Square, M-Block, Phase-II, Jacaranda Marg, DLF City, Sector-25, Gurugram - 122002, Haryana, India","19th & 20th Floor, DLF Square, M-Block, Phase-II, Jacaranda Marg, DLF City, Sector-25, Gurugram - 122002, Haryana, India"
RITES Limited,"SCOPE Minar, Laxmi Nagar, Delhi – 110092","Shikhar, Plot No. 01, Sector-29, Gurugram-122001, Haryana","Shikhar, Plot No. 01, Sector-29, Gurugram-122001, Haryana"
Route Mobile Limited,"SanRaj Corporate Park - 4th Dimension, 3rd Floor, Mind Space, Malad (West), Mumbai 400064,
Maharashtra, India","SanRaj Corporate Park - 4th Dimension, 3rd Floor, Mind Space, Malad (West), Mumbai 400064, Maharashtra, India","SanRaj Corporate Park - 4th Dimension, 3rd Floor, Mind Space, Malad (West), Mumbai 400064, Maharashtra, India"
R R Kabel Limited,"Ram Ratna House, Victoria Mill Compound, Pandurang Budhkar Marg, Worli, Mumbai 400 013, Maharashtra, India","Alembic Business Park (West), Ground Floor, Bhailal Amin Marg, Gorwa, Vadodara 390 003, Gujarat, India","Alembic Business Park (West), Ground Floor, Bhailal Amin Marg, Gorwa, Vadodara 390 003, Gujarat, India"
Safari Industries India Limited,"302-303, A wing, The Qube, CTS No. 1498, A/2, M.V. Road, Marol, Andheri (East), Mumbai, Maharashtra – 400059","302-303, A wing, The Qube, CTS No. 1498, A/2, M.V. Road, Marol, Andheri (East), Mumbai, Maharashtra – 400059","302-303, A wing, The Qube, CTS No. 1498, A/2, M.V. Road, Marol, Andheri (East), Mumbai, Maharashtra – 400059"
SAMVARDHANA MOTHERSON INTERNATIONAL LIMITED,"Unit 705, C Wing, ONE BKC, G Block, Bandra Kurla Complex, Bandra East, Mumbai City, Mumbai, Maharashtra, India, 400051","MOTHERSON CORPORATE TOWER, PLOT NO.1, SECTOR 127, NOIDA, Uttar Pradesh, India, 201301","MOTHERSON CORPORATE TOWER, PLOT NO.1, SECTOR 127, NOIDA, Uttar Pradesh, India, 201301"
Sandur Manganese  Iron Ores Limited,"‘SATYALAYA’, Door No. 266 (Old No. 80), Ward No. 1, Behind Taluka Office, Sandur - 583 119, Ballari District, Karnataka","Sandur House, No 9, Bellary Road, Sadashiva Nagar, Bengaluru - 560 080, Karnataka.","Sandur House, No 9, Bellary Road, Sadashiva Nagar, Bengaluru - 560 080, Karnataka."
Sanofi India Limited,"Sanofi House, CTS No. 117-B, L&T Business Park,Saki Vihar Road, Powai, Mumbai – 400072","Sanofi House, CTS No. 117-B, L&T Business Park,Saki Vihar Road, Powai, Mumbai – 400072","Sanofi House, CTS No. 117-B, L&T Business Park,Saki Vihar Road, Powai, Mumbai – 400072"
SAPPHIRE FOODS INDIA LIMITED,"702, Prism Tower, A Wing, Mindspace, Link Road, Goregaon (West), Mumbai, MH-400062, INDIA","702, Prism Tower, A Wing, Mindspace, Link Road, Goregaon (West), Mumbai, MH-400062, INDIA","702, Prism Tower, A Wing, Mindspace, Link Road, Goregaon (West), Mumbai, MH-400062, INDIA"
SARDA ENERGY  MINERALS LIMITED,"73/A, Central Avenue, Nagpur (MH) 440018","Sarda Energy & Minerals Limited
Industrial Growth Centre, 
Siltara, Raipur (Chhattisgarh) – 493111","Sarda Energy & Minerals Limited
Industrial Growth Centre, 
Siltara, Raipur (Chhattisgarh) – 493111"
SAREGAMA India Limited,"33, Jessore Road, Dum Dum, Kolkata - 700028, West Bengal, India","2nd Floor, Spencer Building, 30, Forjett Street, Grant Road (W), Mumbai – 400 036
Phone: (022) 6688 6200","2nd Floor, Spencer Building, 30, Forjett Street, Grant Road (W), Mumbai – 400 036
Phone: (022) 6688 6200"
SBFC Finance Limited,"Unit No 103 1st Floor C&B Square Sangam Complex Andheri Kurla Road Village Chakala
Andheri East Mumbai 400059","Unit No 103 1st Floor C&B Square Sangam Complex Andheri Kurla Road Village Chakala
Andheri East Mumbai 400059","Unit No 103 1st Floor C&B Square Sangam Complex Andheri Kurla Road Village Chakala
Andheri East Mumbai 400059"
SBI Cards and Payment Services Limited,"Unit 401 & 402, 4th Floor, Aggarwal Millennium Tower E-1,2,3, Netaji Subhash Place, Wazirpur, New Delhi 110 034, India","2nd Floor, Tower-B, Infinity Towers, DLF Cyber City, Block 2
Building 3, DLF Phase 2, Gurugram, Haryana 122 002, India","2nd Floor, Tower-B, Infinity Towers, DLF Cyber City, Block 2
Building 3, DLF Phase 2, Gurugram, Haryana 122 002, India"
SBI Life Insurance Company Limited,"Natraj, M. V. Road, Western Express Highway
Junction, Andheri (East), Mumbai – 400 069","Natraj, M. V. Road, Western Express Highway
Junction, Andheri (East), Mumbai – 400 069","Natraj, M. V. Road, Western Express Highway
Junction, Andheri (East), Mumbai – 400 069"
Schaeffler India Limited,"15th Floor, ASTP (Amar Sadanand Tech Park), Baner, 
Pune, Maharashtra, India, 411045","15th Floor, ASTP (Amar Sadanand Tech Park), Baner, 
Pune, Maharashtra, India, 411045","15th Floor, ASTP (Amar Sadanand Tech Park), Baner, 
Pune, Maharashtra, India, 411045"
Schneider Electric Infrastructure Limited,Milestone 87 Vadodara Halol Highway Village Kotambi Post Office Jarod Vadodara Gujarat 391 510,"9th Floor Tower C DLF Building No. 10 DLF Cyber City,Phase II Gurugram 122002 Haryana","9th Floor Tower C DLF Building No. 10 DLF Cyber City,Phase II Gurugram 122002 Haryana"
Sheela Foam Limited,"1002 To 1006 The Avenue, International Airport Road, Opp Hotel Leela
Sahar, Marol Naka, Mumbai, Maharashtra, India, 400059","14, Sector 135, Noida, U.P-201301","14, Sector 135, Noida, U.P-201301"
SHIPPING CORPORATION OF INDIA LIMITED,"SHIPPING HOUSE, 245 MADAME CAMA ROAD MUMBAI MAHARASHTRA – 400021",SAME AS ABOVE,SAME AS ABOVE
Shoppers Stop Limited,"Umang Tower, 5th Floor, Mindspace, Off. Link Road, Malad (West), Mumbai - 400 064.","Umang Tower, 5th Floor, Mindspace, Off. Link Road, 
Malad (West), Mumbai - 400 064.","Umang Tower, 5th Floor, Mindspace, Off. Link Road, 
Malad (West), Mumbai - 400 064."
Shree Renuka Sugars Limited,"2nd and 3rd Floor, Kanakashree Arcade, CTS No.10634, JNMC Road, Nehru Nagar, Belagavi –590010, Karnataka","7th  Floor, Devchand House, Shiv Sagar Estate, Dr. Annie Besant Road, Worli, Mumbai, Maharashtra –400 018","7th  Floor, Devchand House, Shiv Sagar Estate, Dr. Annie Besant Road, Worli, Mumbai, Maharashtra –400 018"
Shriram Finance Limited,"Sri Towers, Plot No. 14A, South Phase, Industrial Estate, Guindy, Chennai, Tamil Nadu- 600 032","Wockhardt Towers, Level-3, West Wing, C-2, G Block, Bandra-Kurla Complex, Bandra (East), 
Mumbai, Maharashtra - 400 051","Wockhardt Towers, Level-3, West Wing, C-2, G Block, Bandra-Kurla Complex, Bandra (East), 
Mumbai, Maharashtra - 400 051"
Shyam Metalics and Energy Limited,"“P-19, (Plate No.: D-403), Taratala Road, CPT Colony, Kolkata,
West Bengal 700088”","“P-19, (Plate No.: D-403), Taratala Road, CPT Colony, Kolkata,
West Bengal 700088”","“P-19, (Plate No.: D-403), Taratala Road, CPT Colony, Kolkata,
West Bengal 700088”"
Siemens Limited,"Birla Aurora, Level 21, Plot No.1080, Dr. Annie Besant Road, Worli, Mumbai - 400030","Birla Aurora, Level 21, Plot No.1080, Dr. Annie Besant Road, Worli, Mumbai - 400030","Birla Aurora, Level 21, Plot No.1080, Dr. Annie Besant Road, Worli, Mumbai - 400030"
Signatureglobal India Limited,"13th Floor, Dr. Gopal Das Bhawan, 28 Barakhamba Road, Connaught Place, Delhi - 110001","Unit No.101, Ground Floor, Tower-A, Signature Tower South City-1, Gurugram, Harayana-122001","Unit No.101, Ground Floor, Tower-A, Signature Tower South City-1, Gurugram, Harayana-122001"
SJVN Limited,"SJVN, Corporate Office Complex, Shanan Shimla - 171006, Himachal Pradesh","SJVN, Corporate Office Complex, Shanan Shimla - 171006, Himachal Pradesh","SJVN, Corporate Office Complex, Shanan Shimla - 171006, Himachal Pradesh"
SKF INDIA LIMITED,"Chinchwad, Pune 411 033, Maharashtra","Chinchwad, Pune 411 033, Maharashtra","Chinchwad, Pune 411 033, Maharashtra"
Sobha Limited,"Sobha, Sarjapur – Marathahalli Outer Ring  Road (ORR), Devarabisanahalli, Bellandur Post, Bangalore – 560 103","Sobha, Sarjapur – Marathahalli Outer Ring  Road (ORR), Devarabisanahalli, Bellandur Post, Bangalore – 560 103","Sobha, Sarjapur – Marathahalli Outer Ring  Road (ORR), Devarabisanahalli, Bellandur Post, Bangalore – 560 103"
Solar Industries India Limited,"“Solar” House,14, Kachimet, Amravati Road, Nagpur – 440023","“Solar” House,14, Kachimet, Amravati Road, Nagpur – 440023","“Solar” House,14, Kachimet, Amravati Road, Nagpur – 440023"
Sonata Software Limited,"Sonata Software Limited No. 208, T V Industrial Estate, 2nd Floor, S K Ahire Marg, Worli, Mumbai, Maharashtra 400 030, India","Sonata Towers, Global village, RVCE Post Mysore Road, RV Niketan, Bangalore, Bangalore South, Karnataka, India, 560059","Sonata Towers, Global village, RVCE Post Mysore Road, RV Niketan, Bangalore, Bangalore South, Karnataka, India, 560059"
Sona BLW Precision Forgings Limited,"Sona Enclave, Village Begumpur Khatola, Sector 35 Gurgaon,
Haryana 122004.","Sona Enclave, Village Begumpur Khatola, Sector 35 Gurgaon,
Haryana 122004","Sona Enclave, Village Begumpur Khatola, Sector 35 Gurgaon,
Haryana 122004"
SRF LIMITED,"The Galleria, DLF Mayur Vihar, Unit No. 236 & 237,
Second Floor, Mayur Place, Noida Link Road, Mayur Vihar
Phase I Extn, Delhi - 110 091","Block - C, Sector - 45, Gurugram, Haryana,
India - 122 003","Block - C, Sector - 45, Gurugram, Haryana,
India - 122 003"
Star Cement Limited,"Vill: Lumshnong, P.O. Khaliehriat, Dist. East Jaintia Hills, Meghalaya-793 210","Star Cement Limited, ‘Century House’, 2nd floor, P-15/1, Taratala Main Road, CPT Colony, Kolkata-700 088, West Bengal","Star Cement Limited, ‘Century House’, 2nd floor, P-15/1, Taratala Main Road, CPT Colony, Kolkata-700 088, West Bengal"
Star Health and Allied Insurance Company Limited,"No.1, New Tank Street, Valluvarkottam High Road, Nungambakkam Chennai TN 600034 India","Acropolis "", No. 148, Dr Radha Krishnan Salai, Chennai, Tamil Nadu 600004, India","Acropolis "", No. 148, Dr Radha Krishnan Salai, Chennai, Tamil Nadu 600004, India"
STATE BANK OF INDIA,"State Bank of India, State Bank Bhavan, Corporate
Centre, Madame Cama Road, Nariman Point,
Mumbai, Maharashtra - 400021, India","State Bank of India, State Bank Bhavan, Corporate
Centre, Madame Cama Road, Nariman Point,
Mumbai, Maharashtra - 400021, India","State Bank of India, State Bank Bhavan, Corporate
Centre, Madame Cama Road, Nariman Point,
Mumbai, Maharashtra - 400021, India"
Steel Authority of India Limited,"Ispat Bhawan, Lodhi Road, New Delhi – 110003","Ispat Bhawan, Lodhi Road, New Delhi – 110003","Ispat Bhawan, Lodhi Road, New Delhi – 110003"
Sterling and Wilson Renewable Energy Limited,"Universal Majestic, 9th Floor, P. L. Lokhande Marg, Chembur (W), Mumbai – 400 043","Universal Majestic, 13th Floor, P. L. Lokhande Marg, Chembur (W), Mumbai – 400
043","Universal Majestic, 13th Floor, P. L. Lokhande Marg, Chembur (W), Mumbai – 400
043"
SUMITOMO CHEMICAL INDIA LIMITED,"Bldg. No.1,GF,Shant Manor Co-op Housing Society Limited Chakravarti Ashok ‘X’ Road, Kandivli (E) Mumbai - 400101","13&14, Aradhana Industrial Development Corporation Near Virwani Industrial Estate, Goregaon (East), Mumbai 400063","13&14, Aradhana Industrial Development Corporation Near Virwani Industrial Estate, Goregaon (East), Mumbai 400063"
SUNDARAM FINANCE LIMITED,"21 PATULLOS ROAD, CHENNAI, Chennai, CHENNAI, Tamil Nadu, India, 600002","21 PATULLOS ROAD, CHENNAI, Chennai, CHENNAI, Tamil Nadu, India, 600002","21 PATULLOS ROAD, CHENNAI, Chennai, CHENNAI, Tamil Nadu, India, 600002"
Sundram Fasteners Limited,"No.98-A,VII Floor, Dr.Radhakrishnan Salai, Mylapore,Chennai 600 004","No.98-A,VII Floor, Dr.Radhakrishnan Salai, Mylapore,Chennai 600 004","No.98-A,VII Floor, Dr.Radhakrishnan Salai, Mylapore,Chennai 600 004"
Sun Pharmaceutical Industries Limited,"SPARC, Tandalja, Vadodara - 390012, Gujarat","Sun House, CTS No. 201 B/1, Western Express Highway, Goregaon (E), Mumbai 400063, Maharashtra, India","Sun House, CTS No. 201 B/1, Western Express Highway, Goregaon (E), Mumbai 400063, Maharashtra, India"
Sun Pharma Advanced Research Company Limited,"Plot No. 5&6/1, Savli G.I.D.C. Estate, Savli – Vadodara Highway, Manjusar - 391775, Vadodara, Gujarat, India","17/B, Mahal Industrial Estate, Off Mahakali Caves Road, Andheri (East), Mumbai - 400 093, Maharashtra","17/B, Mahal Industrial Estate, Off Mahakali Caves Road, Andheri (East), Mumbai - 400 093, Maharashtra"
Sun TV Network Limited,"Murasoli Maran Towers, 73, MRC Nagar Main Road, MRC Nagar, Chennai, Tamil Nadu 600028 India","Murasoli Maran Towers, 73, MRC Nagar Main Road, MRC Nagar, Chennai, Tamil Nadu 600028 India","Murasoli Maran Towers, 73, MRC Nagar Main Road, MRC Nagar, Chennai, Tamil Nadu 600028 India"
Supreme Industries Limited,"612, Raheja Chambers, Nariman Point, Mumbai-400021
Tele: 022-62570000, 62570025
Email: investor@supreme.co.in","1161 & 1162 Solitaire Corporate Park,
167, Guru Hargovindji Marg, Andheri Ghatkopar Link Road, Andheri (E), Mumbai 400093
Tele: 022-4043 0000 Fax: 022-4043 0099
Website: http://www.supreme.co.in
Email: supreme@supreme.co.in","1161 & 1162 Solitaire Corporate Park,
167, Guru Hargovindji Marg, Andheri Ghatkopar Link Road, Andheri (E), Mumbai 400093
Tele: 022-4043 0000 Fax: 022-4043 0099
Website: http://www.supreme.co.in
Email: supreme@supreme.co.in"
SUPREME PETROCHEM LIMITED,"BUILDING NO. 11, 5TH FLOOR, 167, GURU HARGOVINJI MARG, CHAKALA, ANDHERI EAST, MUMBAI 400093","BUILDING NO. 11, 5TH FLOOR, 167, GURU HARGOVINJI MARG, CHAKALA, ANDHERI EAST, MUMBAI 400093","BUILDING NO. 11, 5TH FLOOR, 167, GURU HARGOVINJI MARG, CHAKALA, ANDHERI EAST, MUMBAI 400093"
SUZLON ENERGY LIMITED,"“Suzlon”, 5, Shrimali Society, Near Shri Krishna Complex, Navrangpura, Ahmedabad-380009","Suzlon Energy Ltd, One Earth, Hadapsar, Pune - 411028, Maharashtra, India","Suzlon Energy Ltd, One Earth, Hadapsar, Pune - 411028, Maharashtra, India"
Syngene International Limited,"Syngene International Limited 
Biocon SEZ, Biocon Park, Plot No. 2 & 3, 
Bommasandra Industrial Area IV Phase, 
Jigani Link Rd, Bommasandra Bengaluru- 560099, Karnataka, India","Syngene International Limited
‘The Hub', Tower 8A, 360 Degree Business Park, 
Doddathoguru, Electronic City, Phase 1, 
Bengaluru, Karnataka 560100","Syngene International Limited
‘The Hub', Tower 8A, 360 Degree Business Park, 
Doddathoguru, Electronic City, Phase 1, 
Bengaluru, Karnataka 560100"
Syrma SGS Technology Limited,"Unit No. 601, 6th Floor, Floral Deck Plaza, MIDC Andheri (East), Mumbai, Maharashtra, India - 400093","Plot No B 27, Phase II, Zone B, MEPZ-SEZ, Tambaram, Chennai, Tamil Nadu, India - 600045","Plot No B 27, Phase II, Zone B, MEPZ-SEZ, Tambaram, Chennai, Tamil Nadu, India - 600045"
Tamilnad Mercantile Bank Limited,"57 V.E. Road, Tuticorin- 628002","57 V.E. Road, Tuticorin- 628002","57 V.E. Road, Tuticorin- 628002"
Tanla Platforms Limited,"Tanla Technology Centre, Hitech City Road, Madhapur, Hyderabad, Telangana, India, 500081","Tanla Technology Centre, Hitech City Road, Madhapur, Hyderabad, Telangana, India, 500081","Tanla Technology Centre, Hitech City Road, Madhapur, Hyderabad, Telangana, India, 500081"
TATA CHEMICALS LIMITED,"BOMBAY HOUSE 24 HOMI MODI ST FORT, MUMBAI, Maharashtra, India, 400001","BOMBAY HOUSE 24 HOMI MODI ST FORT, MUMBAI, Maharashtra, India, 400001","BOMBAY HOUSE 24 HOMI MODI ST FORT, MUMBAI, Maharashtra, India, 400001"
TATA COMMUNICATIONS LIMITED,"VSB, Mahatma Gandhi Road, Fort, Mumbai - 400001","Tata Communications Limited, Tower C, Plot No. C-21 & C-36, G Block, Bandra Kurla Complex, Mumbai – 400 098","Tata Communications Limited, Tower C, Plot No. C-21 & C-36, G Block, Bandra Kurla Complex, Mumbai – 400 098"
Tata Consultancy Services Limited,"9th Floor, Nirmal Building, Nariman Point, Mumbai 400 021, Maharashtra, India","TCS House, Raveline Street, Fort, Mumbai 400 001, Maharashtra, India","TCS House, Raveline Street, Fort, Mumbai 400 001, Maharashtra, India"
Tata Consumer Products Limited,"1, Bishop Lefroy Road, Kolkata - 700020","11/13, Botawala Building,1st Floor, Office # 2-6 
Horniman Circle, Fort, Mumbai- 400 001","11/13, Botawala Building,1st Floor, Office # 2-6 
Horniman Circle, Fort, Mumbai- 400 001"
Tata Elxsi Limited,"ITPB Road, Whitefield, Bengaluru – 560 048, India","ITPB Road, Whitefield, Bengaluru – 560 048, India","ITPB Road, Whitefield, Bengaluru – 560 048, India"
Tata Investment Corporation Limited,"Elphinstone Building, 10 Veer Nariman Road, Mumbai - 400001","Elphinstone Building, 10 Veer Nariman Road, Mumbai - 400001","Elphinstone Building, 10 Veer Nariman Road, Mumbai - 400001"
Tata Motors Limited,"Bombay House, 24, Homi Mody Street, Mumbai 400001, Maharashtra, India.","Bombay House, 24, Homi Mody Street, Mumbai 400001, Maharashtra, India.","Bombay House, 24, Homi Mody Street, Mumbai 400001, Maharashtra, India."
Tata Steel Limited,"Bombay House, 24, Homi Mody Street, Fort, Mumbai – 400001","Bombay House, 24, Homi Mody Street, Fort, Mumbai – 400001","Bombay House, 24, Homi Mody Street, Fort, Mumbai – 400001"
Tata Technologies Limited,"Plot No 25, Rajiv Gandhi Infotech Park, Hinjawadi, Pune, 411057","Plot No 25, Rajiv Gandhi Infotech Park, Hinjawadi, Pune, 411057","Plot No 25, Rajiv Gandhi Infotech Park, Hinjawadi, Pune, 411057"
Tata Teleservices Maharashtra Limited,"D-26, TTC Industrial Area, MIDC Sanpada P.O., Turbhe, Navi 
Mumbai - 400 703",Same as above,Same as above
TBO Tek Limited,"E-78 South Extension Part- I, New Delhi-110049","Plot No. 728, Udyog Vihar Phase- V Gurgaon - 122016","Plot No. 728, Udyog Vihar Phase- V Gurgaon - 122016"
Techno Electric  Engineering Company Limited,"C-218, Ground Floor (GR-2), Sector 63, Noida – Gautam Buddha Nagar, 201307, Uttar Pradesh","1B, Park Plaza, South Block, 71, Park Street, Kolkata - 700016","1B, Park Plaza, South Block, 71, Park Street, Kolkata - 700016"
Tech Mahindra Limited,"Gateway Building, Apollo Bunder, Mumbai – 400 001. Tel: +91 22-6897 5500","Plot No 01, Rajiv Gandhi Infotech Park, Phase III, Hinjewadi, MIDC, SEZ, Pune Maharashtra, 411057, Tel: +91 20-4225 0000","Plot No 01, Rajiv Gandhi Infotech Park, Phase III, Hinjewadi, MIDC, SEZ, Pune Maharashtra, 411057, Tel: +91 20-4225 0000"
TEGA INDUSTRIES LIMITED,"Godrej Waterside, Tower-II, Office No.807, 8th Floor, Block DP - 5, Salt Lake Sector V,  Bidhannagar, Kolkata - 700091, West Bengal, India","Godrej Waterside, Tower-II, Office No.807, 8th Floor, Block DP - 5, Salt Lake Sector V,  Bidhannagar, Kolkata - 700091, West Bengal, India","Godrej Waterside, Tower-II, Office No.807, 8th Floor, Block DP - 5, Salt Lake Sector V,  Bidhannagar, Kolkata - 700091, West Bengal, India"
Tejas Networks Limited,"J P Software Park, Plot No 25, Sy. No 13, 14, 17, 18 Konnapana Agrahara Village, Begur Hobli, Bengaluru - 560100, Karnataka.","J P Software Park, Plot No 25, Sy. No 13, 14, 17, 18 Konnapana Agrahara Village, Begur Hobli, Bengaluru - 560100, Karnataka.","J P Software Park, Plot No 25, Sy. No 13, 14, 17, 18 Konnapana Agrahara Village, Begur Hobli, Bengaluru - 560100, Karnataka."
Thermax Limited,"D-13, MIDC, Industrial Area, R. D. Aga Road, Chinchwad, Pune 411019","Thermax House 14, Mumbai-Pune Road, Wakdewadi, Pune 411003, Maharashtra, India","Thermax House 14, Mumbai-Pune Road, Wakdewadi, Pune 411003, Maharashtra, India"
THE NEW INDIA ASSURANCE COMPANY LIMITED,"NEW INDIA ASSURANCE BLDG87 M G ROAD FORT, MUMBAI, Maharashtra, India, 400001","NEW INDIA ASSURANCE BLDG87 M G ROAD FORT, MUMBAI, Maharashtra, India, 400001","NEW INDIA ASSURANCE BLDG87 M G ROAD FORT, MUMBAI, Maharashtra, India, 400001"
THE PHOENIX MILLS LIMITED,"462 Senapati Bapat Marg, Lower Parel, Mumbai - 400013,
Maharashtra","Shree Laxmi Woolen Mills Estate, 2nd floor, R.R. Hosiery, Off Dr. E Moses Road, Mahalaxmi, Mumbai- 400011, Maharashtra
Off Dr. E Moses Road, Mahalaxmi, Mumbai - 400011,
Maharashtra","Shree Laxmi Woolen Mills Estate, 2nd floor, R.R. Hosiery, Off Dr. E Moses Road, Mahalaxmi, Mumbai- 400011, Maharashtra
Off Dr. E Moses Road, Mahalaxmi, Mumbai - 400011,
Maharashtra"
The Ramco Cements Limited,"“Ramamandiram”, Rajapalayam – 626 117","“Auras Corporate Centre”, 5th floor, No:98-A, Dr. Radhakrishnan Road, Mylapore, Chennai - 600 004","“Auras Corporate Centre”, 5th floor, No:98-A, Dr. Radhakrishnan Road, Mylapore, Chennai - 600 004"
Thomas Cook  India  Limited,"11th Floor, Marathon FutureX, N.M. Joshi Marg, Lower Parel, Mumbai 400 013","11th Floor, Marathon FutureX, N.M. Joshi Marg, Lower Parel, Mumbai 400 013","11th Floor, Marathon FutureX, N.M. Joshi Marg, Lower Parel, Mumbai 400 013"
Timken India Limited,"39-42 Electronic City, Phse II Hosur Road, Bangalore, Karnataka, India, 560100","39-42 Electronic City, Phse II Hosur Road, Bangalore, Karnataka, India, 560100","39-42 Electronic City, Phse II Hosur Road, Bangalore, Karnataka, India, 560100"
TITAGARH RAIL SYSTEMS LIMITED,"Poddar Point, 10th floor, 113 Park Street, Kolkata 700016","Titagarh Towers, 756 Anandpur, E.M Bypass, Kolkata 700107","Titagarh Towers, 756 Anandpur, E.M Bypass, Kolkata 700107"
Titan Company Limited,"No. 3, SIPCOT Industrial Complex, Hosur, Tamil Nadu - 635126","`INTEGRITY' #193, Veerasandra, Electronics City P.O., Off Hosur Main Road, Bengaluru-560100 Karnataka, India","`INTEGRITY' #193, Veerasandra, Electronics City P.O., Off Hosur Main Road, Bengaluru-560100 Karnataka, India"
Torrent Pharmaceuticals Limited,"Torrent House, Off Ashram Road, Ahmedabad – 380 009","Torrent House, Off Ashram Road, Ahmedabad – 380 009","Torrent House, Off Ashram Road, Ahmedabad – 380 009"
Torrent Power Limited,"“Samanvay’’, 600, Tapovan, Ambawadi, Ahmedabad, Gujarat,
India, 380015","“Samanvay’’, 600, Tapovan, Ambawadi, Ahmedabad, Gujarat,
India, 380015","“Samanvay’’, 600, Tapovan, Ambawadi, Ahmedabad, Gujarat,
India, 380015"
TRIDENT LIMITED,"Trident Group, Sanghera, Barnala, Punjab, India, 148101",Not Applicable,Not Applicable
Triveni Engineering  Industries Limited,"A-44, Hosiery Complex, Phase-II Extension, Noida-201 305, Uttar Pradesh","‘Express Trade Towers’, 8th Floor 15-16, Sector-16A, Noida 201 301 (U.P.)","‘Express Trade Towers’, 8th Floor 15-16, Sector-16A, Noida 201 301 (U.P.)"
Triveni Turbine Limited,"A-44, HOSIERY COMPLEX PHASE-II EXTENSION, NOIDA, Uttar Pradesh, India, 201305","8th Floor, Express Trade Towers, Plot No.15-16, Sector 16A, Noida- 201 301, Uttar Pradesh","8th Floor, Express Trade Towers, Plot No.15-16, Sector 16A, Noida- 201 301, Uttar Pradesh"
TTK PRESTIGE LIMITED,"Plot No. 38, SIPCOT Industrial Complex, HOSUR – 635 126, Tamil Nadu","Nagarjuna Castle No. 1/1 & 1/2, Wood Street, Richmond Town, Bengaluru, KA 560 025 IN","Nagarjuna Castle No. 1/1 & 1/2, Wood Street, Richmond Town, Bengaluru, KA 560 025 IN"
Tube Investments of India Limited,"Chola Crest 4th Floor, No C54-55 & Super B-4, Thiru Vi Ka Industrial Estate, Guindy, Chennai 600 032","Chola Crest 4th Floor, No C54-55 & Super B-4, Thiru Vi Ka Industrial Estate, Guindy, Chennai 600 032","Chola Crest 4th Floor, No C54-55 & Super B-4, Thiru Vi Ka Industrial Estate, Guindy, Chennai 600 032"
TVS Holdings Limited,"""Chaitanya"", No.12, Khader Nawaz Khan Road, Nungambakkam, Chennai - 600 006","""Chaitanya"", No.12, Khader Nawaz Khan Road, Nungambakkam, Chennai - 600 006","""Chaitanya"", No.12, Khader Nawaz Khan Road, Nungambakkam, Chennai - 600 006"
TVS Motor Company Limited,"""Chaitanya"", No.12, Khader Nawaz Khan Road, Nungambakkam, Chennai - 600 006","""Chaitanya"", No.12, Khader Nawaz Khan Road, Nungambakkam, Chennai - 600 006","""Chaitanya"", No.12, Khader Nawaz Khan Road, Nungambakkam, Chennai - 600 006"
TVS Supply Chain Solutions Limited,"No. 10, Jawahar Road, Chokkikulam, Madurai –625 002, Tamil Nadu, India","Tamarai Tech Park South Block 3rd FLR, 16 SP Developed Plot, Jawaharlal Nehru Road, Guindy Industrial Estate, Chennai - 600032, Tamil Nadu, India","Tamarai Tech Park South Block 3rd FLR, 16 SP Developed Plot, Jawaharlal Nehru Road, Guindy Industrial Estate, Chennai - 600032, Tamil Nadu, India"
UCO BANK,10 BTM SARANI KOLKATA 700001,2 INDIA EXCHANGE PLACE 3RD FLOOR KOLKATA 700001,2 INDIA EXCHANGE PLACE 3RD FLOOR KOLKATA 700001
Ujjivan Small Finance Bank Limited,"Grape Garden, No. 27, 3rd “A” Cross, 18th Main, 6th Block, 
Koramangala, Bengaluru-560095, Karnataka","Grape Garden, No. 27, 3rd “A” Cross, 18th Main, 6th Block, 
Koramangala, Bengaluru-560095, Karnataka","Grape Garden, No. 27, 3rd “A” Cross, 18th Main, 6th Block, 
Koramangala, Bengaluru-560095, Karnataka"
UltraTech Cement Limited,"B Wing, Ahura Centre, 2nd Floor, Mahakali Caves Road, Andheri (East), Mumbai 400 093","B Wing, Ahura Centre, 2nd Floor, Mahakali Caves Road, Andheri (East), Mumbai 400 093","B Wing, Ahura Centre, 2nd Floor, Mahakali Caves Road, Andheri (East), Mumbai 400 093"
UNION BANK OF INDIA,"239, Vidhan Bhavan Marg, Nariman Point, Mumbai – 400 021","239, Vidhan Bhavan Marg, Nariman Point, Mumbai – 400 021","239, Vidhan Bhavan Marg, Nariman Point, Mumbai – 400 021"
UNITED BREWERIES LIMITED,"UB Tower, UB City, # 24 Vittal Mallya Road, Bengaluru - 560 001, Karnataka, INDIA","UB Tower, UB City, # 24 Vittal Mallya Road, Bengaluru - 560 001, Karnataka, INDIA","UB Tower, UB City, # 24 Vittal Mallya Road, Bengaluru - 560 001, Karnataka, INDIA"
United Spirits Limited,"UB Tower,#24, Vittal Mallya Road,Bengaluru-560001","UB Tower,#24, Vittal Mallya Road,Bengaluru-560001","UB Tower,#24, Vittal Mallya Road,Bengaluru-560001"
Uno Minda Limited,"B-64/1, Wazirpur Industrial Area, Delhi - 110052","Village Nawada Fatehpur, P.O. Sikanderpur Badda, Manesar, District. Gurugram-122004, Haryana","Village Nawada Fatehpur, P.O. Sikanderpur Badda, Manesar, District. Gurugram-122004, Haryana"
UPL LIMITED,"3-11, G.I.D.C., Vapi, Valsad-396195, Gujarat","UPL Limited, Uniphos House, C.D. Marg, 11th Road, Madhu Park, Khar (West), Mumbai – 400052, India","UPL Limited, Uniphos House, C.D. Marg, 11th Road, Madhu Park, Khar (West), Mumbai – 400052, India"
Usha Martin Limited,"2A Shakespeare Sarani, Kolkata – 700071","Usha Martin Limited, 2A Shakespeare Sarani, Kolkata – 700071","Usha Martin Limited, 2A Shakespeare Sarani, Kolkata – 700071"
UTI Asset Management Company Limited,UTI Tower ‘Gn’ Block Bandra-Kurla Complex Bandra East Mumbai – 400051,UTI Tower ‘Gn’ Block Bandra-Kurla Complex Bandra East Mumbai – 400051,UTI Tower ‘Gn’ Block Bandra-Kurla Complex Bandra East Mumbai – 400051
V-GUARD INDUSTRIES LIMITED,"42/962, Vennala High School Road, Vennala, Ernakulam, Kerala-682028","42/962, Vennala High School Road, Vennala, Ernakulam, Kerala-682028","42/962, Vennala High School Road, Vennala, Ernakulam, Kerala-682028"
VALOR ESTATE LIMITED,"7TH FLOOR, RESHAM BHAVAN, VEER NARIMAN ROAD, CHURCHGATE, MUMBAI - 400020",SAME AS ABOVE,SAME AS ABOVE
Varroc Engineering Limited,"Plot No. L-4, MIDC, Waluj, Aurangabad (M.S.) - 431136","Plot No. L-4, MIDC, Waluj, Aurangabad (M.S.) - 431136","Plot No. L-4, MIDC, Waluj, Aurangabad (M.S.) - 431136"
Varun Beverages Limited,"F- 2/7, Okhla Industrial Area, Phase- I New Delhi - 110 020","Plot No. 31, Sector 44, Institutional Area, Gurugram - 122 002, Haryana","Plot No. 31, Sector 44, Institutional Area, Gurugram - 122 002, Haryana"
Vedanta Limited,"1st Floor, ‘C’ Wing, Unit 103, Corporate Avenue, Atul Projects, Chakala, Andheri (East), Mumbai, Maharashtra – 400 093, India","Core-6, 3rd Floor, Scope Complex 7, Lodhi Road, New Delhi - 110 003","Core-6, 3rd Floor, Scope Complex 7, Lodhi Road, New Delhi - 110 003"
Vedant Fashions Limited,"A501-A502, SDF-1, 4th Floor, Paridhan Garment Park, 19 Canal South Road, Kolkata, 700015, West Bengal","A501-A502, SDF-1, 4th Floor, Paridhan Garment Park, 19 Canal South Road, Kolkata, 700015, West Bengal","A501-A502, SDF-1, 4th Floor, Paridhan Garment Park, 19 Canal South Road, Kolkata, 700015, West Bengal"
Vesuvius India Limited,"P-104,Taratala Road, Kolkata 700088, India","P-104,Taratala Road, Kolkata 700088, India","P-104,Taratala Road, Kolkata 700088, India"
Vinati Organics Limited,"B-12 & B-13/1, MIDC Industrial Area, Raigad, Mahad, Maharashtra, 402 309","Parinee Crescenzo, 1102, 11th Floor, Plot No. C38 & C39, G Block, Behind MCA, Bandra-Kurla Complex, Bandra(E), Mumbai -400 051","Parinee Crescenzo, 1102, 11th Floor, Plot No. C38 & C39, G Block, Behind MCA, Bandra-Kurla Complex, Bandra(E), Mumbai -400 051"
VIP INDUSTRIES LIMITED,"DGP House, 5th Floor, 88-C, Old Prabhadevi Road,
Mumbai - 400025","DGP House, 5th Floor, 88-C, Old Prabhadevi Road,
Mumbai - 400025","DGP House, 5th Floor, 88-C, Old Prabhadevi Road,
Mumbai - 400025"
Vodafone Idea Limited,"Suman Tower, Plot No. 18, Sector 11, Gandhinagar - 382 011, Gujarat","Birla Centurion, 10th Floor, Century Mills Compound, Pandurang Budhkar Marg, Worli, Mumbai - 400030 (Maharashtra)","Birla Centurion, 10th Floor, Century Mills Compound, Pandurang Budhkar Marg, Worli, Mumbai - 400030 (Maharashtra)"
Voltamp Transformers Limited,"Makarpura, Vadodara – 390014","Makarpura, Vadodara – 390014","Makarpura, Vadodara – 390014"
Voltas Limited,"Voltas House ‘A’, Dr. Babasaheb Ambedkar Road, Chinchpokli, Mumbai 400 033","Voltas House ‘A’, Dr. Babasaheb Ambedkar Road, Chinchpokli, Mumbai 400 033","Voltas House ‘A’, Dr. Babasaheb Ambedkar Road, Chinchpokli, Mumbai 400 033"
Waaree Renewable Technologies Limited,"504, Western Edge - I, Off. Western Express Highway, Borivali (E), Mumbai, Maharashtra, 400066","504, Western Edge - I, Off. Western Express Highway, Borivali (E), Mumbai, Maharashtra, 400066","504, Western Edge - I, Off. Western Express Highway, Borivali (E), Mumbai, Maharashtra, 400066"
Welspun Corp Limited,"Welspun City, Village Versamedi, Taluka Anjar, Dist. Kutch, Gujarat- 370110","Welspun House, 5th Floor, Kamala Mills Compound, Senapati Bapat Marg, Lower Parel, Mumbai- 400 013
Marg, Lower Parel, Mumbai - 400 013","Welspun House, 5th Floor, Kamala Mills Compound, Senapati Bapat Marg, Lower Parel, Mumbai- 400 013
Marg, Lower Parel, Mumbai - 400 013"
Welspun Living Limited,"Welspun City, Village Versamedi, Taluka Anjar, District Kutch, Gujarat -370110, India","Welspun House, 6th Floor, Kamala Mills Compound, Senapati Bapat Marg, Lower Parel (W), Mumbai 400013, India","Welspun House, 6th Floor, Kamala Mills Compound, Senapati Bapat Marg, Lower Parel (W), Mumbai 400013, India"
Westlife Foodworld Limited,"Tower 3, 10th Floor, 1001, One International Center, Senapati Bapat Marg, Prabhadevi, Mumbai 400013","Tower 3, 10th Floor, 1001, One International Center, Senapati Bapat Marg, Prabhadevi, Mumbai 400013","Tower 3, 10th Floor, 1001, One International Center, Senapati Bapat Marg, Prabhadevi, Mumbai 400013"
Whirlpool of India Limited,"A-4, MIDC, Ranjangaon, Taluka - Shirur, Pune, Maharashtra - 412220","Plot No. 40, Sector 44, Gurugram, Haryana - 122002","Plot No. 40, Sector 44, Gurugram, Haryana - 122002"
Wipro Limited,"Doddakannelli, Sarjapur Road, Bengaluru-560035, Karnataka, India","Doddakannelli, Sarjapur Road, Bengaluru-560035, Karnataka, India","Doddakannelli, Sarjapur Road, Bengaluru-560035, Karnataka, India"
Wockhardt Limited,"D-4, M.I.D.C. Chikalthana, Chhatrapati Sambhajinagar,Maharashtra, India, 431006","Wockhardt Towers, Bandra Kurla Complex, Bandra (East),Mumbai, Maharashtra, 400 051","Wockhardt Towers, Bandra Kurla Complex, Bandra (East),Mumbai, Maharashtra, 400 051"
YES Bank Limited,"YES BANK House, Off Western Express Highway, Santacruz East, Mumbai 400055, Maharashtra, India","YES BANK House, Off Western Express Highway, Santacruz East, Mumbai 400055, Maharashtra, India","YES BANK House, Off Western Express Highway, Santacruz East, Mumbai 400055, Maharashtra, India"
Zee Entertainment Enterprises Limited,"18th floor, A-wing, Marathon Futurex, N M Joshi Marg, Lower Parel,
Mumbai - 400013.","18th floor, A-wing, Marathon Futurex, N M Joshi Marg, Lower Parel,
Mumbai - 400013.","18th floor, A-wing, Marathon Futurex, N M Joshi Marg, Lower Parel,
Mumbai - 400013."
ZENSAR TECHNOLOGIES LIMITED,"Zensar Knowledge Park, Kharadi, Plot No. 4, MIDC, Off Nagar Road, Pune, 411014, Maharashtra, India","Zensar Knowledge Park, Kharadi, Plot No. 4, MIDC, Off Nagar Road, Pune, 411014, Maharashtra, India","Zensar Knowledge Park, Kharadi, Plot No. 4, MIDC, Off Nagar Road, Pune, 411014, Maharashtra, India"
Zen Technologies Limited,"B-42 Industrial Estate, Sanathnagar, Hyderabad - 500018, Telangana, India","B-42 Industrial Estate, Sanathnagar, Hyderabad - 500018, Telangana, India","B-42 Industrial Estate, Sanathnagar, Hyderabad - 500018, Telangana, India"
ZF Commercial Vehicle Control Systems India Limited,"Plot No.3, (SP) III Main Road, Ambattur Industrial Estate, Chennai - 600 058.","Plot No.3, (SP) III Main Road, Ambattur Industrial Estate, Chennai - 600 058.","Plot No.3, (SP) III Main Road, Ambattur Industrial Estate, Chennai - 600 058."
Zydus Lifesciences Limited,"“Zydus Corporate Park”, Scheme No. 63, Survey No. 536, 
Near Vaishnodevi Circle, Khoraj (Gandhinagar),
 Sarkhej-Gandhinagar Highway, Ahmedabad-382481","“Zydus Corporate Park”, Scheme No. 63, Survey No. 536, 
Near Vaishnodevi Circle, Khoraj (Gandhinagar),
 Sarkhej-Gandhinagar Highway, Ahmedabad-382481","“Zydus Corporate Park”, Scheme No. 63, Survey No. 536, 
Near Vaishnodevi Circle, Khoraj (Gandhinagar),
 Sarkhej-Gandhinagar Highway, Ahmedabad-382481"
Zydus Wellness Limited,"Zydus Corporate Park, Scheme No. 63, Survey No. 536, Khoraj (Gandhinagar), Nr. Vaishnodevi Circle, Sarkhej–Gandhinagar Highway, Ahmedabad – 382481","Zydus Corporate Park, Scheme No. 63, Survey No. 536, Khoraj (Gandhinagar), Nr. Vaishnodevi Circle, Sarkhej–Gandhinagar Highway, Ahmedabad – 382481","Zydus Corporate Park, Scheme No. 63, Survey No. 536, Khoraj (Gandhinagar), Nr. Vaishnodevi Circle, Sarkhej–Gandhinagar Highway, Ahmedabad – 382481"
