Company_Name,Facility_ID,Facility_Type,Latitude,Longitude,City,State,Facility_Name
Aarti Industries Limited,4,Facility,22.2973142,73.1942567,Vadodara,Gujarat,Facility
ADANI POWER LIMITED,3,Facility,22.8393153,69.7249477,Mundra,,Facility
Aditya Birla Fashion and Retail Limited,3,Plant,28.4646148,77.0299194,Gurugram,Haryana,Plant
AIA ENGINEERING LIMITED,3,Facility,22.8278859,72.3684741,Bavla,,Facility
ALKYL AMINES CHEMICALS LIMITED,3,Facility,22.3850051,71.745261,,Gujarat,Facility
ALKYL AMINES CHEMICALS LIMITED,4,Facility,18.8388649,73.3169822,Patalganga,,Facility
ARVIND LIMITED,1,Registered Office,23.0215374,72.5800568,Ahmedabad,Gujarat,Registered Office
Ashok Leyland Limited,3,Facility,30.0417376,79.089691,,Uttarakhand,Facility
Astral Limited,3,Facility,17.360589,78.4740613,Hyderabad,Telangana,Facility
Atul Limited,2,Corporate Office,22.3850051,71.745261,,Gujarat,Corporate Office
AUROBINDO PHARMA LIMITED,3,Plant,26.8105777,73.7684549,,Rajasthan,Plant
Avenue Supermarts Limited,3,Facility,21.1498134,79.0820556,Nagpur,,Facility
BAJAJ ELECTRICALS LIMITED,3,Facility,20.0112475,73.7902364,Nashik,Maharashtra,Facility
BAJAJ ELECTRICALS LIMITED,4,Facility,20.0112475,73.7902364,Nashik,Maharashtra,Facility
Bajaj Finance Limited,1,Registered Office,18.5213738,73.8545071,Pune,Maharashtra,Registered Office
Birlasoft Limited,3,Facility,18.5213738,73.8545071,Pune,Maharashtra,Facility
Birla Corporation Limited,3,Plant,26.8105777,73.7684549,,Rajasthan,Plant
Britannia Industries Limited,3,Plant,25.6440845,85.906508,,Bihar,Plant
Century Plyboards India Limited,4,Facility,22.5726459,88.3638953,Kolkata,West Bengal,Facility
CHENNAI PETROLEUM CORPORATION LIMITED,2,Plant,13.0836939,80.270186,Chennai,Tamil Nadu,Plant
COAL INDIA LIMITED,2,Facility,22.3850051,71.745261,,Gujarat,Facility
Dalmia Bharat Limited,3,Plant,15.9240905,80.1863809,,Andhra Pradesh,Plant
Dalmia Bharat Limited,4,Plant,14.9562045,75.7896741,,Karnataka,Plant
DCM Shriram Limited,2,Facility,25.1737019,75.8574194,Kota,,Facility
Dr Reddys Laboratories Limited,2,Plant,17.360589,78.4740613,Hyderabad,Telangana,Plant
GAIL India Limited,2,Plant,22.4732415,70.0552102,Jamnagar,,Plant
GAIL India Limited,3,Facility,9.9679032,76.2444378,Kochi,,Facility
Garden Reach Shipbuilders  Engineers Limited,2,Plant,22.5726459,88.3638953,Kolkata,West Bengal,Plant
GlaxoSmithKline Pharmaceuticals Limited,2,Plant,20.0112475,73.7902364,Nashik,Maharashtra,Plant
HERO MOTOCORP LIMITED,2,Plant,26.8105777,73.7684549,,Rajasthan,Plant
HFCL Limited,4,Facility,28.6138954,77.2090057,Delhi,Delhi,Facility
Hindustan Petroleum Corporation Limited,4,Facility,19.054999,72.8692035,Mumbai,Maharashtra,Facility
Indian Oil Corporation Limited,3,Plant,22.3850051,71.745261,,Gujarat,Plant
Indian Oil Corporation Limited,4,Plant,29.3912753,76.9771675,Panipat,Haryana,Plant
Indian Oil Corporation Limited,8,Facility,29.3912753,76.9771675,Panipat,Haryana,Facility
IndusInd Bank Limited,3,Facility,19.054999,72.8692035,Mumbai,Maharashtra,Facility
JAIPRAKASH POWER VENTURES LIMITED,3,Facility,30.0417376,79.089691,,Uttarakhand,Facility
Jindal Stainless Limited,3,Plant,29.0,76.0,,Haryana,Plant
KARUR VYSYA BANK LIMITED,3,Facility,13.0836939,80.270186,Chennai,Tamil Nadu,Facility
Larsen  Toubro Limited,3,Facility,17.360589,78.4740613,Hyderabad,Telangana,Facility
LAURUS LABS LIMITED,3,Plant,17.360589,78.4740613,Hyderabad,Telangana,Plant
Mahanagar Gas Limited,2,Facility,12.9767936,77.590082,Bangalore,Karnataka,Facility
Maruti Suzuki India Limited,4,Facility,29.0,76.0,,Haryana,Facility
Minda Corporation Limited,3,Plant,28.5706333,77.3272147,Noida,Uttar Pradesh,Plant
Minda Corporation Limited,4,Plant,28.5706333,77.3272147,Noida,Uttar Pradesh,Plant
NCC LIMITED,2,Facility,16.5427689,81.527344,Bhimavaram,,Facility
NMDC Limited,2,Plant,17.360589,78.4740613,Hyderabad,Telangana,Plant
Oil India Limited,1,Registered Office,26.4073841,93.2551303,,Assam,Registered Office
Petronet LNG Limited,2,Facility,9.9679032,76.2444378,Kochi,,Facility
Pfizer Limited,2,Facility,15.3004543,74.0855134,,Goa,Facility
Piramal Enterprises Limited,3,Facility,12.9767936,77.590082,Bangalore,Karnataka,Facility
PI INDUSTRIES LIMITED,3,Plant,24.578721,73.6862571,Udaipur,,Plant
PI INDUSTRIES LIMITED,4,Facility,22.3850051,71.745261,,Gujarat,Facility
PI INDUSTRIES LIMITED,5,Facility,24.578721,73.6862571,Udaipur,,Facility
Procter  Gamble Health Limited,2,Facility,15.3004543,74.0855134,,Goa,Facility
Radico Khaitan Limited,3,Plant,26.8105777,73.7684549,,Rajasthan,Plant
Ramkrishna Forgings Limited,2,Facility,22.5726459,88.3638953,Kolkata,West Bengal,Facility
Reliance Industries Limited,2,Facility,15.9240905,80.1863809,,Andhra Pradesh,Facility
SARDA ENERGY  MINERALS LIMITED,3,Facility,21.2380912,81.6336993,Raipur,,Facility
SAREGAMA India Limited,3,Plant,17.5028324,76.233966,Chennai,Maharashtra,Plant
Siemens Limited,3,Facility,15.3004543,74.0855134,,Goa,Facility
Signatureglobal India Limited,3,Plant,28.4646148,77.0299194,Gurugram,Haryana,Plant
Sterling and Wilson Renewable Energy Limited,3,Plant,28.0159286,73.3171367,Bikaner,,Plant
Tata Steel Limited,3,Facility,30.9293211,75.5004841,,Punjab,Facility
Tata Technologies Limited,2,Plant,12.9767936,77.590082,Bangalore,Karnataka,Plant
The Ramco Cements Limited,3,Plant,12.9645529,77.717708,Salem,Karnataka,Plant
TITAGARH RAIL SYSTEMS LIMITED,3,Plant,27.0246959,77.2920116,Bharatpur,,Plant
Titan Company Limited,6,Facility,12.7183361,77.8229481,Hosur,Tamil Nadu,Facility
TVS Motor Company Limited,2,Facility,11.3323723,78.6098639,,Tamil Nadu,Facility
UCO BANK,1,Registered Office,22.5726459,88.3638953,Kolkata,West Bengal,Registered Office
Usha Martin Limited,3,Facility,23.3700501,85.3250387,Ranchi,,Facility
UTI Asset Management Company Limited,2,Facility,19.054999,72.8692035,Mumbai,Maharashtra,Facility
Voltamp Transformers Limited,1,Registered Office,22.2973142,73.1942567,Vadodara,Gujarat,Registered Office
Welspun Living Limited,4,Facility,20.3735482,72.9084376,Vapi,Gujarat,Facility
ZF Commercial Vehicle Control Systems India Limited,2,Plant,13.0836939,80.270186,Chennai,Tamil Nadu,Plant
360 ONE WAM LIMITED,1,Registered Office,19.054999,72.8692035,Mumbai,Maharashtra,Registered Office
3M INDIA LIMITED,1,Registered Office,16.3113039,75.9164329,Hosur,Karnataka,Registered Office
3M INDIA LIMITED,2,Corporate Office,12.9767936,77.590082,Bengaluru,Karnataka,Corporate Office
3M INDIA LIMITED,3,Plant,12.9767936,77.590082,Bengaluru,Karnataka,Plant
Aarti Industries Limited,1,Registered Office,20.3735482,72.9084376,Vapi,Gujarat,Registered Office
Aarti Industries Limited,2,Corporate Office,19.054999,72.8692035,Mumbai,Maharashtra,Corporate Office
Aarti Industries Limited,3,Plant,19.5670323,76.4164557,,Maharashtra,Plant
Aavas Financiers Limited,1,Registered Office,26.9154576,75.8189817,Jaipur,Rajasthan,Registered Office
ABB India Limited,1,Registered Office,12.9767936,77.590082,Bengaluru,Karnataka,Registered Office
ABB India Limited,2,Plant,12.9767936,77.590082,Bangalore,Karnataka,Plant
ACC Limited,1,Registered Office,23.0215374,72.5800568,Ahmedabad,Gujarat,Registered Office
Adani Energy Solutions Limited,1,Registered Office,23.0215374,72.5800568,Ahmedabad,Gujarat,Registered Office
Adani Energy Solutions Limited,2,Corporate Office,23.0215374,72.5800568,Ahmedabad,Gujarat,Corporate Office
Adani Energy Solutions Limited,3,Plant,26.4886738,74.5561792,Gwalior,Rajasthan,Plant
Adani Energy Solutions Limited,4,Facility,23.0215374,72.5800568,Ahmedabad,Gujarat,Facility
Adani Enterprises Limited,1,Registered Office,23.0215374,72.5800568,Ahmedabad,Gujarat,Registered Office
Adani Ports and Special Economic Zone Limited,1,Registered Office,23.0215374,72.5800568,Ahmedabad,Gujarat,Registered Office
Adani Ports and Special Economic Zone Limited,2,Plant,21.2752308,76.1606744,Loni,,Plant
ADANI POWER LIMITED,1,Registered Office,23.0215374,72.5800568,Ahmedabad,Gujarat,Registered Office
ADANI POWER LIMITED,2,Plant,22.3511148,78.6677428,,,Plant
Adani Total Gas Limited,1,Registered Office,23.0215374,72.5800568,Ahmedabad,Gujarat,Registered Office
Adani Total Gas Limited,2,Facility,23.0080221,72.6303338,Ramol,,Facility
Aditya Birla Capital Limited,1,Registered Office,22.3850051,71.745261,,Gujarat,Registered Office
Aditya Birla Capital Limited,2,Corporate Office,19.054999,72.8692035,Mumbai,Maharashtra,Corporate Office
Aditya Birla Capital Limited,3,Plant,12.9697099,77.6368108,Jaipur,Karnataka,Plant
Aditya Birla Fashion and Retail Limited,1,Registered Office,19.054999,72.8692035,Mumbai,Maharashtra,Registered Office
Aditya Birla Fashion and Retail Limited,2,Corporate Office,12.9767936,77.590082,Bengaluru,Karnataka,Corporate Office
Aditya Birla Sun Life AMC Limited,1,Registered Office,19.054999,72.8692035,Mumbai,Maharashtra,Registered Office
Aditya Birla Sun Life AMC Limited,2,Corporate Office,19.054999,72.8692035,Mumbai,Maharashtra,Corporate Office
Aditya Birla Sun Life AMC Limited,3,Facility,19.054999,72.8692035,Mumbai,Maharashtra,Facility
Aegis Logistics Limited,1,Registered Office,20.3735482,72.9084376,Vapi,Gujarat,Registered Office
Aegis Logistics Limited,2,Corporate Office,19.054999,72.8692035,Mumbai,Maharashtra,Corporate Office
Aether Industries Limited,1,Registered Office,21.2094892,72.8317058,Surat,Gujarat,Registered Office
AIA ENGINEERING LIMITED,1,Registered Office,23.0215374,72.5800568,Ahmedabad,Gujarat,Registered Office
AIA ENGINEERING LIMITED,2,Corporate Office,23.0215374,72.5800568,Ahmedabad,Gujarat,Corporate Office
Ajanta Pharma Limited,1,Registered Office,19.054999,72.8692035,Mumbai,Maharashtra,Registered Office
Akzo Nobel India Limited,1,Registered Office,22.5726459,88.3638953,Kolkata,West Bengal,Registered Office
Akzo Nobel India Limited,2,Corporate Office,28.4646148,77.0299194,Gurugram,Haryana,Corporate Office
ALEMBIC PHARMACEUTICALS LIMITED,1,Registered Office,22.2973142,73.1942567,Vadodara,Gujarat,Registered Office
Alkem Laboratories Limited,1,Registered Office,19.054999,72.8692035,Mumbai,Maharashtra,Registered Office
Alkem Laboratories Limited,2,Plant,20.2072531,73.2762766,Daman,Gujarat,Plant
ALKYL AMINES CHEMICALS LIMITED,1,Registered Office,19.054999,72.8692035,Mumbai,Maharashtra,Registered Office
ALKYL AMINES CHEMICALS LIMITED,2,Corporate Office,19.054999,72.8692035,Mumbai,Maharashtra,Corporate Office
ALOK INDUSTRIES LIMITED,1,Registered Office,20.2736768,73.0045787,Silvassa,Dadra and Nagar Haveli,Registered Office
ALOK INDUSTRIES LIMITED,2,Corporate Office,19.054999,72.8692035,Mumbai,Maharashtra,Corporate Office
Amara Raja Energy  Mobility Limited,1,Registered Office,15.9240905,80.1863809,,Andhra Pradesh,Registered Office
Amara Raja Energy  Mobility Limited,2,Corporate Office,17.360589,78.4740613,Hyderabad,Telangana,Corporate Office
Amber Enterprises India Limited,1,Registered Office,30.9293211,75.5004841,,Punjab,Registered Office
Amber Enterprises India Limited,2,Corporate Office,28.4646148,77.0299194,Gurgaon,Haryana,Corporate Office
Amber Enterprises India Limited,3,Plant,19.0543115,72.8329515,Faridabad,Maharashtra,Plant
Ambuja Cements Limited,1,Registered Office,23.0215374,72.5800568,Ahmedabad,Gujarat,Registered Office
Anand Rathi Wealth Limited,1,Registered Office,19.054999,72.8692035,Mumbai,Maharashtra,Registered Office
Anand Rathi Wealth Limited,2,Corporate Office,19.054999,72.8692035,Mumbai,Maharashtra,Corporate Office
Anant Raj Limited,1,Registered Office,28.3247096,76.9263787,Manesar,Haryana,Registered Office
Anant Raj Limited,2,Corporate Office,28.6138954,77.2090057,Delhi,Delhi,Corporate Office
Angel One Limited,1,Registered Office,19.054999,72.8692035,Mumbai,Maharashtra,Registered Office
Anupam Rasayan India Limited,1,Registered Office,21.2094892,72.8317058,Surat,Gujarat,Registered Office
Anupam Rasayan India Limited,2,Corporate Office,21.2094892,72.8317058,Surat,Gujarat,Corporate Office
APAR Industries Limited,1,Registered Office,22.2973142,73.1942567,Vadodara,Gujarat,Registered Office
APAR Industries Limited,2,Corporate Office,19.054999,72.8692035,Mumbai,Maharashtra,Corporate Office
APL Apollo Tubes Limited,1,Registered Office,28.6138954,77.2090057,Delhi,Delhi,Registered Office
APL Apollo Tubes Limited,2,Corporate Office,28.5706333,77.3272147,Noida,Uttar Pradesh,Corporate Office
APL Apollo Tubes Limited,3,Plant,17.8735537,77.5580663,Hyderabad,Karnataka,Plant
Apollo Tyres Limited,1,Registered Office,9.9679032,76.2444378,Kochi,Kerala,Registered Office
Apollo Tyres Limited,2,Corporate Office,28.4646148,77.0299194,Gurugram,Haryana,Corporate Office
Aptus Value Housing Finance India Limited,1,Registered Office,13.0836939,80.270186,Chennai,Tamil Nadu,Registered Office
Archean Chemical Industries Limited,1,Registered Office,13.0836939,80.270186,Chennai,Tamil Nadu,Registered Office
ARVIND LIMITED,2,Plant,22.3511148,78.6677428,,,Plant
Asahi India Glass Limited,1,Registered Office,28.6138954,77.2090057,Delhi,Delhi,Registered Office
Asahi India Glass Limited,2,Corporate Office,28.4646148,77.0299194,Gurgaon,Haryana,Corporate Office
Asahi India Glass Limited,3,Plant,12.9767936,77.590082,Bengaluru,Karnataka,Plant
Ashok Leyland Limited,1,Registered Office,13.0119634,80.2217867,Chennai,Tamil Nadu,Registered Office
Ashok Leyland Limited,2,Plant,12.7183361,77.8229481,Hosur,Tamil Nadu,Plant
Asian Paints Limited,1,Registered Office,19.054999,72.8692035,Mumbai,Maharashtra,Registered Office
Asian Paints Limited,2,Corporate Office,19.054999,72.8692035,Mumbai,Maharashtra,Corporate Office
Aster DM Healthcare Limited,1,Registered Office,12.9767936,77.590082,Bengaluru,Karnataka,Registered Office
Aster DM Healthcare Limited,2,Corporate Office,12.9767936,77.590082,Bengaluru,Karnataka,Corporate Office
Astral Limited,1,Registered Office,23.0215374,72.5800568,Ahmedabad,Gujarat,Registered Office
Astral Limited,2,Facility,22.4732415,70.0552102,Jamnagar,,Facility
AstraZeneca Pharma India Limited,1,Registered Office,12.9767936,77.590082,Bengaluru,Karnataka,Registered Office
AstraZeneca Pharma India Limited,2,Plant,13.1006982,77.5963454,Bengaluru,Karnataka,Plant
Atul Limited,1,Registered Office,23.0215374,72.5800568,Ahmedabad,Gujarat,Registered Office
AUROBINDO PHARMA LIMITED,1,Registered Office,17.360589,78.4740613,Hyderabad,Telangana,Registered Office
AUROBINDO PHARMA LIMITED,2,Corporate Office,17.360589,78.4740613,Hyderabad,Telangana,Corporate Office
Authum Investment  Infrastructure Limited,1,Registered Office,19.054999,72.8692035,Mumbai,Maharashtra,Registered Office
Authum Investment  Infrastructure Limited,2,Corporate Office,19.054999,72.8692035,Mumbai,Maharashtra,Corporate Office
AU Small Finance Bank Limited,1,Registered Office,26.4691,74.639,Ajmer,Rajasthan,Registered Office
AU Small Finance Bank Limited,2,Corporate Office,19.054999,72.8692035,Mumbai,Maharashtra,Corporate Office
Avenue Supermarts Limited,1,Registered Office,19.054999,72.8692035,Mumbai,Maharashtra,Registered Office
Avenue Supermarts Limited,2,Corporate Office,19.3653598,73.3685437,Thane,,Corporate Office
Axis Bank Limited,1,Registered Office,23.0215374,72.5800568,Ahmedabad,Gujarat,Registered Office
Axis Bank Limited,2,Corporate Office,19.054999,72.8692035,Mumbai,Maharashtra,Corporate Office
Bajaj Auto Limited,1,Registered Office,19.054999,72.8692035,Mumbai,Maharashtra,Registered Office
BAJAJ ELECTRICALS LIMITED,1,Registered Office,18.9321116,72.8338608,Mumbai,Maharashtra,Registered Office
BAJAJ ELECTRICALS LIMITED,2,Corporate Office,19.054999,72.8692035,Mumbai,Maharashtra,Corporate Office
Bajaj Finance Limited,2,Corporate Office,18.5213738,73.8545071,Pune,Maharashtra,Corporate Office
Bajaj Finserv Limited,1,Registered Office,19.054999,72.8692035,Mumbai,Maharashtra,Registered Office
Bajaj Finserv Limited,2,Corporate Office,18.5213738,73.8545071,Pune,Maharashtra,Corporate Office
Bajaj Holdings  Investment Limited,1,Registered Office,19.054999,72.8692035,Mumbai,Maharashtra,Registered Office
Bajaj Holdings  Investment Limited,2,Corporate Office,18.5213738,73.8545071,Pune,Maharashtra,Corporate Office
Balkrishna Industries Limited,1,Registered Office,19.5670323,76.4164557,,Maharashtra,Registered Office
Balkrishna Industries Limited,2,Corporate Office,19.054999,72.8692035,Mumbai,Maharashtra,Corporate Office
Balkrishna Industries Limited,3,Plant,22.3511148,78.6677428,,,Plant
Balrampur Chini Mills Limited,1,Registered Office,22.5726459,88.3638953,Kolkata,West Bengal,Registered Office
Bandhan Bank Limited,1,Registered Office,22.5774404,88.4306504,Kolkata,West Bengal,Registered Office
Bandhan Bank Limited,2,Corporate Office,22.5726459,88.3638953,Kolkata,West Bengal,Corporate Office
Bank of Baroda,1,Registered Office,22.2973142,73.1942567,Vadodara,Gujarat,Registered Office
Bank of Baroda,2,Corporate Office,19.054999,72.8692035,Mumbai,Maharashtra,Corporate Office
BANK OF INDIA,1,Registered Office,19.054999,72.8692035,Mumbai,Maharashtra,Registered Office
BANK OF MAHARASHTRA,1,Registered Office,18.5213738,73.8545071,Pune,Maharashtra,Registered Office
BASF India Limited,1,Registered Office,19.054999,72.8692035,Mumbai,Maharashtra,Registered Office
BATA INDIA LIMITED,1,Registered Office,22.5726459,88.3638953,Kolkata,West Bengal,Registered Office
BATA INDIA LIMITED,2,Corporate Office,28.4646148,77.0299194,Gurugram,Haryana,Corporate Office
BEML Limited,1,Registered Office,12.9767936,77.590082,Bengaluru,Karnataka,Registered Office
Bharat Dynamics Limited,1,Registered Office,17.3280563,78.5001695,Hyderabad,Telangana,Registered Office
Bharat Dynamics Limited,2,Corporate Office,17.360589,78.4740613,Hyderabad,Telangana,Corporate Office
Bharat Dynamics Limited,3,Plant,17.6935526,83.2921297,Visakhapatnam,,Plant
BHARAT ELECTRONICS LIMITED,1,Registered Office,12.9767936,77.590082,Bengaluru,Karnataka,Registered Office
Bharat Forge Limited,1,Registered Office,18.5213738,73.8545071,Pune,Maharashtra,Registered Office
BHARAT HEAVY ELECTRICALS LIMITED,1,Registered Office,28.6138954,77.2090057,Delhi,Delhi,Registered Office
Bharti Airtel Limited,1,Registered Office,28.4646148,77.0299194,Gurugram,Haryana,Registered Office
Bharti Airtel Limited,2,Corporate Office,28.6138954,77.2090057,Delhi,Delhi,Corporate Office
Bharti Hexacom Limited,1,Registered Office,28.4646148,77.0299194,Gurugram,Haryana,Registered Office
Bharti Hexacom Limited,2,Corporate Office,28.6138954,77.2090057,Delhi,Delhi,Corporate Office
Bikaji Foods International Limited,1,Registered Office,28.0159286,73.3171367,Bikaner,Rajasthan,Registered Office
Bikaji Foods International Limited,2,Corporate Office,28.0159286,73.3171367,Bikaner,Rajasthan,Corporate Office
Biocon Limited,1,Registered Office,16.3113039,75.9164329,Hosur,Karnataka,Registered Office
Birlasoft Limited,1,Registered Office,18.5213738,73.8545071,Pune,Maharashtra,Registered Office
Birlasoft Limited,2,Corporate Office,28.5706333,77.3272147,Noida,Uttar Pradesh,Corporate Office
Birlasoft Limited,4,Facility,18.5213738,73.8545071,Pune,Maharashtra,Facility
Birla Corporation Limited,1,Registered Office,22.5726459,88.3638953,Kolkata,West Bengal,Registered Office
Birla Corporation Limited,2,Corporate Office,22.5726459,88.3638953,Kolkata,West Bengal,Corporate Office
BLS International Services Limited,1,Registered Office,28.6138954,77.2090057,Delhi,Delhi,Registered Office
BLS International Services Limited,2,Corporate Office,28.6138954,77.2090057,Delhi,Delhi,Corporate Office
Blue Dart Express Limited,1,Registered Office,19.054999,72.8692035,Mumbai,Maharashtra,Registered Office
Blue Star Limited,1,Registered Office,19.054999,72.8692035,Mumbai,Maharashtra,Registered Office
Blue Star Limited,2,Corporate Office,19.054999,72.8692035,Mumbai,Maharashtra,Corporate Office
Bosch limited,1,Registered Office,12.9767936,77.590082,Bangalore,Karnataka,Registered Office
Bosch limited,2,Plant,12.9767936,77.590082,Bengaluru,Karnataka,Plant
Brigade Enterprises Limited,1,Registered Office,12.9767936,77.590082,Bangalore,Karnataka,Registered Office
Brigade Enterprises Limited,2,Plant,22.3511148,78.6677428,,,Plant
Britannia Industries Limited,1,Registered Office,22.5726459,88.3638953,Kolkata,West Bengal,Registered Office
Britannia Industries Limited,2,Corporate Office,12.9767936,77.590082,Bengaluru,Karnataka,Corporate Office
Campus Activewear Limited,1,Registered Office,28.6138954,77.2090057,Delhi,Delhi,Registered Office
Campus Activewear Limited,2,Corporate Office,28.4646148,77.0299194,Gurugram,Haryana,Corporate Office
Canara Bank,1,Registered Office,12.9767936,77.590082,Bengaluru,Karnataka,Registered Office
Can Fin Homes Limited,1,Registered Office,12.9767936,77.590082,Bengaluru,Karnataka,Registered Office
Caplin Point Laboratories Limited,1,Registered Office,13.0836939,80.270186,Chennai,Tamil Nadu,Registered Office
Capri Global Capital Limited,1,Registered Office,19.054999,72.8692035,Mumbai,Maharashtra,Registered Office
Carborundum Universal Limited,1,Registered Office,13.0836939,80.270186,Chennai,Tamil Nadu,Registered Office
Castrol India Limited,1,Registered Office,19.054999,72.8692035,Mumbai,Maharashtra,Registered Office
Castrol India Limited,2,Facility,19.054999,72.8692035,Mumbai,Maharashtra,Facility
CCL Products India Limited,1,Registered Office,16.2915189,80.4541588,Guntur,Andhra Pradesh,Registered Office
CCL Products India Limited,2,Corporate Office,17.360589,78.4740613,Hyderabad,Telangana,Corporate Office
CEAT Limited,1,Registered Office,19.00835,72.8192608,Mumbai,Maharashtra,Registered Office
Cello World Limited,1,Registered Office,20.4334524,72.8314443,Daman,Daman and Diu,Registered Office
Cello World Limited,2,Corporate Office,19.054999,72.8692035,Mumbai,Maharashtra,Corporate Office
Central Bank of India,1,Registered Office,19.054999,72.8692035,Mumbai,Maharashtra,Registered Office
Century Plyboards India Limited,1,Registered Office,22.5141238,88.3142038,Kolkata,West Bengal,Registered Office
Century Plyboards India Limited,2,Corporate Office,22.5726459,88.3638953,Kolkata,West Bengal,Corporate Office
Century Plyboards India Limited,3,Plant,22.3511148,78.6677428,,,Plant
CERA Sanitaryware Limited,1,Registered Office,23.6012628,72.3741516,Mehsana,Gujarat,Registered Office
CERA Sanitaryware Limited,2,Corporate Office,23.0215374,72.5800568,Ahmedabad,Gujarat,Corporate Office
CESC Limited,1,Registered Office,22.5726459,88.3638953,Kolkata,West Bengal,Registered Office
CE INFO SYSTEMS LIMITED,1,Registered Office,28.6138954,77.2090057,Delhi,Delhi,Registered Office
CE INFO SYSTEMS LIMITED,2,Corporate Office,28.6138954,77.2090057,Delhi,Delhi,Corporate Office
CG Power and Industrial Solutions Limited,1,Registered Office,19.054999,72.8692035,Mumbai,Maharashtra,Registered Office
Chalet Hotels Limited,1,Registered Office,19.054999,72.8692035,Mumbai,Maharashtra,Registered Office
Chemplast Sanmar Limited,1,Registered Office,13.0836939,80.270186,Chennai,Tamil Nadu,Registered Office
CHENNAI PETROLEUM CORPORATION LIMITED,1,Registered Office,13.0836939,80.270186,Chennai,Tamil Nadu,Registered Office
Cholamandalam Financial Holdings Limited,1,Registered Office,13.0836939,80.270186,Chennai,Tamil Nadu,Registered Office
Cholamandalam Investment and Finance Company Limited,1,Registered Office,13.0836939,80.270186,Chennai,Tamil Nadu,Registered Office
CIE AUTOMOTIVE INDIA LIMITED,1,Registered Office,19.054999,72.8692035,Mumbai,Maharashtra,Registered Office
CIE AUTOMOTIVE INDIA LIMITED,2,Corporate Office,18.5213738,73.8545071,Pune,Maharashtra,Corporate Office
Cipla Limited,1,Registered Office,19.054999,72.8692035,Mumbai,Maharashtra,Registered Office
Cipla Limited,2,Plant,30.9763026,76.7674001,Baddi,,Plant
CITY UNION BANK LIMITED,1,Registered Office,11.3323723,78.6098639,,Tamil Nadu,Registered Office
CITY UNION BANK LIMITED,2,Corporate Office,22.3511148,78.6677428,,,Corporate Office
Clean Science and Technology Limited,1,Registered Office,18.5213738,73.8545071,Pune,Maharashtra,Registered Office
COAL INDIA LIMITED,1,Registered Office,22.5726459,88.3638953,Kolkata,West Bengal,Registered Office
Cochin Shipyard Limited,1,Registered Office,9.9679032,76.2444378,Kochi,Kerala,Registered Office
Coforge Limited,1,Registered Office,28.4646148,77.0299194,Gurugram,Haryana,Registered Office
Coforge Limited,2,Corporate Office,28.5706333,77.3272147,Noida,Uttar Pradesh,Corporate Office
Computer Age Management Services Limited,1,Registered Office,13.0836939,80.270186,Chennai,Tamil Nadu,Registered Office
Computer Age Management Services Limited,2,Corporate Office,13.0836939,80.270186,Chennai,Tamil Nadu,Corporate Office
Concord Biotech Limited,1,Registered Office,23.0215374,72.5800568,Ahmedabad,Gujarat,Registered Office
Concord Biotech Limited,2,Corporate Office,23.0215374,72.5800568,Ahmedabad,Gujarat,Corporate Office
Container Corporation of India Limited,1,Registered Office,28.6138954,77.2090057,Delhi,Delhi,Registered Office
COROMANDEL INTERNATIONAL LIMITED,1,Registered Office,22.3511148,78.6677428,,,Registered Office
COROMANDEL INTERNATIONAL LIMITED,2,Corporate Office,13.0836939,80.270186,Chennai,Tamil Nadu,Corporate Office
COROMANDEL INTERNATIONAL LIMITED,3,Plant,24.578721,73.6862571,Udaipur,Rajasthan,Plant
Craftsman Automation Limited,1,Registered Office,11.0018115,76.9628425,Coimbatore,Tamil Nadu,Registered Office
Craftsman Automation Limited,2,Corporate Office,11.0018115,76.9628425,Coimbatore,Tamil Nadu,Corporate Office
CreditAccess Grameen Limited,1,Registered Office,12.9767936,77.590082,Bengaluru,Karnataka,Registered Office
Crisil Limited,1,Registered Office,19.054999,72.8692035,Mumbai,Maharashtra,Registered Office
Crisil Limited,2,Corporate Office,19.054999,72.8692035,Mumbai,Maharashtra,Corporate Office
Crisil Limited,3,Plant,19.7009021,72.7887168,Ahmedabad,Maharashtra,Plant
Crisil Limited,4,Facility,19.054999,72.8692035,Mumbai,Maharashtra,Facility
Crompton Greaves Consumer Electricals Limited,1,Registered Office,19.054999,72.8692035,Mumbai,Maharashtra,Registered Office
Cummins India Limited,1,Registered Office,18.5213738,73.8545071,Pune,Maharashtra,Registered Office
Cyient Limited,1,Registered Office,17.360589,78.4740613,Hyderabad,Telangana,Registered Office
Cyient Limited,2,Corporate Office,17.360589,78.4740613,Hyderabad,Telangana,Corporate Office
Dabur India Limited,1,Registered Office,28.6138954,77.2090057,Delhi,Delhi,Registered Office
Dabur India Limited,2,Corporate Office,28.7749966,77.4586967,Ghaziabad,Uttar Pradesh,Corporate Office
Dabur India Limited,3,Plant,25.1389373,75.8445005,Indore,Rajasthan,Plant
Dabur India Limited,4,Facility,27.1303344,80.859666,,Uttar Pradesh,Facility
Dabur India Limited,5,Facility,27.1303344,80.859666,,Uttar Pradesh,Facility
Dalmia Bharat Limited,1,Registered Office,11.3323723,78.6098639,,Tamil Nadu,Registered Office
Dalmia Bharat Limited,2,Corporate Office,28.6138954,77.2090057,Delhi,Delhi,Corporate Office
Data Patterns India Limited,1,Registered Office,22.3511148,78.6677428,,,Registered Office
DCM Shriram Limited,1,Registered Office,28.6138954,77.2090057,Delhi,Delhi,Registered Office
DCM Shriram Limited,3,Facility,25.1737019,75.8574194,Kota,,Facility
Deepak Nitrite Limited,1,Registered Office,22.2973142,73.1942567,Vadodara,Gujarat,Registered Office
Deepak Nitrite Limited,2,Plant,22.3850051,71.745261,,Gujarat,Plant
Delhivery Limited,1,Registered Office,28.6138954,77.2090057,Delhi,Delhi,Registered Office
Delhivery Limited,2,Corporate Office,28.4507064,77.0738281,Gurugram,Haryana,Corporate Office
Devyani International Limited,1,Registered Office,28.6138954,77.2090057,Delhi,Delhi,Registered Office
Devyani International Limited,2,Corporate Office,28.4646148,77.0299194,Gurugram,Haryana,Corporate Office
Devyani International Limited,3,Plant,22.3511148,78.6677428,,,Plant
DIVIS LABORATORIES LIMITED,1,Registered Office,17.360589,78.4740613,Hyderabad,Telangana,Registered Office
Dixon Technologies India Limited,1,Registered Office,28.5706333,77.3272147,Noida,Uttar Pradesh,Registered Office
DLF Limited,1,Registered Office,28.4646148,77.0299194,Gurugram,Haryana,Registered Office
DLF Limited,2,Corporate Office,28.4646148,77.0299194,Gurugram,Haryana,Corporate Office
DLF Limited,3,Plant,28.5669266,77.1340151,Gurugram,Delhi,Plant
DOMS Industries Limited,1,Registered Office,20.4321957,73.1409893,Valsad,Gujarat,Registered Office
DOMS Industries Limited,2,Corporate Office,20.4321957,73.1409893,Valsad,Gujarat,Corporate Office
Dr Reddys Laboratories Limited,1,Registered Office,17.360589,78.4740613,Hyderabad,Telangana,Registered Office
Easy Trip Planners Limited,1,Registered Office,28.6138954,77.2090057,Delhi,Delhi,Registered Office
eClerx Services Limited,1,Registered Office,19.054999,72.8692035,Mumbai,Maharashtra,Registered Office
eClerx Services Limited,2,Corporate Office,19.054999,72.8692035,Mumbai,Maharashtra,Corporate Office
EICHER MOTORS LIMITED,1,Registered Office,28.6138954,77.2090057,Delhi,Delhi,Registered Office
EICHER MOTORS LIMITED,2,Corporate Office,28.4646148,77.0299194,Gurugram,Haryana,Corporate Office
EIH Limited,1,Registered Office,22.5726459,88.3638953,Kolkata,West Bengal,Registered Office
EIH Limited,2,Corporate Office,28.6138954,77.2090057,Delhi,Delhi,Corporate Office
EIH Limited,3,Plant,28.3996098,77.3364029,Gurgaon,Delhi,Plant
Electronics Mart India Limited,1,Registered Office,17.360589,78.4740613,Hyderabad,Telangana,Registered Office
Electronics Mart India Limited,2,Corporate Office,17.360589,78.4740613,Hyderabad,Telangana,Corporate Office
Electrosteel Castings Limited,1,Registered Office,20.5431241,84.6897321,,Odisha,Registered Office
Electrosteel Castings Limited,2,Corporate Office,22.5726459,88.3638953,Kolkata,West Bengal,Corporate Office
Elgi Equipments Limited,1,Registered Office,11.0018115,76.9628425,Coimbatore,Tamil Nadu,Registered Office
Emami Limited,1,Registered Office,22.5726459,88.3638953,Kolkata,West Bengal,Registered Office
Emami Limited,2,Plant,20.233792,73.0495173,Silvassa,Dadra and Nagar Haveli,Plant
Endurance Technologies Limited,1,Registered Office,19.5670323,76.4164557,,Maharashtra,Registered Office
Endurance Technologies Limited,2,Plant,22.3511148,78.6677428,,,Plant
Engineers India Limited,1,Registered Office,28.6138954,77.2090057,Delhi,Delhi,Registered Office
Equitas Small Finance Bank Limited,1,Registered Office,13.0836939,80.270186,Chennai,Tamil Nadu,Registered Office
Eris Lifesciences Limited,1,Registered Office,23.0215374,72.5800568,Ahmedabad,Gujarat,Registered Office
Eris Lifesciences Limited,2,Facility,23.0215374,72.5800568,Ahmedabad,Gujarat,Facility
Eris Lifesciences Limited,3,Facility,23.0215374,72.5800568,Ahmedabad,Gujarat,Facility
Eris Lifesciences Limited,4,Facility,26.1805978,91.753943,Guwahati,,Facility
ESAB India Limited,1,Registered Office,13.0836939,80.270186,Chennai,Tamil Nadu,Registered Office
Escorts Kubota Limited,1,Registered Office,28.4031478,77.3105561,Faridabad,Haryana,Registered Office
Eureka Forbes Limited,1,Registered Office,19.054999,72.8692035,Mumbai,Maharashtra,Registered Office
Exide Industries Limited,1,Registered Office,22.5726459,88.3638953,Kolkata,West Bengal,Registered Office
Exide Industries Limited,2,Plant,11.3323723,78.6098639,,Tamil Nadu,Plant
FERTILIZERS AND CHEMICALS TRAVANCORE LIMITED,1,Registered Office,10.3528744,76.5120396,,Kerala,Registered Office
FINE ORGANIC INDUSTRIES LIMITED,1,Registered Office,19.054999,72.8692035,Mumbai,Maharashtra,Registered Office
Finolex Cables Limited,1,Registered Office,19.054999,72.8692035,Mumbai,Maharashtra,Registered Office
Finolex Industries Limited,1,Registered Office,18.5213738,73.8545071,Pune,Maharashtra,Registered Office
Finolex Industries Limited,2,Corporate Office,18.5213738,73.8545071,Pune,Maharashtra,Corporate Office
Firstsource Solutions Limited,1,Registered Office,19.054999,72.8692035,Mumbai,Maharashtra,Registered Office
Five-Star Business Finance Limited,1,Registered Office,13.0836939,80.270186,Chennai,Tamil Nadu,Registered Office
Force Motors Ltd,1,Registered Office,19.054999,72.8692035,Mumbai,Maharashtra,Registered Office
Fortis Healthcare Limited,1,Registered Office,30.9293211,75.5004841,,Punjab,Registered Office
Fortis Healthcare Limited,2,Corporate Office,28.4646148,77.0299194,Gurugram,Haryana,Corporate Office
Fortis Healthcare Limited,3,Plant,16.6916136,74.2581857,Bengaluru,Maharashtra,Plant
GAIL India Limited,1,Registered Office,28.6138954,77.2090057,Delhi,Delhi,Registered Office
GALAXY SURFACTANTS LIMITED,1,Registered Office,19.054999,72.8692035,Mumbai,Maharashtra,Registered Office
Garden Reach Shipbuilders  Engineers Limited,1,Registered Office,22.5726459,88.3638953,Kolkata,West Bengal,Registered Office
General Insurance Corporation of India,1,Registered Office,19.054999,72.8692035,Mumbai,Maharashtra,Registered Office
Genus Power Infrastructures Limited,1,Registered Office,28.6040218,77.3798009,Noida,Uttar Pradesh,Registered Office
Genus Power Infrastructures Limited,2,Corporate Office,26.9154576,75.8189817,Jaipur,Rajasthan,Corporate Office
Gillette India Limited,1,Registered Office,19.054999,72.8692035,Mumbai,Maharashtra,Registered Office
GLAND PHARMA LIMITED,1,Registered Office,17.360589,78.4740613,Hyderabad,Telangana,Registered Office
GLAND PHARMA LIMITED,2,Corporate Office,17.360589,78.4740613,Hyderabad,Telangana,Corporate Office
GlaxoSmithKline Pharmaceuticals Limited,1,Registered Office,19.054999,72.8692035,Mumbai,Maharashtra,Registered Office
Glenmark Pharmaceuticals Limited,1,Registered Office,19.054999,72.8692035,Mumbai,Maharashtra,Registered Office
Glenmark Pharmaceuticals Limited,2,Corporate Office,19.054999,72.8692035,Mumbai,Maharashtra,Corporate Office
Glenmark Pharmaceuticals Limited,3,Facility,20.0112475,73.7902364,Nashik,Maharashtra,Facility
GLOBAL HEALTH LIMITED,1,Registered Office,28.5671523,77.2282896,Delhi,Delhi,Registered Office
GLOBAL HEALTH LIMITED,2,Corporate Office,28.4390982,77.0409796,Gurugram,Haryana,Corporate Office
GLOBAL HEALTH LIMITED,3,Plant,28.3996098,77.3364029,Gurgaon,Delhi,Plant
GODAWARI POWER AND ISPAT LIMITED,1,Registered Office,21.2380912,81.6336993,Raipur,,Registered Office
GODAWARI POWER AND ISPAT LIMITED,2,Corporate Office,21.2380912,81.6336993,Raipur,Chhattisgarh,Corporate Office
GODFREY PHILLIPS INDIA LIMITED,1,Registered Office,19.054999,72.8692035,Mumbai,Maharashtra,Registered Office
GODFREY PHILLIPS INDIA LIMITED,2,Corporate Office,28.6138954,77.2090057,Delhi,Delhi,Corporate Office
GODFREY PHILLIPS INDIA LIMITED,3,Plant,28.6995715,77.4457166,Meerut,,Plant
GODREJ AGROVET LIMITED,1,Registered Office,19.054999,72.8692035,Mumbai,Maharashtra,Registered Office
Godrej Consumer Products Limited,1,Registered Office,19.054999,72.8692035,Mumbai,Maharashtra,Registered Office
Godrej Consumer Products Limited,2,Plant,13.0836939,80.270186,Chennai,Tamil Nadu,Plant
Godrej Industries Limited,1,Registered Office,19.054999,72.8692035,Mumbai,Maharashtra,Registered Office
Godrej Industries Limited,2,Plant,19.5670323,76.4164557,,Maharashtra,Plant
Godrej Properties Limited,1,Registered Office,19.054999,72.8692035,Mumbai,Maharashtra,Registered Office
Go Digit General Insurance Limited,1,Registered Office,18.5213738,73.8545071,Pune,Maharashtra,Registered Office
Go Digit General Insurance Limited,2,Corporate Office,12.9767936,77.590082,Bengaluru,Karnataka,Corporate Office
GRANULES INDIA LIMITED,1,Registered Office,17.360589,78.4740613,Hyderabad,Telangana,Registered Office
GRANULES INDIA LIMITED,2,Corporate Office,17.360589,78.4740613,Hyderabad,Telangana,Corporate Office
GRANULES INDIA LIMITED,3,Plant,17.360589,78.4740613,Hyderabad,Telangana,Plant
GRAPHITE INDIA LIMITED,1,Registered Office,22.5534091,88.3497649,Kolkata,West Bengal,Registered Office
GRAPHITE INDIA LIMITED,2,Plant,20.5431241,84.6897321,,Odisha,Plant
Grasim Industries Limited,1,Registered Office,23.8143419,77.5340719,,Madhya Pradesh,Registered Office
Grasim Industries Limited,2,Corporate Office,19.054999,72.8692035,Mumbai,Maharashtra,Corporate Office
Grasim Industries Limited,3,Plant,29.3912753,76.9771675,Panipat,Haryana,Plant
Grindwell Norton Limited,1,Registered Office,19.054999,72.8692035,Mumbai,Maharashtra,Registered Office
Gujarat Ambuja Exports Limited,1,Registered Office,23.0215374,72.5800568,Ahmedabad,Gujarat,Registered Office
Gujarat Fluorochemicals Limited,1,Registered Office,31.9292352,77.1828462,,Himachal Pradesh,Registered Office
Gujarat Fluorochemicals Limited,2,Corporate Office,28.5706333,77.3272147,Noida,Uttar Pradesh,Corporate Office
Gujarat Fluorochemicals Limited,3,Plant,22.3511148,78.6677428,,,Plant
GUJARAT GAS LIMITED,1,Registered Office,23.2232877,72.6492267,Gandhinagar,Gujarat,Registered Office
GUJARAT GAS LIMITED,2,Corporate Office,23.2232877,72.6492267,Gandhinagar,Gujarat,Corporate Office
GUJARAT GAS LIMITED,3,Plant,23.2232877,72.6492267,Gandhinagar,,Plant
Gujarat Pipavav Port Limited,1,Registered Office,22.3511148,78.6677428,,,Registered Office
Gujarat Pipavav Port Limited,2,Corporate Office,19.054999,72.8692035,Mumbai,Maharashtra,Corporate Office
Gujarat State Petronet Limited,1,Registered Office,23.2232877,72.6492267,Gandhinagar,Gujarat,Registered Office
Gujarat State Petronet Limited,2,Corporate Office,23.2232877,72.6492267,Gandhinagar,,Corporate Office
Gujarat State Petronet Limited,3,Plant,22.2973142,73.1942567,Vadodara,Gujarat,Plant
G R Infraprojects Limited,1,Registered Office,23.0215374,72.5800568,Ahmedabad,Gujarat,Registered Office
G R Infraprojects Limited,2,Corporate Office,28.4646148,77.0299194,Gurugram,Haryana,Corporate Office
Happiest Minds Technologies Limited,1,Registered Office,16.3113039,75.9164329,Hosur,Karnataka,Registered Office
Happy Forgings Limited,1,Registered Office,30.9090157,75.851601,Ludhiana,,Registered Office
Happy Forgings Limited,2,Corporate Office,30.9090157,75.851601,Ludhiana,,Corporate Office
Havells India Limited,1,Registered Office,28.6138954,77.2090057,Delhi,Delhi,Registered Office
Havells India Limited,2,Corporate Office,28.5706333,77.3272147,Noida,Uttar Pradesh,Corporate Office
Havells India Limited,3,Plant,28.4031478,77.3105561,Faridabad,Haryana,Plant
HCL Technologies Limited,1,Registered Office,28.6138954,77.2090057,Delhi,Delhi,Registered Office
HCL Technologies Limited,2,Corporate Office,28.5706333,77.3272147,Noida,Uttar Pradesh,Corporate Office
HCL Technologies Limited,3,Plant,12.9767936,77.590082,Bengaluru,Karnataka,Plant
HDFC Asset Management Company Limited,1,Registered Office,19.054999,72.8692035,Mumbai,Maharashtra,Registered Office
HDFC Bank Limited,1,Registered Office,19.054999,72.8692035,Mumbai,Maharashtra,Registered Office
HDFC Bank Limited,2,Corporate Office,19.054999,72.8692035,Mumbai,Maharashtra,Corporate Office
HDFC Life Insurance Company Limited,1,Registered Office,19.054999,72.8692035,Mumbai,Maharashtra,Registered Office
HDFC Life Insurance Company Limited,2,Corporate Office,19.054999,72.8692035,Mumbai,Maharashtra,Corporate Office
HEG Limited,1,Registered Office,23.2584857,77.401989,Bhopal,Madhya Pradesh,Registered Office
HEG Limited,2,Corporate Office,28.5706333,77.3272147,Noida,Uttar Pradesh,Corporate Office
HERO MOTOCORP LIMITED,1,Registered Office,28.6138954,77.2090057,Delhi,Delhi,Registered Office
HFCL Limited,1,Registered Office,31.9292352,77.1828462,,Himachal Pradesh,Registered Office
HFCL Limited,2,Corporate Office,28.6138954,77.2090057,Delhi,Delhi,Corporate Office
HFCL Limited,5,Facility,28.3247096,76.9263787,Manesar,,Facility
Himadri Speciality Chemical Limited,1,Registered Office,22.5726459,88.3638953,Kolkata,West Bengal,Registered Office
Himadri Speciality Chemical Limited,2,Corporate Office,22.5726459,88.3638953,Kolkata,West Bengal,Corporate Office
HINDALCO INDUSTRIES LIMITED,1,Registered Office,19.054999,72.8692035,Mumbai,Maharashtra,Registered Office
HINDALCO INDUSTRIES LIMITED,2,Corporate Office,19.054999,72.8692035,Mumbai,Maharashtra,Corporate Office
HINDUSTAN AERONAUTICS LIMITED,1,Registered Office,12.9822892,77.5962827,,,Registered Office
HINDUSTAN COPPER LIMITED,1,Registered Office,22.5726459,88.3638953,Kolkata,West Bengal,Registered Office
HINDUSTAN COPPER LIMITED,2,Plant,26.8105777,73.7684549,,Rajasthan,Plant
Hindustan Petroleum Corporation Limited,1,Registered Office,18.9290362,72.8253798,Mumbai,Maharashtra,Registered Office
Hindustan Unilever Limited,1,Registered Office,19.054999,72.8692035,Mumbai,Maharashtra,Registered Office
Hindustan Unilever Limited,2,Plant,20.0112475,73.7902364,Nashik,Maharashtra,Plant
Hindustan Unilever Limited,3,Facility,20.0112475,73.7902364,Nashik,Maharashtra,Facility
Hindustan Zinc Limited,1,Registered Office,24.578721,73.6862571,Udaipur,Rajasthan,Registered Office
Hindustan Zinc Limited,2,Plant,22.3511148,78.6677428,,,Plant
Hitachi Energy India Limited,1,Registered Office,12.9767936,77.590082,Bengaluru,Karnataka,Registered Office
Home First Finance Company India Limited,1,Registered Office,19.054999,72.8692035,Mumbai,Maharashtra,Registered Office
Honasa Consumer Limited,1,Registered Office,28.6138954,77.2090057,Delhi,Delhi,Registered Office
Honasa Consumer Limited,2,Corporate Office,28.4646148,77.0299194,Gurgaon,Haryana,Corporate Office
HONEYWELL AUTOMATION INDIA LIMITED,1,Registered Office,18.5213738,73.8545071,Pune,Maharashtra,Registered Office
ICICI Bank Limited,1,Registered Office,22.2973142,73.1942567,Vadodara,Gujarat,Registered Office
ICICI Bank Limited,2,Corporate Office,19.054999,72.8692035,Mumbai,Maharashtra,Corporate Office
ICICI Lombard General Insurance Company Limited,1,Registered Office,19.054999,72.8692035,Mumbai,Maharashtra,Registered Office
ICICI Prudential Life Insurance Company Limited,1,Registered Office,19.054999,72.8692035,Mumbai,Maharashtra,Registered Office
IDBI Bank Limited,1,Registered Office,19.054999,72.8692035,Mumbai,Maharashtra,Registered Office
IDBI Bank Limited,2,Facility,19.054999,72.8692035,Mumbai,Maharashtra,Facility
IDFC FIRST Bank Limited,1,Registered Office,13.0836939,80.270186,Chennai,Tamil Nadu,Registered Office
IDFC FIRST Bank Limited,2,Corporate Office,19.054999,72.8692035,Mumbai,Maharashtra,Corporate Office
IFCI Limited,1,Registered Office,28.6138954,77.2090057,Delhi,Delhi,Registered Office
IIFL Finance Limited,1,Registered Office,19.3653598,73.3685437,Thane,,Registered Office
IIFL Finance Limited,2,Corporate Office,19.054999,72.8692035,Mumbai,Maharashtra,Corporate Office
Indegene Limited,1,Registered Office,12.9767936,77.590082,Bangalore,Karnataka,Registered Office
INDIAMART INTERMESH LIMITED,1,Registered Office,28.6138954,77.2090057,Delhi,Delhi,Registered Office
INDIAMART INTERMESH LIMITED,2,Corporate Office,28.5706333,77.3272147,Noida,Uttar Pradesh,Corporate Office
Indian Bank,1,Registered Office,13.077973,80.2874829,Chennai,Tamil Nadu,Registered Office
Indian Bank,2,Corporate Office,13.0836939,80.270186,Chennai,Tamil Nadu,Corporate Office
Indian Energy Exchange Limited,1,Registered Office,28.6138954,77.2090057,Delhi,Delhi,Registered Office
Indian Energy Exchange Limited,2,Corporate Office,28.5706333,77.3272147,Noida,Uttar Pradesh,Corporate Office
Indian Oil Corporation Limited,1,Registered Office,19.054999,72.8692035,Mumbai,Maharashtra,Registered Office
Indian Oil Corporation Limited,2,Corporate Office,28.6138954,77.2090057,Delhi,Delhi,Corporate Office
INDIAN OVERSEAS BANK,1,Registered Office,13.0836939,80.270186,Chennai,Tamil Nadu,Registered Office
INDIAN RAILWAY FINANCE CORPORATION LIMITED,1,Registered Office,28.6138954,77.2090057,Delhi,Delhi,Registered Office
Indian Renewable Energy Development Agency Limited,1,Registered Office,28.6138954,77.2090057,Delhi,Delhi,Registered Office
Indian Renewable Energy Development Agency Limited,2,Corporate Office,28.6138954,77.2090057,Delhi,Delhi,Corporate Office
IndusInd Bank Limited,1,Registered Office,18.5213738,73.8545071,Pune,Maharashtra,Registered Office
IndusInd Bank Limited,2,Corporate Office,19.054999,72.8692035,Mumbai,Maharashtra,Corporate Office
Indus Towers Limited,1,Registered Office,28.4646148,77.0299194,Gurugram,Haryana,Registered Office
Infibeam Avenues Limited,1,Registered Office,23.2232877,72.6492267,Gandhinagar,Gujarat,Registered Office
Infosys Limited,1,Registered Office,16.3113039,75.9164329,Hosur,Karnataka,Registered Office
Infosys Limited,2,Plant,22.3511148,78.6677428,,,Plant
INOX India Limited,1,Registered Office,22.2973142,73.1942567,Vadodara,Gujarat,Registered Office
INOX India Limited,2,Facility,23.2452165,72.4966223,Kalol,,Facility
Inox Wind Limited,1,Registered Office,31.9292352,77.1828462,,Himachal Pradesh,Registered Office
Inox Wind Limited,2,Corporate Office,28.5706333,77.3272147,Noida,Uttar Pradesh,Corporate Office
INTELLECT DESIGN ARENA LIMITED,1,Registered Office,13.0554931,80.2551915,Chennai,Tamil Nadu,Registered Office
INTELLECT DESIGN ARENA LIMITED,2,Corporate Office,13.0836939,80.270186,Chennai,Tamil Nadu,Corporate Office
InterGlobe Aviation Limited,1,Registered Office,28.6138954,77.2090057,Delhi,Delhi,Registered Office
InterGlobe Aviation Limited,2,Corporate Office,28.4646148,77.0299194,Gurugram,Haryana,Corporate Office
Ion Exchange India Limited,1,Registered Office,19.054999,72.8692035,Mumbai,Maharashtra,Registered Office
Ipca Laboratories Limited,1,Registered Office,19.054999,72.8692035,Mumbai,Maharashtra,Registered Office
Ipca Laboratories Limited,2,Corporate Office,19.054999,72.8692035,Mumbai,Maharashtra,Corporate Office
Ipca Laboratories Limited,3,Plant,23.5022201,74.9551534,Ratlam,,Plant
IRB Infrastructure Developers Limited,1,Registered Office,19.054999,72.8692035,Mumbai,Maharashtra,Registered Office
IRB Infrastructure Developers Limited,2,Corporate Office,19.054999,72.8692035,Mumbai,Maharashtra,Corporate Office
Ircon International Limited,1,Registered Office,28.6138954,77.2090057,Delhi,Delhi,Registered Office
ISGEC Heavy Engineering Limited,1,Registered Office,29.0,76.0,,Haryana,Registered Office
ISGEC Heavy Engineering Limited,2,Corporate Office,28.5706333,77.3272147,Noida,Uttar Pradesh,Corporate Office
ITC Limited,1,Registered Office,22.5726459,88.3638953,Kolkata,West Bengal,Registered Office
JAIPRAKASH POWER VENTURES LIMITED,1,Registered Office,23.8143419,77.5340719,,Madhya Pradesh,Registered Office
JAIPRAKASH POWER VENTURES LIMITED,2,Corporate Office,28.6138954,77.2090057,Delhi,Delhi,Corporate Office
JAI BALAJI INDUSTRIES LIMITED,1,Registered Office,22.5677076,88.352537,Kolkata,West Bengal,Registered Office
JBM Auto Limited,1,Registered Office,28.4031478,77.3105561,Faridabad,Haryana,Registered Office
JBM Auto Limited,2,Corporate Office,28.4646148,77.0299194,Gurugram,Haryana,Corporate Office
Jindal Saw Limited,1,Registered Office,27.1303344,80.859666,,Uttar Pradesh,Registered Office
Jindal Saw Limited,2,Corporate Office,28.6138954,77.2090057,Delhi,Delhi,Corporate Office
Jindal Saw Limited,3,Plant,28.6138954,77.2090057,Delhi,Delhi,Plant
Jindal Stainless Limited,1,Registered Office,29.0,76.0,,Haryana,Registered Office
Jindal Stainless Limited,2,Corporate Office,28.6138954,77.2090057,Delhi,Delhi,Corporate Office
JINDAL STEEL  POWER LIMITED,1,Registered Office,29.0,76.0,,Haryana,Registered Office
JINDAL STEEL  POWER LIMITED,2,Corporate Office,28.6138954,77.2090057,Delhi,Delhi,Corporate Office
Jio Financial Services Limited,1,Registered Office,19.054999,72.8692035,Mumbai,Maharashtra,Registered Office
JK CEMENT LIMITED,1,Registered Office,26.4609135,80.3217588,Kanpur,Uttar Pradesh,Registered Office
JK CEMENT LIMITED,2,Corporate Office,28.4646148,77.0299194,Gurugram,Haryana,Corporate Office
JK CEMENT LIMITED,4,Plant,22.3511148,78.6677428,,,Plant
JK CEMENT LIMITED,5,Plant,22.3511148,78.6677428,,,Plant
JK LAKSHMI CEMENT LIMITED,1,Registered Office,26.8105777,73.7684549,,Rajasthan,Registered Office
JK LAKSHMI CEMENT LIMITED,2,Corporate Office,28.6138954,77.2090057,Delhi,Delhi,Corporate Office
JK Tyre  Industries Limited,1,Registered Office,26.8105777,73.7684549,,Rajasthan,Registered Office
JK Tyre  Industries Limited,2,Corporate Office,28.6260786,77.2408419,Delhi,Delhi,Corporate Office
JK Tyre  Industries Limited,3,Plant,13.0836939,80.270186,Chennai,Tamil Nadu,Plant
JM Financial Limited,1,Registered Office,19.054999,72.8692035,Mumbai,Maharashtra,Registered Office
JSW Energy Limited,1,Registered Office,19.054999,72.8692035,Mumbai,Maharashtra,Registered Office
JSW Energy Limited,2,Plant,22.3511148,78.6677428,,,Plant
JSW Infrastructure Limited,1,Registered Office,19.054999,72.8692035,Mumbai,Maharashtra,Registered Office
JSW Steel Limited,1,Registered Office,19.054999,72.8692035,Mumbai,Maharashtra,Registered Office
JSW Steel Limited,2,Plant,11.6469616,78.2106958,Salem,,Plant
Jubilant FoodWorks Limited,1,Registered Office,28.5706333,77.3272147,Noida,Uttar Pradesh,Registered Office
Jubilant FoodWorks Limited,2,Corporate Office,28.5706333,77.3272147,Noida,Uttar Pradesh,Corporate Office
JUBILANT INGREVIA LIMITED,1,Registered Office,27.1303344,80.859666,,Uttar Pradesh,Registered Office
JUBILANT INGREVIA LIMITED,2,Corporate Office,28.5706333,77.3272147,Noida,Uttar Pradesh,Corporate Office
Jubilant Pharmova Limited,1,Registered Office,27.1303344,80.859666,,Uttar Pradesh,Registered Office
Jubilant Pharmova Limited,2,Corporate Office,28.5706333,77.3272147,Noida,Uttar Pradesh,Corporate Office
Juniper Hotels Limited,1,Registered Office,19.054999,72.8692035,Mumbai,Maharashtra,Registered Office
Jupiter Life Line Hospitals Limited,1,Registered Office,19.054999,72.8692035,Mumbai,Maharashtra,Registered Office
Jupiter Life Line Hospitals Limited,2,Corporate Office,19.3653598,73.3685437,Thane,Maharashtra,Corporate Office
Jupiter Wagons Limited,1,Registered Office,22.7159581,79.340924,Gorakhpur,Madhya Pradesh,Registered Office
Jupiter Wagons Limited,2,Corporate Office,22.548977,88.3511498,Kolkata,West Bengal,Corporate Office
Just Dial Limited,1,Registered Office,19.054999,72.8692035,Mumbai,Maharashtra,Registered Office
Just Dial Limited,2,Corporate Office,19.054999,72.8692035,Mumbai,Maharashtra,Corporate Office
JYOTHY LABS LIMITED,1,Registered Office,19.054999,72.8692035,Mumbai,Maharashtra,Registered Office
JYOTI CNC AUTOMATION LIMITED,1,Registered Office,22.3053263,70.8028377,Rajkot,,Registered Office
Kajaria Ceramics Limited,1,Registered Office,28.4646148,77.0299194,Gurgaon,Haryana,Registered Office
Kajaria Ceramics Limited,2,Corporate Office,28.6138954,77.2090057,Delhi,Delhi,Corporate Office
Kajaria Ceramics Limited,3,Plant,22.3511148,78.6677428,,,Plant
Kalpataru Projects International Limited,1,Registered Office,23.2232877,72.6492267,Gandhinagar,Gujarat,Registered Office
Kalpataru Projects International Limited,2,Corporate Office,19.054999,72.8692035,Mumbai,Maharashtra,Corporate Office
Kalpataru Projects International Limited,3,Plant,29.2279912,74.5806026,Gandhinagar,Rajasthan,Plant
Kalyan Jewellers India Limited,1,Registered Office,10.3528744,76.5120396,,Kerala,Registered Office
Kansai Nerolac Paints Limited,1,Registered Office,19.054999,72.8692035,Mumbai,Maharashtra,Registered Office
Kansai Nerolac Paints Limited,2,Plant,30.9293211,75.5004841,,Punjab,Plant
KARUR VYSYA BANK LIMITED,1,Registered Office,22.3511148,78.6677428,,,Registered Office
KARUR VYSYA BANK LIMITED,2,Facility,17.360589,78.4740613,Hyderabad,Telangana,Facility
Kaynes Technology India Limited,1,Registered Office,14.9562045,75.7896741,,Karnataka,Registered Office
KEC International Limited,1,Registered Office,19.054999,72.8692035,Mumbai,Maharashtra,Registered Office
KEC International Limited,2,Plant,26.8105777,73.7684549,,Rajasthan,Plant
KEI INDUSTRIES LIMITED,1,Registered Office,28.6138954,77.2090057,Delhi,Delhi,Registered Office
Keystone Realtors Limited,1,Registered Office,19.054999,72.8692035,Mumbai,Maharashtra,Registered Office
KFin Technologies Limited,1,Registered Office,19.054999,72.8692035,Mumbai,Maharashtra,Registered Office
KFin Technologies Limited,2,Corporate Office,17.360589,78.4740613,Hyderabad,Telangana,Corporate Office
KIOCL Limited,1,Registered Office,12.9390255,77.6238477,Bengaluru,Karnataka,Registered Office
Kirloskar Brothers Limited,1,Registered Office,18.5213738,73.8545071,Pune,Maharashtra,Registered Office
Kirloskar Oil Engines Limited,1,Registered Office,18.5213738,73.8545071,Pune,Maharashtra,Registered Office
Kirloskar Oil Engines Limited,2,Corporate Office,18.5213738,73.8545071,Pune,Maharashtra,Corporate Office
KNR Constructions Limited,1,Registered Office,17.360589,78.4740613,Hyderabad,Telangana,Registered Office
KNR Constructions Limited,2,Corporate Office,17.360589,78.4740613,Hyderabad,Telangana,Corporate Office
KOTAK MAHINDRA BANK LIMITED,1,Registered Office,19.054999,72.8692035,Mumbai,Maharashtra,Registered Office
KPIT Technologies Limited,1,Registered Office,18.5213738,73.8545071,Pune,Maharashtra,Registered Office
KPIT Technologies Limited,2,Plant,12.9767936,77.590082,Bangalore,Karnataka,Plant
KPI GREEN ENERGY LIMITED,1,Registered Office,21.2094892,72.8317058,Surat,Gujarat,Registered Office
KPR MILL LIMITED,1,Registered Office,11.0018115,76.9628425,Coimbatore,Tamil Nadu,Registered Office
KPR MILL LIMITED,2,Corporate Office,11.0018115,76.9628425,Coimbatore,Tamil Nadu,Corporate Office
Krishna Institute of Medical Sciences Limited,1,Registered Office,17.8495919,79.1151663,,Telangana,Registered Office
KSB Limited,1,Registered Office,19.054999,72.8692035,Mumbai,Maharashtra,Registered Office
KSB Limited,2,Corporate Office,19.054999,72.8692035,Mumbai,Maharashtra,Corporate Office
Larsen  Toubro Limited,1,Registered Office,19.054999,72.8692035,Mumbai,Maharashtra,Registered Office
Larsen  Toubro Limited,2,Plant,21.5777764,73.9334615,Delhi,Gujarat,Plant
Latent View Analytics Limited,1,Registered Office,13.0836939,80.270186,Chennai,Tamil Nadu,Registered Office
LAURUS LABS LIMITED,1,Registered Office,15.9240905,80.1863809,,Andhra Pradesh,Registered Office
LAURUS LABS LIMITED,2,Corporate Office,17.360589,78.4740613,Hyderabad,Telangana,Corporate Office
Lemon Tree Hotels Limited,1,Registered Office,28.6138954,77.2090057,Delhi,Delhi,Registered Office
LIC Housing Finance Limited,1,Registered Office,19.054999,72.8692035,Mumbai,Maharashtra,Registered Office
Life Insurance Corporation of India,1,Registered Office,19.054999,72.8692035,Mumbai,Maharashtra,Registered Office
Linde India Limited,1,Registered Office,22.5726459,88.3638953,Kolkata,West Bengal,Registered Office
Lloyds Metals and Energy Limited,1,Registered Office,22.3511148,78.6677428,,,Registered Office
Lloyds Metals and Energy Limited,2,Corporate Office,19.054999,72.8692035,Mumbai,Maharashtra,Corporate Office
LTIMindtree Limited,1,Registered Office,19.054999,72.8692035,Mumbai,Maharashtra,Registered Office
LTIMindtree Limited,2,Corporate Office,19.054999,72.8692035,Mumbai,Maharashtra,Corporate Office
LT Finance Limited,1,Registered Office,19.054999,72.8692035,Mumbai,Maharashtra,Registered Office
LT Technology Services Limited,1,Registered Office,19.054999,72.8692035,Mumbai,Maharashtra,Registered Office
LT Technology Services Limited,2,Corporate Office,22.2973142,73.1942567,Vadodara,Gujarat,Corporate Office
LT Technology Services Limited,3,Plant,13.4938975,77.0003543,Chennai,Karnataka,Plant
Lupin Limited,1,Registered Office,19.054999,72.8692035,Mumbai,Maharashtra,Registered Office
Lupin Limited,2,Plant,21.6293206,72.9945103,Ankleshwar,Gujarat,Plant
MACROTECH DEVELOPERS LIMITED,1,Registered Office,19.054999,72.8692035,Mumbai,Maharashtra,Registered Office
MACROTECH DEVELOPERS LIMITED,2,Corporate Office,19.054999,72.8692035,Mumbai,Maharashtra,Corporate Office
Mahanagar Gas Limited,1,Registered Office,19.054999,72.8692035,Mumbai,Maharashtra,Registered Office
MAHARASHTRA SCOOTERS LIMITED,1,Registered Office,19.054999,72.8692035,Mumbai,Maharashtra,Registered Office
MAHARASHTRA SCOOTERS LIMITED,2,Corporate Office,18.5213738,73.8545071,Pune,Maharashtra,Corporate Office
Maharashtra Seamless Limited,1,Registered Office,19.5670323,76.4164557,,Maharashtra,Registered Office
Maharashtra Seamless Limited,2,Corporate Office,28.4646148,77.0299194,Gurugram,Haryana,Corporate Office
Mahindra Holidays  Resorts India Limited,1,Registered Office,19.054999,72.8692035,Mumbai,Maharashtra,Registered Office
Mahindra Lifespace Developers Limited,1,Registered Office,19.054999,72.8692035,Mumbai,Maharashtra,Registered Office
Mahindra Lifespace Developers Limited,2,Plant,13.4938975,77.0003543,Chennai,Karnataka,Plant
Mahindra  Mahindra Financial Services Limited,1,Registered Office,19.054999,72.8692035,Mumbai,Maharashtra,Registered Office
Mahindra  Mahindra Financial Services Limited,2,Corporate Office,19.054999,72.8692035,Mumbai,Maharashtra,Corporate Office
Mahindra  Mahindra Limited,1,Registered Office,19.054999,72.8692035,Mumbai,Maharashtra,Registered Office
Mahindra  Mahindra Limited,2,Corporate Office,19.054999,72.8692035,Mumbai,Maharashtra,Corporate Office
Manappuram Finance Limited,1,Registered Office,10.3528744,76.5120396,,Kerala,Registered Office
Manappuram Finance Limited,2,Corporate Office,19.054999,72.8692035,Mumbai,Maharashtra,Corporate Office
MANKIND PHARMA LIMITED,1,Registered Office,28.6138954,77.2090057,Delhi,Delhi,Registered Office
MANKIND PHARMA LIMITED,2,Corporate Office,28.6138954,77.2090057,Delhi,Delhi,Corporate Office
Man Infraconstruction Limited,1,Registered Office,19.054999,72.8692035,Mumbai,Maharashtra,Registered Office
Marico Limited,1,Registered Office,19.054999,72.8692035,Mumbai,Maharashtra,Registered Office
Marico Limited,2,Plant,20.8428827,75.5261246,Jalgaon,Maharashtra,Plant
Maruti Suzuki India Limited,1,Registered Office,28.6138954,77.2090057,Delhi,Delhi,Registered Office
Maruti Suzuki India Limited,2,Plant,28.4646148,77.0299194,Gurugram,Haryana,Plant
Maruti Suzuki India Limited,3,Facility,28.3247096,76.9263787,Manesar,,Facility
Mastek Limited,1,Registered Office,23.0215374,72.5800568,Ahmedabad,Gujarat,Registered Office
Mastek Limited,2,Corporate Office,19.054999,72.8692035,Mumbai,Maharashtra,Corporate Office
Max Financial Services Limited,1,Registered Office,30.9293211,75.5004841,,Punjab,Registered Office
Max Financial Services Limited,2,Corporate Office,28.5706333,77.3272147,Noida,Uttar Pradesh,Corporate Office
MAX HEALTHCARE INSTITUTE LIMITED,1,Registered Office,19.054999,72.8692035,Mumbai,Maharashtra,Registered Office
MAX HEALTHCARE INSTITUTE LIMITED,2,Corporate Office,28.4646148,77.0299194,Gurugram,Haryana,Corporate Office
MAX HEALTHCARE INSTITUTE LIMITED,3,Plant,28.3996098,77.3364029,Gurgaon,Delhi,Plant
Mazagon Dock Shipbuilders Limited,1,Registered Office,18.9674767,72.8445477,Mumbai,Maharashtra,Registered Office
MedPlus Health Services Limited,1,Registered Office,17.360589,78.4740613,Hyderabad,Telangana,Registered Office
Metropolis Healthcare Limited,1,Registered Office,19.054999,72.8692035,Mumbai,Maharashtra,Registered Office
Metropolis Healthcare Limited,2,Corporate Office,19.054999,72.8692035,Mumbai,Maharashtra,Corporate Office
Metro Brands Limited,1,Registered Office,19.054999,72.8692035,Mumbai,Maharashtra,Registered Office
Minda Corporation Limited,1,Registered Office,28.6138954,77.2090057,Delhi,Delhi,Registered Office
Minda Corporation Limited,2,Corporate Office,28.5706333,77.3272147,Noida,Uttar Pradesh,Corporate Office
Minda Corporation Limited,7,Plant,22.3511148,78.6677428,,,Plant
Mishra Dhatu Nigam Limited,1,Registered Office,17.360589,78.4740613,Hyderabad,Telangana,Registered Office
MMTC LIMITED,1,Registered Office,28.6138954,77.2090057,Delhi,Delhi,Registered Office
MOIL Limited,1,Registered Office,21.1498134,79.0820556,Nagpur,Maharashtra,Registered Office
Motherson Sumi Wiring India Limited,1,Registered Office,19.054999,72.8692035,Mumbai,Maharashtra,Registered Office
Motherson Sumi Wiring India Limited,2,Corporate Office,28.5706333,77.3272147,Noida,Uttar Pradesh,Corporate Office
Motilal Oswal Financial Services Limited,1,Registered Office,19.054999,72.8692035,Mumbai,Maharashtra,Registered Office
Mphasis Limited,1,Registered Office,12.9767936,77.590082,Bengaluru,Karnataka,Registered Office
MRF Limited,1,Registered Office,13.0649954,80.2551609,Chennai,Tamil Nadu,Registered Office
MUTHOOT FINANCE LIMITED,1,Registered Office,9.9968438,76.3140229,Kochi,,Registered Office
Narayana Hrudayalaya Ltd,1,Registered Office,12.9767936,77.590082,Bangalore,Karnataka,Registered Office
Narayana Hrudayalaya Ltd,2,Corporate Office,12.9767936,77.590082,Bangalore,Karnataka,Corporate Office
Narayana Hrudayalaya Ltd,3,Plant,12.9767936,77.590082,Bangalore,Karnataka,Plant
NATCO Pharma Limited,1,Registered Office,17.360589,78.4740613,Hyderabad,Telangana,Registered Office
NATCO Pharma Limited,2,Plant,13.0836939,80.270186,Chennai,Tamil Nadu,Plant
NAVA LIMITED,1,Registered Office,17.360589,78.4740613,Hyderabad,Telangana,Registered Office
NAVA LIMITED,2,Corporate Office,17.360589,78.4740613,Hyderabad,Telangana,Corporate Office
Navin Fluorine International Limited,1,Registered Office,19.054999,72.8692035,Mumbai,Maharashtra,Registered Office
NBCC India Limited,1,Registered Office,28.6138954,77.2090057,Delhi,Delhi,Registered Office
NCC LIMITED,1,Registered Office,17.4364725,78.3880087,Hyderabad,Telangana,Registered Office
Nestle India Limited,1,Registered Office,28.6138954,77.2090057,Delhi,Delhi,Registered Office
Nestle India Limited,2,Corporate Office,28.4646148,77.0299194,Gurugram,Haryana,Corporate Office
Nestle India Limited,3,Plant,29.028405,79.4832094,Pantnagar,,Plant
NETWEB TECHNOLOGIES INDIA LIMITED,1,Registered Office,28.4031478,77.3105561,Faridabad,Haryana,Registered Office
Neuland Laboratories Limited,1,Registered Office,17.360589,78.4740613,Hyderabad,Telangana,Registered Office
Neuland Laboratories Limited,2,Plant,17.360589,78.4740613,Hyderabad,Telangana,Plant
Newgen Software Technologies Limited,1,Registered Office,28.6138954,77.2090057,Delhi,Delhi,Registered Office
NHPC Limited,1,Registered Office,28.4031478,77.3105561,Faridabad,Haryana,Registered Office
NHPC Limited,2,Plant,32.7185614,74.8580917,Jammu,,Plant
Nippon Life India Asset Management Limited,1,Registered Office,19.054999,72.8692035,Mumbai,Maharashtra,Registered Office
NLC India Limited,1,Registered Office,13.0836939,80.270186,Chennai,Tamil Nadu,Registered Office
NLC India Limited,2,Corporate Office,11.535987,79.4824392,,Tamil Nadu,Corporate Office
NMDC Limited,1,Registered Office,17.360589,78.4740613,Hyderabad,Telangana,Registered Office
NMDC Steel Limited,1,Registered Office,21.6637359,81.8406351,,Chhattisgarh,Registered Office
NMDC Steel Limited,2,Corporate Office,17.360589,78.4740613,Hyderabad,Telangana,Corporate Office
NTPC LIMITED,1,Registered Office,28.6138954,77.2090057,Delhi,Delhi,Registered Office
NUVAMA WEALTH MANAGEMENT LIMITED,1,Registered Office,19.054999,72.8692035,Mumbai,Maharashtra,Registered Office
NUVAMA WEALTH MANAGEMENT LIMITED,2,Facility,19.054999,72.8692035,Mumbai,Maharashtra,Facility
Nuvoco Vistas Corporation Limited,1,Registered Office,19.054999,72.8692035,Mumbai,Maharashtra,Registered Office
Oberoi Realty Limited,1,Registered Office,19.054999,72.8692035,Mumbai,Maharashtra,Registered Office
Oberoi Realty Limited,2,Plant,22.3511148,78.6677428,,,Plant
Oil India Limited,2,Corporate Office,28.5683047,77.3158364,Noida,Uttar Pradesh,Corporate Office
Olectra Greentech Limited,1,Registered Office,17.360589,78.4740613,Hyderabad,Telangana,Registered Office
One 97 Communications Limited,1,Registered Office,28.6138954,77.2090057,Delhi,Delhi,Registered Office
One 97 Communications Limited,2,Corporate Office,28.5706333,77.3272147,Noida,Uttar Pradesh,Corporate Office
Oracle Financial Services Software Limited,1,Registered Office,19.054999,72.8692035,Mumbai,Maharashtra,Registered Office
Page Industries Limited,1,Registered Office,12.9767936,77.590082,Bengaluru,Karnataka,Registered Office
Page Industries Limited,2,Corporate Office,12.9767936,77.590082,Bengaluru,Karnataka,Corporate Office
Page Industries Limited,3,Plant,13.0613607,80.1396767,Bengaluru,Tamil Nadu,Plant
PATANJALI FOODS LIMITED,1,Registered Office,19.054999,72.8692035,Mumbai,Maharashtra,Registered Office
PATANJALI FOODS LIMITED,2,Corporate Office,22.7203616,75.8681996,Indore,Madhya Pradesh,Corporate Office
PB FINTECH LIMITED,1,Registered Office,28.4646148,77.0299194,Gurugram,Haryana,Registered Office
Persistent Systems Limited,1,Registered Office,18.5213738,73.8545071,Pune,Maharashtra,Registered Office
Persistent Systems Limited,2,Plant,22.3511148,78.6677428,,,Plant
Petronet LNG Limited,1,Registered Office,28.6138954,77.2090057,Delhi,Delhi,Registered Office
Pfizer Limited,1,Registered Office,19.054999,72.8692035,Mumbai,Maharashtra,Registered Office
Pidilite Industries Limited,1,Registered Office,19.054999,72.8692035,Mumbai,Maharashtra,Registered Office
Pidilite Industries Limited,2,Corporate Office,19.054999,72.8692035,Mumbai,Maharashtra,Corporate Office
Pidilite Industries Limited,3,Plant,20.4169701,72.833173,Daman,,Plant
Piramal Enterprises Limited,1,Registered Office,19.054999,72.8692035,Mumbai,Maharashtra,Registered Office
Piramal Enterprises Limited,2,Corporate Office,22.3511148,78.6677428,,,Corporate Office
Piramal Pharma Limited,1,Registered Office,19.054999,72.8692035,Mumbai,Maharashtra,Registered Office
Piramal Pharma Limited,2,Plant,17.6631684,77.7105684,,Telangana,Plant
PI INDUSTRIES LIMITED,1,Registered Office,24.578721,73.6862571,Udaipur,Rajasthan,Registered Office
PI INDUSTRIES LIMITED,2,Corporate Office,21.2747038,77.5145062,Gurugram,Maharashtra,Corporate Office
PNB Housing Finance Limited,1,Registered Office,28.6138954,77.2090057,Delhi,Delhi,Registered Office
PNB Housing Finance Limited,2,Corporate Office,28.4646148,77.0299194,Gurugram,Haryana,Corporate Office
PNC Infratech Limited,1,Registered Office,28.6138954,77.2090057,Delhi,Delhi,Registered Office
PNC Infratech Limited,2,Corporate Office,28.5849775,77.258993,Agra,Delhi,Corporate Office
Polycab India Limited,1,Registered Office,22.2973142,73.1942567,Vadodara,Gujarat,Registered Office
Polycab India Limited,2,Corporate Office,19.054999,72.8692035,Mumbai,Maharashtra,Corporate Office
POLY MEDICURE LIMITED,1,Registered Office,28.6138954,77.2090057,Delhi,Delhi,Registered Office
Poonawalla Fincorp Limited,1,Registered Office,18.5213738,73.8545071,Pune,Maharashtra,Registered Office
Poonawalla Fincorp Limited,2,Corporate Office,19.054999,72.8692035,Mumbai,Maharashtra,Corporate Office
Power Finance Corporation Limited,1,Registered Office,28.6138954,77.2090057,Delhi,Delhi,Registered Office
Power Finance Corporation Limited,2,Corporate Office,28.6138954,77.2090057,Delhi,Delhi,Corporate Office
Power Grid Corporation of India Limited,1,Registered Office,28.6138954,77.2090057,Delhi,Delhi,Registered Office
Power Grid Corporation of India Limited,2,Corporate Office,28.4646148,77.0299194,Gurugram,Haryana,Corporate Office
Power Mech Projects Limited,1,Registered Office,17.360589,78.4740613,Hyderabad,Telangana,Registered Office
Praj Industries Limited,1,Registered Office,18.5213738,73.8545071,Pune,Maharashtra,Registered Office
Prestige Estates Projects Limited,1,Registered Office,12.9767936,77.590082,Bangalore,Karnataka,Registered Office
Prism Johnson Limited,1,Registered Office,17.360589,78.4740613,Hyderabad,Telangana,Registered Office
Prism Johnson Limited,2,Corporate Office,19.054999,72.8692035,Mumbai,Maharashtra,Corporate Office
Procter  Gamble Health Limited,1,Registered Office,19.054999,72.8692035,Mumbai,Maharashtra,Registered Office
PTC Industries Limited,1,Registered Office,26.8381,80.9346001,Lucknow,,Registered Office
PUNJAB NATIONAL BANK,1,Registered Office,30.9587052,74.610057,Delhi,Punjab,Registered Office
Punjab  Sind Bank,1,Registered Office,28.6138954,77.2090057,Delhi,Delhi,Registered Office
Punjab  Sind Bank,2,Corporate Office,28.6138954,77.2090057,Delhi,Delhi,Corporate Office
PVR INOX LIMITED,1,Registered Office,19.054999,72.8692035,Mumbai,Maharashtra,Registered Office
PVR INOX LIMITED,2,Corporate Office,28.4646148,77.0299194,Gurgaon,Haryana,Corporate Office
Quess Corp Limited,1,Registered Office,16.3113039,75.9164329,Hosur,Karnataka,Registered Office
Quess Corp Limited,2,Corporate Office,16.3113039,75.9164329,Hosur,Karnataka,Corporate Office
Radico Khaitan Limited,1,Registered Office,27.1303344,80.859666,,Uttar Pradesh,Registered Office
Radico Khaitan Limited,2,Corporate Office,28.6138954,77.2090057,Delhi,Delhi,Corporate Office
Railtel Corporation of India Limited,1,Registered Office,28.6138954,77.2090057,Delhi,Delhi,Registered Office
Rail Vikas Nigam Limited,1,Registered Office,28.6138954,77.2090057,Delhi,Delhi,Registered Office
RAJESH EXPORTS LIMITED,1,Registered Office,12.9767936,77.590082,Bangalore,Karnataka,Registered Office
RAJESH EXPORTS LIMITED,2,Corporate Office,12.9767936,77.590082,Bangalore,Karnataka,Corporate Office
Ramkrishna Forgings Limited,1,Registered Office,22.5726459,88.3638953,Kolkata,West Bengal,Registered Office
RateGain Travel Technologies Limited,1,Registered Office,28.6138954,77.2090057,Delhi,Delhi,Registered Office
RateGain Travel Technologies Limited,2,Corporate Office,28.5706333,77.3272147,Noida,Uttar Pradesh,Corporate Office
Ratnamani Metals  Tubes Limited,1,Registered Office,23.0215374,72.5800568,Ahmedabad,Gujarat,Registered Office
Ratnamani Metals  Tubes Limited,2,Corporate Office,23.0215374,72.5800568,Ahmedabad,Gujarat,Corporate Office
RATTANINDIA ENTERPRISES LIMITED,1,Registered Office,28.6138954,77.2090057,Delhi,Delhi,Registered Office
RATTANINDIA ENTERPRISES LIMITED,2,Corporate Office,28.6138954,77.2090057,Delhi,Delhi,Corporate Office
Raymond Limited,1,Registered Office,19.5670323,76.4164557,,Maharashtra,Registered Office
Raymond Limited,2,Corporate Office,19.054999,72.8692035,Mumbai,Maharashtra,Corporate Office
RBL Bank Limited,1,Registered Office,16.7028412,74.2405329,Kolhapur,Maharashtra,Registered Office
RBL Bank Limited,2,Corporate Office,19.054999,72.8692035,Mumbai,Maharashtra,Corporate Office
REC Limited,1,Registered Office,28.6138954,77.2090057,Delhi,Delhi,Registered Office
REC Limited,2,Corporate Office,28.4646148,77.0299194,Gurugram,Haryana,Corporate Office
Redington Limited,1,Registered Office,13.0836939,80.270186,Chennai,Tamil Nadu,Registered Office
Redtape Limited,1,Registered Office,28.5122394,77.4142559,Noida,Uttar Pradesh,Registered Office
Relaxo Footwears Limited,1,Registered Office,28.6138954,77.2090057,Delhi,Delhi,Registered Office
Reliance Industries Limited,1,Registered Office,19.054999,72.8692035,Mumbai,Maharashtra,Registered Office
Reliance Infrastructure Limited,1,Registered Office,19.054999,72.8692035,Mumbai,Maharashtra,Registered Office
RELIANCE POWER LIMITED,1,Registered Office,19.054999,72.8692035,Mumbai,Maharashtra,Registered Office
Responsive Industries Limited,1,Registered Office,22.3511148,78.6677428,,,Registered Office
RHI Magnesita India Ltd,1,Registered Office,19.054999,72.8692035,Mumbai,Maharashtra,Registered Office
RHI Magnesita India Ltd,2,Corporate Office,28.4646148,77.0299194,Gurugram,Haryana,Corporate Office
RHI Magnesita India Ltd,3,Plant,26.8105777,73.7684549,,Rajasthan,Plant
RITES Limited,1,Registered Office,28.6138954,77.2090057,Delhi,Delhi,Registered Office
RITES Limited,2,Corporate Office,28.4646148,77.0299194,Gurugram,Haryana,Corporate Office
Route Mobile Limited,1,Registered Office,19.054999,72.8692035,Mumbai,Maharashtra,Registered Office
Route Mobile Limited,2,Corporate Office,19.054999,72.8692035,Mumbai,Maharashtra,Corporate Office
Route Mobile Limited,3,Plant,22.3511148,78.6677428,,,Plant
R R Kabel Limited,1,Registered Office,19.054999,72.8692035,Mumbai,Maharashtra,Registered Office
R R Kabel Limited,2,Corporate Office,22.2973142,73.1942567,Vadodara,Gujarat,Corporate Office
Safari Industries India Limited,1,Registered Office,19.054999,72.8692035,Mumbai,Maharashtra,Registered Office
SAMVARDHANA MOTHERSON INTERNATIONAL LIMITED,1,Registered Office,19.054999,72.8692035,Mumbai,Maharashtra,Registered Office
SAMVARDHANA MOTHERSON INTERNATIONAL LIMITED,2,Corporate Office,28.5706333,77.3272147,Noida,Uttar Pradesh,Corporate Office
SAMVARDHANA MOTHERSON INTERNATIONAL LIMITED,4,Plant,18.5213738,73.8545071,Pune,Maharashtra,Plant
Sandur Manganese  Iron Ores Limited,1,Registered Office,14.9562045,75.7896741,,Karnataka,Registered Office
Sandur Manganese  Iron Ores Limited,2,Corporate Office,12.9767936,77.590082,Bengaluru,Karnataka,Corporate Office
Sandur Manganese  Iron Ores Limited,3,Plant,14.9562045,75.7896741,,Karnataka,Plant
Sanofi India Limited,1,Registered Office,19.054999,72.8692035,Mumbai,Maharashtra,Registered Office
SAPPHIRE FOODS INDIA LIMITED,1,Registered Office,19.054999,72.8692035,Mumbai,Maharashtra,Registered Office
SARDA ENERGY  MINERALS LIMITED,1,Registered Office,21.1514614,79.100324,Nagpur,Maharashtra,Registered Office
SARDA ENERGY  MINERALS LIMITED,2,Corporate Office,21.2380912,81.6336993,Raipur,Chhattisgarh,Corporate Office
SARDA ENERGY  MINERALS LIMITED,4,Facility,21.2380912,81.6336993,Raipur,,Facility
SAREGAMA India Limited,1,Registered Office,22.5726459,88.3638953,Kolkata,West Bengal,Registered Office
SAREGAMA India Limited,2,Corporate Office,19.054999,72.8692035,Mumbai,Maharashtra,Corporate Office
SBFC Finance Limited,1,Registered Office,19.054999,72.8692035,Mumbai,Maharashtra,Registered Office
SBI Cards and Payment Services Limited,1,Registered Office,28.6138954,77.2090057,Delhi,Delhi,Registered Office
SBI Cards and Payment Services Limited,2,Corporate Office,28.4646148,77.0299194,Gurugram,Haryana,Corporate Office
SBI Life Insurance Company Limited,1,Registered Office,19.054999,72.8692035,Mumbai,Maharashtra,Registered Office
Schaeffler India Limited,1,Registered Office,18.5213738,73.8545071,Pune,Maharashtra,Registered Office
Schneider Electric Infrastructure Limited,1,Registered Office,22.2973142,73.1942567,Vadodara,Gujarat,Registered Office
Schneider Electric Infrastructure Limited,2,Corporate Office,28.4646148,77.0299194,Gurugram,Haryana,Corporate Office
Schneider Electric Infrastructure Limited,3,Facility,22.5726459,88.3638953,Kolkata,West Bengal,Facility
Sheela Foam Limited,1,Registered Office,19.054999,72.8692035,Mumbai,Maharashtra,Registered Office
Sheela Foam Limited,2,Corporate Office,28.5706333,77.3272147,Noida,Uttar Pradesh,Corporate Office
SHIPPING CORPORATION OF INDIA LIMITED,1,Registered Office,19.054999,72.8692035,Mumbai,Maharashtra,Registered Office
Shoppers Stop Limited,1,Registered Office,19.054999,72.8692035,Mumbai,Maharashtra,Registered Office
Shoppers Stop Limited,2,Corporate Office,19.054999,72.8692035,Mumbai,Maharashtra,Corporate Office
Shree Renuka Sugars Limited,1,Registered Office,14.9562045,75.7896741,,Karnataka,Registered Office
Shree Renuka Sugars Limited,2,Corporate Office,19.054999,72.8692035,Mumbai,Maharashtra,Corporate Office
Shriram Finance Limited,1,Registered Office,13.0836939,80.270186,Chennai,Tamil Nadu,Registered Office
Shriram Finance Limited,2,Corporate Office,19.054999,72.8692035,Mumbai,Maharashtra,Corporate Office
Shyam Metalics and Energy Limited,1,Registered Office,22.5726459,88.3638953,Kolkata,West Bengal,Registered Office
Shyam Metalics and Energy Limited,2,Plant,22.3511148,78.6677428,,,Plant
Siemens Limited,1,Registered Office,19.054999,72.8692035,Mumbai,Maharashtra,Registered Office
Signatureglobal India Limited,1,Registered Office,28.6138954,77.2090057,Delhi,Delhi,Registered Office
Signatureglobal India Limited,2,Corporate Office,28.4646148,77.0299194,Gurugram,Haryana,Corporate Office
SJVN Limited,1,Registered Office,31.9292352,77.1828462,,Himachal Pradesh,Registered Office
SKF INDIA LIMITED,1,Registered Office,18.6403548,73.7917128,Pune,Maharashtra,Registered Office
Sobha Limited,1,Registered Office,12.9767936,77.590082,Bangalore,Karnataka,Registered Office
Solar Industries India Limited,1,Registered Office,21.1545412,77.6442962,Amravati,,Registered Office
Sonata Software Limited,1,Registered Office,19.054999,72.8692035,Mumbai,Maharashtra,Registered Office
Sonata Software Limited,2,Corporate Office,12.3051828,76.6553609,Mysore,Karnataka,Corporate Office
Sona BLW Precision Forgings Limited,1,Registered Office,28.4646148,77.0299194,Gurgaon,Haryana,Registered Office
Sona BLW Precision Forgings Limited,2,Corporate Office,28.4646148,77.0299194,Gurgaon,Haryana,Corporate Office
SRF LIMITED,1,Registered Office,28.6138731,77.3217707,Noida,Delhi,Registered Office
SRF LIMITED,2,Corporate Office,28.4646148,77.0299194,Gurugram,Haryana,Corporate Office
Star Cement Limited,1,Registered Office,25.5379432,91.2999102,,Meghalaya,Registered Office
Star Cement Limited,2,Corporate Office,22.5726459,88.3638953,Kolkata,West Bengal,Corporate Office
Star Health and Allied Insurance Company Limited,1,Registered Office,13.0836939,80.270186,Chennai,Tamil Nadu,Registered Office
Star Health and Allied Insurance Company Limited,2,Corporate Office,13.0836939,80.270186,Chennai,Tamil Nadu,Corporate Office
STATE BANK OF INDIA,1,Registered Office,19.054999,72.8692035,Mumbai,Maharashtra,Registered Office
Steel Authority of India Limited,1,Registered Office,28.6138954,77.2090057,Delhi,Delhi,Registered Office
Sterling and Wilson Renewable Energy Limited,1,Registered Office,19.054999,72.8692035,Mumbai,Maharashtra,Registered Office
Sterling and Wilson Renewable Energy Limited,2,Corporate Office,19.054999,72.8692035,Mumbai,Maharashtra,Corporate Office
SUMITOMO CHEMICAL INDIA LIMITED,1,Registered Office,19.054999,72.8692035,Mumbai,Maharashtra,Registered Office
SUMITOMO CHEMICAL INDIA LIMITED,2,Corporate Office,19.054999,72.8692035,Mumbai,Maharashtra,Corporate Office
SUMITOMO CHEMICAL INDIA LIMITED,3,Plant,21.7718836,72.1416449,Bhavnagar,,Plant
SUNDARAM FINANCE LIMITED,1,Registered Office,13.0836939,80.270186,Chennai,Tamil Nadu,Registered Office
SUNDARAM FINANCE LIMITED,2,Facility,13.0836939,80.270186,Chennai,Tamil Nadu,Facility
Sundram Fasteners Limited,1,Registered Office,13.0836939,80.270186,Chennai,Tamil Nadu,Registered Office
Sun Pharmaceutical Industries Limited,1,Registered Office,22.2973142,73.1942567,Vadodara,Gujarat,Registered Office
Sun Pharmaceutical Industries Limited,2,Corporate Office,19.054999,72.8692035,Mumbai,Maharashtra,Corporate Office
Sun Pharmaceutical Industries Limited,3,Plant,12.9767936,77.590082,Bengaluru,Karnataka,Plant
Sun Pharma Advanced Research Company Limited,1,Registered Office,22.2973142,73.1942567,Vadodara,Gujarat,Registered Office
Sun Pharma Advanced Research Company Limited,2,Corporate Office,19.054999,72.8692035,Mumbai,Maharashtra,Corporate Office
Sun TV Network Limited,1,Registered Office,13.0836939,80.270186,Chennai,Tamil Nadu,Registered Office
Supreme Industries Limited,1,Registered Office,19.054999,72.8692035,Mumbai,Maharashtra,Registered Office
Supreme Industries Limited,2,Corporate Office,19.054999,72.8692035,Mumbai,Maharashtra,Corporate Office
SUPREME PETROCHEM LIMITED,1,Registered Office,19.054999,72.8692035,Mumbai,Maharashtra,Registered Office
SUZLON ENERGY LIMITED,1,Registered Office,23.0215374,72.5800568,Ahmedabad,Gujarat,Registered Office
SUZLON ENERGY LIMITED,2,Corporate Office,18.5213738,73.8545071,Pune,Maharashtra,Corporate Office
SUZLON ENERGY LIMITED,3,Plant,26.8105777,73.7684549,,Rajasthan,Plant
Syngene International Limited,1,Registered Office,12.9767936,77.590082,Bengaluru,Karnataka,Registered Office
Syngene International Limited,2,Corporate Office,12.9767936,77.590082,Bengaluru,Karnataka,Corporate Office
Syrma SGS Technology Limited,1,Registered Office,19.054999,72.8692035,Mumbai,Maharashtra,Registered Office
Syrma SGS Technology Limited,2,Corporate Office,13.0836939,80.270186,Chennai,Tamil Nadu,Corporate Office
Syrma SGS Technology Limited,3,Plant,13.4938975,77.0003543,Chennai,Karnataka,Plant
Tamilnad Mercantile Bank Limited,1,Registered Office,8.8006323,78.1244927,,,Registered Office
Tanla Platforms Limited,1,Registered Office,17.360589,78.4740613,Hyderabad,Telangana,Registered Office
TATA CHEMICALS LIMITED,1,Registered Office,19.054999,72.8692035,Mumbai,Maharashtra,Registered Office
TATA CHEMICALS LIMITED,2,Plant,19.0488479,72.8287996,Ankleshwar,Maharashtra,Plant
TATA COMMUNICATIONS LIMITED,1,Registered Office,19.054999,72.8692035,Mumbai,Maharashtra,Registered Office
TATA COMMUNICATIONS LIMITED,2,Corporate Office,19.054999,72.8692035,Mumbai,Maharashtra,Corporate Office
Tata Consultancy Services Limited,1,Registered Office,19.054999,72.8692035,Mumbai,Maharashtra,Registered Office
Tata Consultancy Services Limited,2,Corporate Office,19.054999,72.8692035,Mumbai,Maharashtra,Corporate Office
Tata Consumer Products Limited,1,Registered Office,22.5400153,88.3482964,Kolkata,West Bengal,Registered Office
Tata Consumer Products Limited,2,Corporate Office,19.054999,72.8692035,Mumbai,Maharashtra,Corporate Office
Tata Elxsi Limited,1,Registered Office,12.9767936,77.590082,Bengaluru,Karnataka,Registered Office
Tata Investment Corporation Limited,1,Registered Office,19.054999,72.8692035,Mumbai,Maharashtra,Registered Office
Tata Motors Limited,1,Registered Office,19.054999,72.8692035,Mumbai,Maharashtra,Registered Office
Tata Steel Limited,1,Registered Office,19.054999,72.8692035,Mumbai,Maharashtra,Registered Office
Tata Steel Limited,2,Plant,22.8015194,86.2029579,Jamshedpur,,Plant
Tata Technologies Limited,1,Registered Office,18.5213738,73.8545071,Pune,Maharashtra,Registered Office
Tata Teleservices Maharashtra Limited,1,Registered Office,19.054999,72.8692035,Mumbai,Maharashtra,Registered Office
TBO Tek Limited,1,Registered Office,28.6138954,77.2090057,Delhi,Delhi,Registered Office
TBO Tek Limited,2,Corporate Office,28.4646148,77.0299194,Gurgaon,Haryana,Corporate Office
Techno Electric  Engineering Company Limited,1,Registered Office,28.5706333,77.3272147,Noida,Uttar Pradesh,Registered Office
Techno Electric  Engineering Company Limited,2,Corporate Office,22.5726459,88.3638953,Kolkata,West Bengal,Corporate Office
Tech Mahindra Limited,1,Registered Office,19.054999,72.8692035,Mumbai,Maharashtra,Registered Office
Tech Mahindra Limited,2,Corporate Office,18.5213738,73.8545071,Pune,Maharashtra,Corporate Office
TEGA INDUSTRIES LIMITED,1,Registered Office,22.5726459,88.3638953,Kolkata,West Bengal,Registered Office
Tejas Networks Limited,1,Registered Office,12.9767936,77.590082,Bengaluru,Karnataka,Registered Office
Tejas Networks Limited,2,Plant,12.9767936,77.590082,Bengaluru,Karnataka,Plant
Thermax Limited,1,Registered Office,18.5213738,73.8545071,Pune,Maharashtra,Registered Office
Thermax Limited,2,Corporate Office,19.054999,72.8692035,Mumbai,Maharashtra,Corporate Office
THE NEW INDIA ASSURANCE COMPANY LIMITED,1,Registered Office,19.054999,72.8692035,Mumbai,Maharashtra,Registered Office
THE PHOENIX MILLS LIMITED,1,Registered Office,19.0051138,72.8309291,Mumbai,Maharashtra,Registered Office
THE PHOENIX MILLS LIMITED,2,Corporate Office,19.054999,72.8692035,Mumbai,Maharashtra,Corporate Office
The Ramco Cements Limited,1,Registered Office,22.3511148,78.6677428,,,Registered Office
The Ramco Cements Limited,2,Corporate Office,13.0836939,80.270186,Chennai,Tamil Nadu,Corporate Office
Thomas Cook  India  Limited,1,Registered Office,19.054999,72.8692035,Mumbai,Maharashtra,Registered Office
Timken India Limited,1,Registered Office,16.3113039,75.9164329,Hosur,Karnataka,Registered Office
TITAGARH RAIL SYSTEMS LIMITED,1,Registered Office,22.5726459,88.3638953,Kolkata,West Bengal,Registered Office
TITAGARH RAIL SYSTEMS LIMITED,2,Corporate Office,22.5726459,88.3638953,Kolkata,West Bengal,Corporate Office
Titan Company Limited,1,Registered Office,12.7183361,77.8229481,Hosur,Tamil Nadu,Registered Office
Titan Company Limited,2,Corporate Office,16.3113039,75.9164329,Hosur,Karnataka,Corporate Office
Titan Company Limited,3,Plant,16.3113039,75.9164329,Hosur,Karnataka,Plant
Torrent Pharmaceuticals Limited,1,Registered Office,23.0215374,72.5800568,Ahmedabad,Gujarat,Registered Office
Torrent Pharmaceuticals Limited,2,Plant,22.3511148,78.6677428,,,Plant
Torrent Power Limited,1,Registered Office,23.0215374,72.5800568,Ahmedabad,Gujarat,Registered Office
TRIDENT LIMITED,1,Registered Office,30.9293211,75.5004841,,Punjab,Registered Office
TRIDENT LIMITED,3,Facility,30.9293211,75.5004841,,Punjab,Facility
Triveni Engineering  Industries Limited,1,Registered Office,28.5706333,77.3272147,Noida,Uttar Pradesh,Registered Office
Triveni Engineering  Industries Limited,2,Corporate Office,28.5706333,77.3272147,Noida,Uttar Pradesh,Corporate Office
Triveni Turbine Limited,1,Registered Office,28.5706333,77.3272147,Noida,Uttar Pradesh,Registered Office
Triveni Turbine Limited,2,Corporate Office,28.5706333,77.3272147,Noida,Uttar Pradesh,Corporate Office
Triveni Turbine Limited,3,Plant,17.360589,78.4740613,Hyderabad,Telangana,Plant
TTK PRESTIGE LIMITED,1,Registered Office,12.7183361,77.8229481,Hosur,Tamil Nadu,Registered Office
TTK PRESTIGE LIMITED,2,Corporate Office,12.9767936,77.590082,Bengaluru,Karnataka,Corporate Office
Tube Investments of India Limited,1,Registered Office,13.0836939,80.270186,Chennai,Tamil Nadu,Registered Office
TVS Holdings Limited,1,Registered Office,13.0836939,80.270186,Chennai,Tamil Nadu,Registered Office
TVS Motor Company Limited,1,Registered Office,13.0836939,80.270186,Chennai,Tamil Nadu,Registered Office
TVS Supply Chain Solutions Limited,1,Registered Office,9.9261153,78.1140983,Madurai,Tamil Nadu,Registered Office
TVS Supply Chain Solutions Limited,2,Corporate Office,13.0836939,80.270186,Chennai,Tamil Nadu,Corporate Office
UCO BANK,2,Corporate Office,22.5726459,88.3638953,Kolkata,West Bengal,Corporate Office
Ujjivan Small Finance Bank Limited,1,Registered Office,12.9767936,77.590082,Bengaluru,Karnataka,Registered Office
UltraTech Cement Limited,1,Registered Office,19.054999,72.8692035,Mumbai,Maharashtra,Registered Office
UltraTech Cement Limited,2,Plant,22.3850051,71.745261,,Gujarat,Plant
UNION BANK OF INDIA,1,Registered Office,19.054999,72.8692035,Mumbai,Maharashtra,Registered Office
UNION BANK OF INDIA,2,Facility,27.1303344,80.859666,,Uttar Pradesh,Facility
UNITED BREWERIES LIMITED,1,Registered Office,12.9767936,77.590082,Bengaluru,Karnataka,Registered Office
United Spirits Limited,1,Registered Office,12.9767936,77.590082,Bengaluru,Karnataka,Registered Office
United Spirits Limited,2,Plant,12.9767936,77.590082,Bangalore,Karnataka,Plant
Uno Minda Limited,1,Registered Office,28.6138954,77.2090057,Delhi,Delhi,Registered Office
Uno Minda Limited,2,Corporate Office,28.3247096,76.9263787,Manesar,Haryana,Corporate Office
UPL LIMITED,1,Registered Office,20.3735482,72.9084376,Vapi,Gujarat,Registered Office
UPL LIMITED,2,Corporate Office,19.054999,72.8692035,Mumbai,Maharashtra,Corporate Office
UPL LIMITED,3,Plant,21.6293206,72.9945103,Ankleshwar,Gujarat,Plant
Usha Martin Limited,1,Registered Office,22.545567,88.3502993,Kolkata,West Bengal,Registered Office
Usha Martin Limited,2,Corporate Office,22.5726459,88.3638953,Kolkata,West Bengal,Corporate Office
UTI Asset Management Company Limited,1,Registered Office,19.054999,72.8692035,Mumbai,Maharashtra,Registered Office
V-GUARD INDUSTRIES LIMITED,1,Registered Office,10.3528744,76.5120396,,Kerala,Registered Office
VALOR ESTATE LIMITED,1,Registered Office,19.054999,72.8692035,Mumbai,Maharashtra,Registered Office
Varroc Engineering Limited,1,Registered Office,24.8033201,84.4110198,Aurangabad,,Registered Office
Varroc Engineering Limited,2,Facility,18.5213738,73.8545071,Pune,Maharashtra,Facility
Varun Beverages Limited,1,Registered Office,28.6138954,77.2090057,Delhi,Delhi,Registered Office
Varun Beverages Limited,2,Corporate Office,28.4646148,77.0299194,Gurugram,Haryana,Corporate Office
Varun Beverages Limited,3,Plant,22.3511148,78.6677428,,,Plant
Vedanta Limited,1,Registered Office,19.054999,72.8692035,Mumbai,Maharashtra,Registered Office
Vedanta Limited,2,Corporate Office,28.6138954,77.2090057,Delhi,Delhi,Corporate Office
Vedant Fashions Limited,1,Registered Office,22.5726459,88.3638953,Kolkata,West Bengal,Registered Office
Vesuvius India Limited,1,Registered Office,22.5726459,88.3638953,Kolkata,West Bengal,Registered Office
Vinati Organics Limited,1,Registered Office,19.5670323,76.4164557,,Maharashtra,Registered Office
Vinati Organics Limited,2,Corporate Office,19.054999,72.8692035,Mumbai,Maharashtra,Corporate Office
VIP INDUSTRIES LIMITED,1,Registered Office,19.054999,72.8692035,Mumbai,Maharashtra,Registered Office
Vodafone Idea Limited,1,Registered Office,23.2232877,72.6492267,Gandhinagar,Gujarat,Registered Office
Vodafone Idea Limited,2,Corporate Office,19.054999,72.8692035,Mumbai,Maharashtra,Corporate Office
Voltas Limited,1,Registered Office,19.054999,72.8692035,Mumbai,Maharashtra,Registered Office
Waaree Renewable Technologies Limited,1,Registered Office,19.054999,72.8692035,Mumbai,Maharashtra,Registered Office
Welspun Corp Limited,1,Registered Office,22.3850051,71.745261,,Gujarat,Registered Office
Welspun Corp Limited,2,Corporate Office,19.054999,72.8692035,Mumbai,Maharashtra,Corporate Office
Welspun Living Limited,1,Registered Office,22.3850051,71.745261,,Gujarat,Registered Office
Welspun Living Limited,2,Corporate Office,19.054999,72.8692035,Mumbai,Maharashtra,Corporate Office
Welspun Living Limited,3,Facility,17.360589,78.4740613,Hyderabad,Telangana,Facility
Westlife Foodworld Limited,1,Registered Office,19.054999,72.8692035,Mumbai,Maharashtra,Registered Office
Whirlpool of India Limited,1,Registered Office,18.5213738,73.8545071,Pune,Maharashtra,Registered Office
Whirlpool of India Limited,2,Corporate Office,28.4507064,77.0738281,Gurugram,Haryana,Corporate Office
Wipro Limited,1,Registered Office,12.9767936,77.590082,Bengaluru,Karnataka,Registered Office
Wipro Limited,2,Plant,12.3051828,76.6553609,Mysore,Karnataka,Plant
Wockhardt Limited,1,Registered Office,19.5670323,76.4164557,,Maharashtra,Registered Office
Wockhardt Limited,2,Corporate Office,19.054999,72.8692035,Mumbai,Maharashtra,Corporate Office
Wockhardt Limited,3,Plant,22.3511148,78.6677428,,,Plant
YES Bank Limited,1,Registered Office,19.054999,72.8692035,Mumbai,Maharashtra,Registered Office
Zee Entertainment Enterprises Limited,1,Registered Office,19.054999,72.8692035,Mumbai,Maharashtra,Registered Office
ZENSAR TECHNOLOGIES LIMITED,1,Registered Office,18.5213738,73.8545071,Pune,Maharashtra,Registered Office
ZENSAR TECHNOLOGIES LIMITED,2,Plant,12.9767936,77.590082,Bangalore,Karnataka,Plant
Zen Technologies Limited,1,Registered Office,17.360589,78.4740613,Hyderabad,Telangana,Registered Office
ZF Commercial Vehicle Control Systems India Limited,1,Registered Office,13.0836939,80.270186,Chennai,Tamil Nadu,Registered Office
Zydus Lifesciences Limited,1,Registered Office,23.2232877,72.6492267,Gandhinagar,Gujarat,Registered Office
Zydus Lifesciences Limited,2,Plant,22.2973142,73.1942567,Vadodara,Gujarat,Plant
Zydus Wellness Limited,1,Registered Office,23.2232877,72.6492267,Gandhinagar,Gujarat,Registered Office
Reliance Industries Limited,EST_1,Refinery,19.054999,72.8692035,Mumbai,Maharashtra,Refinery
Reliance Industries Limited,EST_2,Terminal,19.054999,72.8692035,Mumbai,Maharashtra,Terminal
Reliance Industries Limited,EST_3,Office,19.054999,72.8692035,Mumbai,Maharashtra,Office
Reliance Industries Limited,EST_4,Warehouse,19.054999,72.8692035,Mumbai,Maharashtra,Warehouse
Tata Consultancy Services Limited,EST_1,Office,19.054999,72.8692035,Mumbai,Maharashtra,Office
Tata Consultancy Services Limited,EST_2,Data Center,19.054999,72.8692035,Mumbai,Maharashtra,Data Center
HDFC Bank Limited,EST_1,Branch,19.054999,72.8692035,Mumbai,Maharashtra,Branch
HDFC Bank Limited,EST_2,Office,19.054999,72.8692035,Mumbai,Maharashtra,Office
HDFC Bank Limited,EST_3,Data Center,19.054999,72.8692035,Mumbai,Maharashtra,Data Center
HDFC Bank Limited,EST_4,Branch,19.054999,72.8692035,Mumbai,Maharashtra,Branch
HDFC Bank Limited,EST_5,Office,19.054999,72.8692035,Mumbai,Maharashtra,Office
HDFC Bank Limited,EST_6,Data Center,19.054999,72.8692035,Mumbai,Maharashtra,Data Center
HDFC Bank Limited,EST_7,Branch,19.054999,72.8692035,Mumbai,Maharashtra,Branch
HDFC Bank Limited,EST_8,Office,19.054999,72.8692035,Mumbai,Maharashtra,Office
HDFC Bank Limited,EST_9,Data Center,19.054999,72.8692035,Mumbai,Maharashtra,Data Center
HDFC Bank Limited,EST_10,Branch,19.054999,72.8692035,Mumbai,Maharashtra,Branch
HDFC Bank Limited,EST_11,Office,19.054999,72.8692035,Mumbai,Maharashtra,Office
HDFC Bank Limited,EST_12,Data Center,19.054999,72.8692035,Mumbai,Maharashtra,Data Center
HDFC Bank Limited,EST_13,Branch,19.054999,72.8692035,Mumbai,Maharashtra,Branch
HDFC Bank Limited,EST_14,Office,19.054999,72.8692035,Mumbai,Maharashtra,Office
HDFC Bank Limited,EST_15,Data Center,19.054999,72.8692035,Mumbai,Maharashtra,Data Center
HDFC Bank Limited,EST_16,Branch,19.054999,72.8692035,Mumbai,Maharashtra,Branch
HDFC Bank Limited,EST_17,Office,19.054999,72.8692035,Mumbai,Maharashtra,Office
HDFC Bank Limited,EST_18,Data Center,19.054999,72.8692035,Mumbai,Maharashtra,Data Center
HDFC Bank Limited,EST_19,Branch,19.054999,72.8692035,Mumbai,Maharashtra,Branch
HDFC Bank Limited,EST_20,Office,19.054999,72.8692035,Mumbai,Maharashtra,Office
HDFC Bank Limited,EST_21,Data Center,19.054999,72.8692035,Mumbai,Maharashtra,Data Center
HDFC Bank Limited,EST_22,Branch,19.054999,72.8692035,Mumbai,Maharashtra,Branch
ICICI Bank Limited,EST_1,Branch,22.2973142,73.1942567,Vadodara,Gujarat,Branch
ICICI Bank Limited,EST_2,Office,22.2973142,73.1942567,Vadodara,Gujarat,Office
ICICI Bank Limited,EST_3,Data Center,22.2973142,73.1942567,Vadodara,Gujarat,Data Center
ICICI Bank Limited,EST_4,Branch,22.2973142,73.1942567,Vadodara,Gujarat,Branch
ICICI Bank Limited,EST_5,Office,22.2973142,73.1942567,Vadodara,Gujarat,Office
ICICI Bank Limited,EST_6,Data Center,22.2973142,73.1942567,Vadodara,Gujarat,Data Center
ICICI Bank Limited,EST_7,Branch,22.2973142,73.1942567,Vadodara,Gujarat,Branch
ICICI Bank Limited,EST_8,Office,22.2973142,73.1942567,Vadodara,Gujarat,Office
ICICI Bank Limited,EST_9,Data Center,22.2973142,73.1942567,Vadodara,Gujarat,Data Center
ICICI Bank Limited,EST_10,Branch,22.2973142,73.1942567,Vadodara,Gujarat,Branch
ICICI Bank Limited,EST_11,Office,22.2973142,73.1942567,Vadodara,Gujarat,Office
ICICI Bank Limited,EST_12,Data Center,22.2973142,73.1942567,Vadodara,Gujarat,Data Center
ICICI Bank Limited,EST_13,Branch,22.2973142,73.1942567,Vadodara,Gujarat,Branch
ICICI Bank Limited,EST_14,Office,22.2973142,73.1942567,Vadodara,Gujarat,Office
ICICI Bank Limited,EST_15,Data Center,22.2973142,73.1942567,Vadodara,Gujarat,Data Center
ICICI Bank Limited,EST_16,Branch,22.2973142,73.1942567,Vadodara,Gujarat,Branch
ICICI Bank Limited,EST_17,Office,22.2973142,73.1942567,Vadodara,Gujarat,Office
ICICI Bank Limited,EST_18,Data Center,22.2973142,73.1942567,Vadodara,Gujarat,Data Center
ICICI Bank Limited,EST_19,Branch,22.2973142,73.1942567,Vadodara,Gujarat,Branch
ICICI Bank Limited,EST_20,Office,22.2973142,73.1942567,Vadodara,Gujarat,Office
ICICI Bank Limited,EST_21,Data Center,22.2973142,73.1942567,Vadodara,Gujarat,Data Center
ICICI Bank Limited,EST_22,Branch,22.2973142,73.1942567,Vadodara,Gujarat,Branch
Bharti Airtel Limited,EST_1,Office,28.4646148,77.0299194,Gurugram,Haryana,Office
Bharti Airtel Limited,EST_2,Tower,28.4646148,77.0299194,Gurugram,Haryana,Tower
Bharti Airtel Limited,EST_3,Data Center,28.4646148,77.0299194,Gurugram,Haryana,Data Center
Bharti Airtel Limited,EST_4,Store,28.4646148,77.0299194,Gurugram,Haryana,Store
Bharti Airtel Limited,EST_5,Office,28.4646148,77.0299194,Gurugram,Haryana,Office
Bharti Airtel Limited,EST_6,Tower,28.4646148,77.0299194,Gurugram,Haryana,Tower
Bharti Airtel Limited,EST_7,Data Center,28.4646148,77.0299194,Gurugram,Haryana,Data Center
Bharti Airtel Limited,EST_8,Store,28.4646148,77.0299194,Gurugram,Haryana,Store
Bharti Airtel Limited,EST_9,Office,28.4646148,77.0299194,Gurugram,Haryana,Office
Bharti Airtel Limited,EST_10,Tower,28.4646148,77.0299194,Gurugram,Haryana,Tower
STATE BANK OF INDIA,EST_1,Branch,19.054999,72.8692035,Mumbai,Maharashtra,Branch
STATE BANK OF INDIA,EST_2,Office,19.054999,72.8692035,Mumbai,Maharashtra,Office
STATE BANK OF INDIA,EST_3,Data Center,19.054999,72.8692035,Mumbai,Maharashtra,Data Center
STATE BANK OF INDIA,EST_4,Branch,19.054999,72.8692035,Mumbai,Maharashtra,Branch
STATE BANK OF INDIA,EST_5,Office,19.054999,72.8692035,Mumbai,Maharashtra,Office
STATE BANK OF INDIA,EST_6,Data Center,19.054999,72.8692035,Mumbai,Maharashtra,Data Center
STATE BANK OF INDIA,EST_7,Branch,19.054999,72.8692035,Mumbai,Maharashtra,Branch
STATE BANK OF INDIA,EST_8,Office,19.054999,72.8692035,Mumbai,Maharashtra,Office
STATE BANK OF INDIA,EST_9,Data Center,19.054999,72.8692035,Mumbai,Maharashtra,Data Center
STATE BANK OF INDIA,EST_10,Branch,19.054999,72.8692035,Mumbai,Maharashtra,Branch
STATE BANK OF INDIA,EST_11,Office,19.054999,72.8692035,Mumbai,Maharashtra,Office
STATE BANK OF INDIA,EST_12,Data Center,19.054999,72.8692035,Mumbai,Maharashtra,Data Center
STATE BANK OF INDIA,EST_13,Branch,19.054999,72.8692035,Mumbai,Maharashtra,Branch
STATE BANK OF INDIA,EST_14,Office,19.054999,72.8692035,Mumbai,Maharashtra,Office
STATE BANK OF INDIA,EST_15,Data Center,19.054999,72.8692035,Mumbai,Maharashtra,Data Center
STATE BANK OF INDIA,EST_16,Branch,19.054999,72.8692035,Mumbai,Maharashtra,Branch
STATE BANK OF INDIA,EST_17,Office,19.054999,72.8692035,Mumbai,Maharashtra,Office
STATE BANK OF INDIA,EST_18,Data Center,19.054999,72.8692035,Mumbai,Maharashtra,Data Center
STATE BANK OF INDIA,EST_19,Branch,19.054999,72.8692035,Mumbai,Maharashtra,Branch
STATE BANK OF INDIA,EST_20,Office,19.054999,72.8692035,Mumbai,Maharashtra,Office
STATE BANK OF INDIA,EST_21,Data Center,19.054999,72.8692035,Mumbai,Maharashtra,Data Center
STATE BANK OF INDIA,EST_22,Branch,19.054999,72.8692035,Mumbai,Maharashtra,Branch
STATE BANK OF INDIA,EST_23,Office,19.054999,72.8692035,Mumbai,Maharashtra,Office
Infosys Limited,EST_1,Office,16.3113039,75.9164329,Hosur,Karnataka,Office
Infosys Limited,EST_2,Data Center,16.3113039,75.9164329,Hosur,Karnataka,Data Center
Infosys Limited,EST_3,Development Center,16.3113039,75.9164329,Hosur,Karnataka,Development Center
Life Insurance Corporation of India,EST_1,Branch,19.054999,72.8692035,Mumbai,Maharashtra,Branch
Life Insurance Corporation of India,EST_2,Office,19.054999,72.8692035,Mumbai,Maharashtra,Office
Life Insurance Corporation of India,EST_3,Data Center,19.054999,72.8692035,Mumbai,Maharashtra,Data Center
Life Insurance Corporation of India,EST_4,Branch,19.054999,72.8692035,Mumbai,Maharashtra,Branch
Life Insurance Corporation of India,EST_5,Office,19.054999,72.8692035,Mumbai,Maharashtra,Office
Life Insurance Corporation of India,EST_6,Data Center,19.054999,72.8692035,Mumbai,Maharashtra,Data Center
Life Insurance Corporation of India,EST_7,Branch,19.054999,72.8692035,Mumbai,Maharashtra,Branch
Life Insurance Corporation of India,EST_8,Office,19.054999,72.8692035,Mumbai,Maharashtra,Office
Life Insurance Corporation of India,EST_9,Data Center,19.054999,72.8692035,Mumbai,Maharashtra,Data Center
Life Insurance Corporation of India,EST_10,Branch,19.054999,72.8692035,Mumbai,Maharashtra,Branch
Life Insurance Corporation of India,EST_11,Office,19.054999,72.8692035,Mumbai,Maharashtra,Office
Life Insurance Corporation of India,EST_12,Data Center,19.054999,72.8692035,Mumbai,Maharashtra,Data Center
Life Insurance Corporation of India,EST_13,Branch,19.054999,72.8692035,Mumbai,Maharashtra,Branch
Life Insurance Corporation of India,EST_14,Office,19.054999,72.8692035,Mumbai,Maharashtra,Office
Life Insurance Corporation of India,EST_15,Data Center,19.054999,72.8692035,Mumbai,Maharashtra,Data Center
Life Insurance Corporation of India,EST_16,Branch,19.054999,72.8692035,Mumbai,Maharashtra,Branch
Life Insurance Corporation of India,EST_17,Office,19.054999,72.8692035,Mumbai,Maharashtra,Office
Life Insurance Corporation of India,EST_18,Data Center,19.054999,72.8692035,Mumbai,Maharashtra,Data Center
Life Insurance Corporation of India,EST_19,Branch,19.054999,72.8692035,Mumbai,Maharashtra,Branch
Life Insurance Corporation of India,EST_20,Office,19.054999,72.8692035,Mumbai,Maharashtra,Office
Life Insurance Corporation of India,EST_21,Data Center,19.054999,72.8692035,Mumbai,Maharashtra,Data Center
Life Insurance Corporation of India,EST_22,Branch,19.054999,72.8692035,Mumbai,Maharashtra,Branch
Life Insurance Corporation of India,EST_23,Office,19.054999,72.8692035,Mumbai,Maharashtra,Office
Hindustan Unilever Limited,EST_1,Factory,19.054999,72.8692035,Mumbai,Maharashtra,Factory
Hindustan Unilever Limited,EST_2,Warehouse,19.054999,72.8692035,Mumbai,Maharashtra,Warehouse
Hindustan Unilever Limited,EST_3,Distribution Center,19.054999,72.8692035,Mumbai,Maharashtra,Distribution Center
Hindustan Unilever Limited,EST_4,Office,19.054999,72.8692035,Mumbai,Maharashtra,Office
Hindustan Unilever Limited,EST_5,Factory,19.054999,72.8692035,Mumbai,Maharashtra,Factory
Hindustan Unilever Limited,EST_6,Warehouse,19.054999,72.8692035,Mumbai,Maharashtra,Warehouse
Hindustan Unilever Limited,EST_7,Distribution Center,19.054999,72.8692035,Mumbai,Maharashtra,Distribution Center
Hindustan Unilever Limited,EST_8,Office,19.054999,72.8692035,Mumbai,Maharashtra,Office
Hindustan Unilever Limited,EST_9,Factory,19.054999,72.8692035,Mumbai,Maharashtra,Factory
Hindustan Unilever Limited,EST_10,Warehouse,19.054999,72.8692035,Mumbai,Maharashtra,Warehouse
Hindustan Unilever Limited,EST_11,Distribution Center,19.054999,72.8692035,Mumbai,Maharashtra,Distribution Center
Hindustan Unilever Limited,EST_12,Office,19.054999,72.8692035,Mumbai,Maharashtra,Office
Hindustan Unilever Limited,EST_13,Factory,19.054999,72.8692035,Mumbai,Maharashtra,Factory
ITC Limited,EST_1,Factory,22.5726459,88.3638953,Kolkata,West Bengal,Factory
ITC Limited,EST_2,Warehouse,22.5726459,88.3638953,Kolkata,West Bengal,Warehouse
ITC Limited,EST_3,Distribution Center,22.5726459,88.3638953,Kolkata,West Bengal,Distribution Center
ITC Limited,EST_4,Office,22.5726459,88.3638953,Kolkata,West Bengal,Office
